{"type":"FeatureCollection","features":[{"type":"Feature","properties":{"ward":"A"},"geometry":{"type":"MultiPolygon","coordinates":[[[[72.8235497,18.9414646],[72.8236025,18.9410496],[72.8236718,18.940728],[72.8237818,18.9401512],[72.8238421,18.9397279],[72.8238761,18.9395152],[72.8238807,18.9393766],[72.8239143,18.9392367],[72.8239451,18.9389288],[72.8239626,18.9387039],[72.823978,18.9384316],[72.8239891,18.9378818],[72.8239895,18.9375353],[72.8239817,18.9372132],[72.8239646,18.9368445],[72.8239646,18.9368444],[72.8239431,18.9365098],[72.8239079,18.9361294],[72.8238658,18.9358127],[72.8238123,18.9354807],[72.823767,18.9352141],[72.8236867,18.934796],[72.8236263,18.9345191],[72.8235918,18.9343786],[72.8235314,18.934081],[72.8233966,18.9335972],[72.8230406,18.9326173],[72.8229035,18.9322449],[72.8227625,18.9318958],[72.8225423,18.9313981],[72.8224371,18.9311864],[72.8221752,18.9306718],[72.8219483,18.9302519],[72.8216478,18.9297699],[72.8215046,18.9295742],[72.8210154,18.928954],[72.8204481,18.9282832],[72.8202426,18.9280497],[72.8198973,18.9276364],[72.8196899,18.9273691],[72.8195803,18.9272446],[72.8194531,18.9271032],[72.8190371,18.9266552],[72.818759,18.9263595],[72.818003,18.9255324],[72.8142139,18.9214197],[72.8075391,18.9139863],[72.8071074,18.9135115],[72.8060655,18.9121885],[72.8053274,18.9110822],[72.8048464,18.9102116],[72.8044577,18.9094527],[72.804392,18.9092333],[72.804337,18.9090516],[72.8042141,18.9087151],[72.8040963,18.9084154],[72.8039875,18.9080845],[72.803875,18.9075976],[72.8038242,18.9073778],[72.8037046,18.9067206],[72.8036022,18.9062035],[72.8035594,18.9056515],[72.8035599,18.9055333],[72.8035383,18.9051521],[72.8035438,18.9048431],[72.8035507,18.90453],[72.8035651,18.9041016],[72.8035818,18.9037672],[72.8035972,18.9035806],[72.8036205,18.9033845],[72.8036277,18.9032966],[72.8036532,18.9030339],[72.8036952,18.9027708],[72.8037513,18.9024375],[72.80386,18.9018788],[72.8040519,18.9009917],[72.8041857,18.9004332],[72.804334,18.8999152],[72.8044049,18.8996529],[72.8045313,18.8992629],[72.8046429,18.8990015],[72.804783,18.8987317],[72.8049809,18.8984155],[72.8051592,18.8981134],[72.8055508,18.89755],[72.8057687,18.897261],[72.8060162,18.8969715],[72.8062634,18.8966637],[72.8064769,18.8964116],[72.8066764,18.8962195],[72.8069727,18.895897],[72.8075275,18.8953723],[72.8078003,18.8951376],[72.808,18.8949593],[72.8082536,18.8947617],[72.8087442,18.8944132],[72.8089005,18.8942954],[72.8091558,18.8941141],[72.8092567,18.894057],[72.8093776,18.8940254],[72.8095232,18.8939905],[72.8097308,18.8939566],[72.8097905,18.8939603],[72.8098432,18.8939778],[72.809884,18.8939979],[72.8099116,18.8940161],[72.8101035,18.8942509],[72.8101893,18.8943647],[72.8103361,18.8943719],[72.8104694,18.894515],[72.8106401,18.8946104],[72.8108094,18.8947187],[72.8109196,18.894778],[72.8111346,18.8948418],[72.8115285,18.8948526],[72.8119735,18.8947386],[72.8124962,18.8947334],[72.8129195,18.8948418],[72.8132209,18.8950986],[72.8134472,18.8952798],[72.8136102,18.8954262],[72.8138336,18.8957766],[72.8143831,18.8963361],[72.8146258,18.8966638],[72.8148317,18.8974645],[72.8149112,18.8977807],[72.8152444,18.8981957],[72.8156637,18.8986531],[72.8160814,18.8991425],[72.8163214,18.899288],[72.8165988,18.8996275],[72.8166437,18.8996867],[72.8168769,18.9000928],[72.8170895,18.9004736],[72.8174412,18.9009421],[72.8172712,18.9010563],[72.8171499,18.9013142],[72.8172013,18.9013808],[72.8172149,18.9013996],[72.8172215,18.9014148],[72.8172217,18.9014518],[72.8172132,18.9014724],[72.8172398,18.9015387],[72.8172464,18.9016153],[72.8173134,18.9016782],[72.817348,18.9017168],[72.8173698,18.9017816],[72.8173513,18.9018483],[72.8172832,18.9018738],[72.8173054,18.9019027],[72.8173198,18.9019531],[72.8173192,18.9020057],[72.8173485,18.9020634],[72.817472,18.902253],[72.81804,18.9022112],[72.8180829,18.9022391],[72.818791,18.902248],[72.8188151,18.9022582],[72.818821,18.9022767],[72.8188111,18.9022912],[72.8187759,18.9022957],[72.818732,18.9022937],[72.817417,18.902286],[72.8174299,18.9025333],[72.8175678,18.9025298],[72.8175853,18.9027191],[72.8178988,18.9027386],[72.8178998,18.9028612],[72.817749,18.9028637],[72.8177422,18.9029496],[72.8174008,18.9029638],[72.8177529,18.9041126],[72.8177861,18.9046135],[72.8175613,18.9049276],[72.8176268,18.9050607],[72.8178748,18.9050736],[72.8181034,18.9052822],[72.8177053,18.9059153],[72.8175999,18.906092],[72.8174836,18.9063042],[72.8174261,18.9065243],[72.817501,18.9068636],[72.8178626,18.9074559],[72.8179982,18.9075107],[72.8185345,18.9069927],[72.8191594,18.9075717],[72.8195512,18.9072963],[72.8205596,18.908272],[72.82048,18.908342],[72.820521,18.9084011],[72.8207328,18.9086198],[72.8215792,18.9095187],[72.8222963,18.9102523],[72.8237194,18.9087233],[72.8237195,18.9087232],[72.8249291,18.9073906],[72.8250286,18.9073382],[72.8256484,18.9082936],[72.8258563,18.9087635],[72.8258897,18.9087862],[72.8259371,18.9088567],[72.8265774,18.9099225],[72.8268299,18.9103823],[72.8267082,18.9104453],[72.8267821,18.910715],[72.8268167,18.9108673],[72.8268415,18.9109581],[72.8269263,18.9111999],[72.8269383,18.9112121],[72.8269464,18.9112154],[72.8275076,18.9115859],[72.8275876,18.911642],[72.8278163,18.9118065],[72.8281038,18.9119993],[72.8282258,18.9120804],[72.8284043,18.9122018],[72.8285401,18.9122981],[72.8290551,18.9126448],[72.8293974,18.9128859],[72.8294339,18.9129176],[72.8294657,18.9129537],[72.8294887,18.9129806],[72.8298477,18.9132855],[72.8302975,18.9138766],[72.8307003,18.9143966],[72.8308947,18.9146155],[72.8310403,18.9147876],[72.8312381,18.9150121],[72.8312633,18.915036],[72.8312644,18.9150478],[72.8312599,18.9150629],[72.8312373,18.9150919],[72.8308542,18.9153869],[72.8307706,18.91545],[72.8307537,18.9154556],[72.8307175,18.9154576],[72.8306632,18.9154396],[72.8305107,18.915381],[72.8304678,18.9153694],[72.8304463,18.9153672],[72.8303932,18.9153629],[72.8303163,18.9153672],[72.8302047,18.9153939],[72.8301113,18.9155701],[72.8300749,18.9156387],[72.8299283,18.9158649],[72.8298637,18.9159841],[72.8298417,18.9160248],[72.8302236,18.9163491],[72.8303423,18.9164416],[72.8304842,18.9165642],[72.830575,18.9166427],[72.8307411,18.916775],[72.8314589,18.9173826],[72.8314939,18.9174075],[72.8315065,18.9174112],[72.8315343,18.917412],[72.831611,18.9173911],[72.8318116,18.9173496],[72.8318328,18.9173528],[72.8318572,18.9173643],[72.8318678,18.9173799],[72.8318843,18.9174416],[72.8319627,18.9177766],[72.8320379,18.9180913],[72.8320435,18.9181053],[72.8320572,18.9181197],[72.8320685,18.9181267],[72.8320913,18.9181303],[72.8327478,18.9180614],[72.8327845,18.9180673],[72.8328074,18.9180817],[72.8328336,18.9181108],[72.8328392,18.9181382],[72.8328057,18.9181873],[72.8320811,18.9183577],[72.8327486,18.9198526],[72.8327403,18.9198698],[72.8328514,18.920119],[72.8332976,18.9210123],[72.83359,18.9216687],[72.8336638,18.9218247],[72.8336909,18.9218517],[72.8337292,18.9218673],[72.8338953,18.9218888],[72.8342016,18.9219409],[72.8342096,18.9219308],[72.834221,18.9219305],[72.8344495,18.9216542],[72.8344656,18.9216414],[72.8344913,18.921638],[72.8345065,18.9216429],[72.8348917,18.9219356],[72.8349056,18.9219515],[72.8349079,18.9219759],[72.8349,18.921992],[72.8346631,18.9222677],[72.8349525,18.9228928],[72.8349567,18.9229038],[72.8349541,18.9229193],[72.8349445,18.9229335],[72.8349311,18.922942],[72.8349511,18.9229574],[72.8344261,18.9229397],[72.8343916,18.922979],[72.8342645,18.9231461],[72.8345035,18.9233298],[72.834871,18.9236],[72.8375085,18.920849],[72.8380984,18.9204183],[72.8385216,18.9202865],[72.8389149,18.9202455],[72.8395183,18.9202525],[72.8400523,18.9204502],[72.8405111,18.920965],[72.840466,18.9210519],[72.8443237,18.9251255],[72.8444463,18.9252994],[72.8445274,18.9255482],[72.8445328,18.9257715],[72.8444751,18.9259965],[72.8444156,18.9260187],[72.844376,18.926005],[72.8443616,18.9259624],[72.844403,18.92578],[72.844394,18.9255314],[72.8443252,18.9253494],[72.8442074,18.9252024],[72.8441819,18.9252216],[72.8404252,18.9212477],[72.840207,18.9214185],[72.8402836,18.9215205],[72.8400372,18.9216867],[72.838789,18.9242859],[72.8384454,18.9250608],[72.8378889,18.926466],[72.8392053,18.9270675],[72.8400371,18.9274595],[72.840385,18.9276303],[72.8403941,18.9276406],[72.8403978,18.9276532],[72.8403952,18.9276784],[72.8403878,18.9276878],[72.8403592,18.9276988],[72.8403435,18.9276956],[72.8401587,18.9276081],[72.8392681,18.927182],[72.8383971,18.9267829],[72.8379374,18.9277189],[72.8368691,18.9273109],[72.8368648,18.927302],[72.8367083,18.9278239],[72.8367151,18.9278281],[72.8366905,18.9278685],[72.8366824,18.9278795],[72.8366738,18.9278841],[72.8366508,18.9278878],[72.8365366,18.9278192],[72.8365444,18.9278058],[72.8365197,18.9277907],[72.8364869,18.9277754],[72.8364644,18.9277751],[72.8364,18.9278841],[72.8363818,18.9278985],[72.8363893,18.9279075],[72.8363899,18.9279183],[72.8364415,18.9279572],[72.8364529,18.927941],[72.8364752,18.9279563],[72.8364817,18.9279777],[72.8364747,18.9280023],[72.8364545,18.9280164],[72.8364309,18.9280184],[72.8363592,18.9279786],[72.8363472,18.9279939],[72.8363104,18.9279725],[72.8363161,18.9279647],[72.8363073,18.9279556],[72.836237,18.9281267],[72.8362516,18.9281336],[72.8362515,18.9281376],[72.8367625,18.928443],[72.8367704,18.9284548],[72.8370918,18.9286681],[72.837162,18.9286898],[72.8371945,18.9287035],[72.8372112,18.9287244],[72.8372138,18.9287403],[72.837205,18.9287786],[72.8371887,18.9288337],[72.8371803,18.928832],[72.8371796,18.9288442],[72.8369413,18.9293913],[72.8375281,18.9289769],[72.838554,18.929705],[72.8398442,18.9306142],[72.8402702,18.9309336],[72.8403123,18.9310629],[72.8401005,18.9320494],[72.8399986,18.9325446],[72.8400117,18.9327607],[72.8400939,18.9328715],[72.840259,18.9330364],[72.8405714,18.9332067],[72.8408132,18.9332891],[72.84098,18.9333252],[72.8412602,18.9333742],[72.842125,18.9331869],[72.8421672,18.9331708],[72.8421782,18.9331742],[72.8421905,18.9331721],[72.8422377,18.9331484],[72.8422494,18.933138],[72.8422665,18.9331119],[72.8423297,18.9327507],[72.8424516,18.9320669],[72.8424711,18.9319886],[72.8425944,18.9313342],[72.8429913,18.9289357],[72.8440102,18.9291357],[72.8440371,18.9289635],[72.8442425,18.9290051],[72.8437903,18.9312088],[72.8437409,18.9314493],[72.8436095,18.9322025],[72.8434258,18.9332082],[72.843363,18.9333728],[72.8433541,18.9334195],[72.8433297,18.9335704],[72.8433256,18.9335778],[72.8432761,18.9338428],[72.8431817,18.9343954],[72.8431534,18.9345266],[72.8430997,18.9348253],[72.8430426,18.9351353],[72.8429688,18.9355374],[72.8429633,18.9355374],[72.842962,18.9355473],[72.8429664,18.9355484],[72.8429615,18.9355758],[72.8429473,18.9355746],[72.8432514,18.935605],[72.8432527,18.9355964],[72.8432582,18.9355964],[72.843272,18.9355177],[72.8432967,18.9354729],[72.8433166,18.935449],[72.8433588,18.9354148],[72.8433938,18.9353986],[72.8434533,18.935385],[72.8435065,18.9353894],[72.8435338,18.9353967],[72.8435639,18.9354089],[72.843592,18.9354269],[72.8436308,18.9354628],[72.8436434,18.9354822],[72.8436592,18.9355211],[72.8439702,18.9367395],[72.8442416,18.9378514],[72.844261,18.9379565],[72.8444302,18.9386467],[72.844579,18.9392187],[72.8451364,18.9414254],[72.8451727,18.9416636],[72.8452242,18.9418711],[72.8453541,18.9423526],[72.8457384,18.9438644],[72.8457549,18.9439546],[72.8458364,18.9441059],[72.8460021,18.9446722],[72.8467307,18.9476046],[72.8468076,18.9480288],[72.8456551,18.9482212],[72.8456183,18.9482273],[72.8455938,18.9482314],[72.8455793,18.9482339],[72.8448365,18.9484023],[72.8423055,18.9489355],[72.8420733,18.9489357],[72.8420336,18.9489357],[72.8418208,18.9489358],[72.8417421,18.9489359],[72.8416884,18.9489359],[72.8416339,18.948936],[72.8416332,18.948936],[72.8415795,18.948936],[72.8415037,18.9489912],[72.8413776,18.9489952],[72.8413528,18.9489923],[72.8412462,18.9489802],[72.8409688,18.9489364],[72.8408305,18.9489146],[72.8407009,18.9488941],[72.8406655,18.9488885],[72.8406515,18.9488853],[72.8405916,18.9488714],[72.8404743,18.9487723],[72.8399302,18.9488773],[72.8391983,18.9489651],[72.8378443,18.9490709],[72.8377062,18.9490584],[72.8370713,18.9488985],[72.8364317,18.9487644],[72.836013,18.9486772],[72.8356166,18.9485935],[72.8353174,18.9485341],[72.8352086,18.9485113],[72.8351023,18.9484884],[72.8350253,18.9484724],[72.8350071,18.9484677],[72.8349593,18.9484552],[72.8348786,18.9484207],[72.8347895,18.9483677],[72.8347236,18.9483146],[72.8344953,18.9481265],[72.834198,18.9478923],[72.8340558,18.9477802],[72.833663,18.9474703],[72.8336073,18.9474263],[72.8334137,18.9472736],[72.8333461,18.9472191],[72.8332819,18.9471674],[72.8331016,18.9470334],[72.8331015,18.9470333],[72.8330585,18.9470013],[72.8329169,18.946894],[72.8325618,18.9466443],[72.8324969,18.9465987],[72.8324339,18.9465542],[72.8323868,18.9465209],[72.8322705,18.9464372],[72.8321833,18.9463753],[72.8321058,18.9463215],[72.8320716,18.9462981],[72.8320235,18.9462653],[72.8319593,18.9462149],[72.8319175,18.9461841],[72.8318939,18.9461667],[72.8318395,18.946125],[72.8317533,18.946059],[72.8316539,18.945973],[72.8314939,18.9458504],[72.8311656,18.9456017],[72.8308918,18.9453885],[72.830872,18.9453711],[72.8306553,18.945181],[72.8304988,18.94504],[72.8302027,18.9447695],[72.8301577,18.9447261],[72.8299563,18.9445322],[72.8296978,18.9442846],[72.8295564,18.9441485],[72.82954,18.9441327],[72.829514,18.9441103],[72.8294725,18.9440513],[72.8294175,18.943973],[72.8294004,18.9439526],[72.8293283,18.9438666],[72.8292314,18.9437511],[72.829231,18.9437506],[72.8292295,18.9437488],[72.8292278,18.9437469],[72.8292277,18.9437468],[72.8292275,18.9437466],[72.8292269,18.9437459],[72.8292225,18.9437408],[72.8291451,18.9436534],[72.8290095,18.9434935],[72.8290072,18.9434909],[72.8289753,18.9434532],[72.8289732,18.9434507],[72.8289725,18.9434515],[72.8289622,18.9434349],[72.8289545,18.9434255],[72.8289204,18.9433856],[72.8288976,18.943359],[72.8288742,18.9433367],[72.8288692,18.9433319],[72.8288545,18.9433178],[72.8288408,18.9433081],[72.8288213,18.9432942],[72.8287934,18.9432777],[72.8287769,18.943268],[72.8287114,18.9432328],[72.8285868,18.9431813],[72.8285725,18.9431754],[72.8284325,18.9431271],[72.8283497,18.9430986],[72.8283126,18.9430866],[72.8282747,18.9430743],[72.8282053,18.9430441],[72.8282032,18.9430432],[72.8282001,18.9430418],[72.828198,18.9430409],[72.8281961,18.9430401],[72.8281766,18.9430316],[72.8280076,18.943005],[72.8277935,18.9429713],[72.8277506,18.9429646],[72.8277108,18.9429548],[72.827642,18.9429379],[72.8275395,18.9429062],[72.8275108,18.9428973],[72.8274687,18.9428875],[72.8274142,18.9428747],[72.8272457,18.9428369],[72.8270886,18.9427893],[72.8269258,18.94274],[72.8269256,18.94274],[72.8269243,18.9427396],[72.8269237,18.9427394],[72.8269188,18.9427379],[72.8269173,18.9427374],[72.8269168,18.9427373],[72.826902,18.9427253],[72.8268953,18.9426576],[72.8268653,18.9426462],[72.8266836,18.9425777],[72.8266739,18.942574],[72.8266521,18.9425658],[72.8266126,18.942551],[72.8265652,18.9425332],[72.82646,18.9424936],[72.8264007,18.9424704],[72.8262596,18.9424172],[72.8262456,18.9424118],[72.8262455,18.9424118],[72.8262105,18.9423981],[72.8262066,18.9423965],[72.8261985,18.9423934],[72.8261666,18.9423809],[72.8260507,18.9423357],[72.8260149,18.9423217],[72.8259897,18.9423122],[72.825981,18.9423089],[72.8259788,18.9423081],[72.8259706,18.942305],[72.825963,18.9423021],[72.8259421,18.9422947],[72.8259298,18.94229],[72.8259101,18.9422823],[72.8258173,18.942247],[72.8258023,18.9422413],[72.8258007,18.9422392],[72.825776,18.942206],[72.8257759,18.9422058],[72.8257758,18.9422057],[72.8257717,18.9422002],[72.8257627,18.9421881],[72.8257415,18.9421436],[72.8257259,18.9421109],[72.8257181,18.9420947],[72.8256966,18.942074],[72.8256784,18.9420565],[72.8256661,18.9420447],[72.8256245,18.942005],[72.8256166,18.9420028],[72.825599,18.941998],[72.8252856,18.9419129],[72.8251036,18.9418635],[72.8251036,18.9418634],[72.8244944,18.9416979],[72.8239719,18.9415684],[72.823932,18.9415585],[72.8239248,18.9415567],[72.8238497,18.9415381],[72.8236417,18.9414865],[72.8236377,18.9414855],[72.8235497,18.9414646]]]]}}]}