{"type":"FeatureCollection","features":[{"type":"Feature","properties":{"ward":"B"},"geometry":{"type":"MultiPolygon","coordinates":[[[[72.8319897,18.9618729],[72.8319805,18.9617989],[72.8319769,18.9617446],[72.8319726,18.961644],[72.8319697,18.9615524],[72.8319681,18.9613796],[72.8319652,18.9612683],[72.831958,18.961074],[72.8319466,18.9609493],[72.8319346,18.9608782],[72.8319217,18.9608268],[72.8318878,18.9607014],[72.8318432,18.9605809],[72.8318142,18.9604877],[72.8317915,18.9603999],[72.8317773,18.960288],[72.8317739,18.9602594],[72.8317666,18.9601975],[72.8317645,18.9601318],[72.8317622,18.9599883],[72.8317504,18.9595987],[72.8317457,18.9594408],[72.8318023,18.9587528],[72.8319237,18.9584049],[72.8319611,18.9582772],[72.8319748,18.9582302],[72.8319859,18.9581749],[72.8320032,18.9580825],[72.8320093,18.9580327],[72.8320192,18.9579707],[72.832025,18.9579038],[72.8320273,18.9578735],[72.8320342,18.9577815],[72.8320461,18.9576293],[72.8320546,18.9574776],[72.8320635,18.9573702],[72.8320663,18.9573437],[72.8320646,18.9572732],[72.8320558,18.9571766],[72.8320405,18.9570888],[72.8320307,18.9570401],[72.8320287,18.9570298],[72.8320246,18.9569988],[72.8320218,18.9569233],[72.8320213,18.9568499],[72.8320222,18.9568358],[72.8320264,18.956737],[72.8320362,18.9565711],[72.8320366,18.9565521],[72.8320371,18.9565274],[72.8320769,18.9563852],[72.8320797,18.9563307],[72.8320818,18.956289],[72.8321115,18.9558746],[72.8321124,18.9558614],[72.8321857,18.9550543],[72.8321467,18.9548986],[72.8321489,18.95485],[72.8321397,18.9547684],[72.8321159,18.9546586],[72.8320644,18.9545622],[72.8320489,18.9545326],[72.8319359,18.954317],[72.8318143,18.9541364],[72.831805,18.9541231],[72.8317988,18.9541124],[72.8317915,18.9540902],[72.8317909,18.9540885],[72.831783,18.9540722],[72.8317765,18.9540474],[72.8317722,18.9540257],[72.8317692,18.9540044],[72.8317691,18.9539997],[72.831764,18.9539651],[72.8317673,18.9539267],[72.8317766,18.9538973],[72.8317831,18.9538773],[72.8318021,18.9538192],[72.8318043,18.9538124],[72.8318272,18.9537418],[72.8318501,18.9536707],[72.8322273,18.952536],[72.8322559,18.9524501],[72.8322578,18.9524434],[72.8323102,18.9522645],[72.8323649,18.9520777],[72.8325292,18.9515215],[72.8325503,18.9514509],[72.8327645,18.9507356],[72.8327649,18.9507343],[72.8327814,18.950679],[72.8327816,18.9506783],[72.8328355,18.9504524],[72.8328968,18.9502494],[72.8329361,18.9501236],[72.8331758,18.9493556],[72.8331759,18.9493553],[72.8332451,18.9491289],[72.833305,18.9489456],[72.8333486,18.9487985],[72.8333872,18.948677],[72.8334411,18.9484921],[72.8335011,18.9482935],[72.8335114,18.9482581],[72.8335473,18.9481351],[72.833574,18.9480008],[72.833611,18.9478295],[72.8336463,18.9476679],[72.8336542,18.9476214],[72.8336627,18.9475714],[72.8336646,18.9475264],[72.833663,18.9474703],[72.8340558,18.9477802],[72.834198,18.9478923],[72.8344953,18.9481265],[72.8347236,18.9483146],[72.8347895,18.9483677],[72.8348786,18.9484207],[72.8349593,18.9484552],[72.8350071,18.9484677],[72.8350253,18.9484724],[72.8351023,18.9484884],[72.8352086,18.9485113],[72.8353174,18.9485341],[72.8356166,18.9485935],[72.836013,18.9486772],[72.8364317,18.9487644],[72.8370713,18.9488985],[72.8377062,18.9490584],[72.8378443,18.9490709],[72.8391983,18.9489651],[72.8399302,18.9488773],[72.8404743,18.9487723],[72.8405916,18.9488714],[72.8406515,18.9488853],[72.8406655,18.9488885],[72.8407009,18.9488941],[72.8408305,18.9489146],[72.8409688,18.9489364],[72.8412462,18.9489802],[72.8413528,18.9489923],[72.8413776,18.9489952],[72.8415037,18.9489912],[72.8415795,18.948936],[72.8416332,18.948936],[72.8416339,18.948936],[72.8416884,18.9489359],[72.8417421,18.9489359],[72.8418208,18.9489358],[72.8420336,18.9489357],[72.8420733,18.9489357],[72.8423055,18.9489355],[72.8448365,18.9484023],[72.8455793,18.9482339],[72.8455938,18.9482314],[72.8456183,18.9482273],[72.8456551,18.9482212],[72.846812,18.94803],[72.8467665,18.948377],[72.8467165,18.9487585],[72.8464894,18.9504897],[72.8461712,18.9505691],[72.8464849,18.9518188],[72.8466286,18.9518522],[72.846686,18.9519212],[72.8466794,18.9520068],[72.8466264,18.9520361],[72.8465701,18.9520538],[72.8466175,18.9523934],[72.8468893,18.9534529],[72.8468981,18.9536097],[72.8468451,18.9538019],[72.8468716,18.9540652],[72.8470417,18.954036],[72.847108,18.9540464],[72.8471434,18.95413],[72.8471169,18.9541906],[72.8469067,18.954202],[72.8469796,18.9544774],[72.8471014,18.9545626],[72.8471942,18.9546796],[72.8479497,18.9577642],[72.8490988,18.957392],[72.8492115,18.9573147],[72.849291,18.9572123],[72.8490054,18.9559078],[72.8491974,18.9558676],[72.8493441,18.9558415],[72.8496932,18.9573837],[72.8503384,18.9577326],[72.8507029,18.9576679],[72.8509637,18.9587419],[72.850619,18.9588255],[72.8503803,18.9579291],[72.8495253,18.9574359],[72.8494037,18.9574505],[72.847972,18.9579749],[72.8480337,18.9581329],[72.8481634,18.9586636],[72.8487832,18.9612622],[72.849168,18.9627218],[72.8493483,18.9634396],[72.849456,18.9639185],[72.8486215,18.9635596],[72.8483463,18.9636185],[72.8476716,18.9637508],[72.8476196,18.9635273],[72.8476053,18.9634488],[72.8474698,18.9634787],[72.8467499,18.9636291],[72.8466538,18.9636491],[72.846624,18.9636554],[72.8465571,18.9636231],[72.8465482,18.9636157],[72.8465019,18.9635822],[72.8464737,18.9635617],[72.8464735,18.9635615],[72.8464621,18.9635569],[72.8464377,18.9635471],[72.8459567,18.9634372],[72.8459384,18.9634328],[72.8459215,18.9634286],[72.8458774,18.9634179],[72.8456393,18.96336],[72.8456206,18.9633555],[72.8455645,18.9633418],[72.8454361,18.9633106],[72.8453006,18.9632776],[72.844967,18.9635106],[72.8448614,18.9635843],[72.8446829,18.9634662],[72.84461,18.9634208],[72.8445646,18.9634234],[72.8444182,18.9634443],[72.8443336,18.9634564],[72.8443027,18.9634608],[72.8442907,18.9634632],[72.8441568,18.9634896],[72.8441108,18.9635172],[72.8440545,18.9635776],[72.8439141,18.9636075],[72.8434921,18.963697],[72.8432961,18.9637385],[72.8427901,18.9638433],[72.842763,18.9638489],[72.8426132,18.9638799],[72.8425058,18.9639021],[72.8424357,18.963917],[72.8423868,18.9639325],[72.8423528,18.9639432],[72.8423078,18.9639569],[72.8421745,18.9639974],[72.8420306,18.9640202],[72.8419018,18.9640406],[72.841811,18.9640562],[72.8417225,18.9640713],[72.8414773,18.9641061],[72.841121,18.964161],[72.8404199,18.9642689],[72.8404161,18.9642694],[72.8398856,18.9643802],[72.8397883,18.9644005],[72.8395391,18.9644471],[72.8394414,18.9644698],[72.8393492,18.9644985],[72.8392773,18.9645259],[72.8392482,18.9645412],[72.8392291,18.9645538],[72.8392163,18.964565],[72.8392031,18.9645792],[72.8391922,18.9645905],[72.8391765,18.9646075],[72.8391612,18.9646272],[72.8390602,18.9647686],[72.8389923,18.9648629],[72.8389118,18.9649749],[72.8388161,18.9651078],[72.8387537,18.9650279],[72.8387196,18.9649843],[72.838667,18.964917],[72.8385432,18.9647588],[72.8383829,18.9645737],[72.8382898,18.9644668],[72.8382625,18.9644346],[72.8382587,18.9644301],[72.8381233,18.9642706],[72.838109,18.9642537],[72.838084,18.9642067],[72.8380258,18.9640976],[72.8379793,18.9640105],[72.8378955,18.9637662],[72.8378069,18.9635047],[72.8377968,18.9634752],[72.8377698,18.9633978],[72.8377296,18.963282],[72.8377049,18.963211],[72.8376553,18.9630752],[72.8375729,18.9628676],[72.837525,18.9627563],[72.8374991,18.9627069],[72.8374683,18.9626635],[72.8374516,18.9626451],[72.8374298,18.9626263],[72.837404,18.9626089],[72.8373757,18.9625936],[72.8373367,18.9625766],[72.8373209,18.9625709],[72.8372754,18.9625603],[72.8372464,18.9625554],[72.8371542,18.9625435],[72.8370441,18.962531],[72.8368658,18.9625145],[72.8366682,18.9625063],[72.8365632,18.9625036],[72.8365329,18.9625071],[72.8364025,18.9625144],[72.8363055,18.9625216],[72.8362292,18.9625307],[72.836112,18.9625415],[72.8360473,18.9625473],[72.8360081,18.9625503],[72.8359843,18.9625522],[72.8359602,18.9625537],[72.8359187,18.9625529],[72.8358348,18.962553],[72.8357482,18.9625543],[72.8356794,18.9625549],[72.8355903,18.9625541],[72.8355429,18.9625515],[72.835452,18.9625443],[72.8353521,18.9625336],[72.8352616,18.9625222],[72.8352157,18.962515],[72.8351775,18.9625023],[72.8351241,18.9624839],[72.8350863,18.9624679],[72.8350233,18.9624381],[72.8349638,18.9624061],[72.8348961,18.9623708],[72.834876,18.9623604],[72.8348335,18.962333],[72.8347441,18.9622847],[72.8347057,18.9622619],[72.8346132,18.9622194],[72.8345373,18.9621883],[72.8344633,18.9621599],[72.8343979,18.9621386],[72.8343842,18.9621327],[72.8343664,18.9621297],[72.8343525,18.962128],[72.8341915,18.9621253],[72.8341066,18.9621254],[72.8339342,18.9621256],[72.8336923,18.9621259],[72.8336226,18.9621246],[72.833479,18.9621213],[72.8334522,18.962121],[72.8333033,18.9621121],[72.8331915,18.9621002],[72.8330691,18.9620858],[72.8329917,18.9620743],[72.8328362,18.9620437],[72.8326184,18.9619978],[72.8325889,18.9619931],[72.832402,18.9619479],[72.8322862,18.961918],[72.8321946,18.9618951],[72.8321148,18.9618786],[72.8319897,18.9618729]]]]}}]}