{"type":"FeatureCollection","features":[{"type":"Feature","properties":{"ward":"C"},"geometry":{"type":"MultiPolygon","coordinates":[[[[72.8187309,18.9492881],[72.8188178,18.9491826],[72.8191246,18.9488426],[72.8197861,18.9480232],[72.8208,18.946666],[72.8214865,18.9456497],[72.8221298,18.9444886],[72.8227285,18.943231],[72.8230941,18.9424343],[72.8234364,18.9414618],[72.8234406,18.9414418],[72.8235497,18.9414646],[72.8236377,18.9414855],[72.8236417,18.9414865],[72.8238497,18.9415381],[72.8239248,18.9415567],[72.823932,18.9415585],[72.8239719,18.9415684],[72.8244944,18.9416979],[72.8251036,18.9418634],[72.8251036,18.9418635],[72.8252856,18.9419129],[72.825599,18.941998],[72.8256166,18.9420028],[72.8256245,18.942005],[72.8256661,18.9420447],[72.8256784,18.9420565],[72.8256966,18.942074],[72.8257181,18.9420947],[72.8257259,18.9421109],[72.8257415,18.9421436],[72.8257627,18.9421881],[72.8257717,18.9422002],[72.8257758,18.9422057],[72.8257759,18.9422058],[72.825776,18.942206],[72.8258007,18.9422392],[72.8258023,18.9422413],[72.8258173,18.942247],[72.8259101,18.9422823],[72.8259298,18.94229],[72.8259421,18.9422947],[72.825963,18.9423021],[72.8259706,18.942305],[72.8259788,18.9423081],[72.825981,18.9423089],[72.8259897,18.9423122],[72.8260149,18.9423217],[72.8260507,18.9423357],[72.8261666,18.9423809],[72.8261985,18.9423934],[72.8262066,18.9423965],[72.8262105,18.9423981],[72.8262455,18.9424118],[72.8262456,18.9424118],[72.8262596,18.9424172],[72.8264007,18.9424704],[72.82646,18.9424936],[72.8265652,18.9425332],[72.8266126,18.942551],[72.8266521,18.9425658],[72.8266739,18.942574],[72.8266836,18.9425777],[72.8268653,18.9426462],[72.8268953,18.9426576],[72.826902,18.9427253],[72.8269168,18.9427373],[72.8269173,18.9427374],[72.8269188,18.9427379],[72.8269237,18.9427394],[72.8269243,18.9427396],[72.8269256,18.94274],[72.8269258,18.94274],[72.8270886,18.9427893],[72.8272457,18.9428369],[72.8274142,18.9428747],[72.8274687,18.9428875],[72.8275108,18.9428973],[72.8275395,18.9429062],[72.827642,18.9429379],[72.8277108,18.9429548],[72.8277506,18.9429646],[72.8277935,18.9429713],[72.8280076,18.943005],[72.8281766,18.9430316],[72.8281961,18.9430401],[72.828198,18.9430409],[72.8282001,18.9430418],[72.8282032,18.9430432],[72.8282053,18.9430441],[72.8282747,18.9430743],[72.8283126,18.9430866],[72.8283497,18.9430986],[72.8284325,18.9431271],[72.8285725,18.9431754],[72.8285868,18.9431813],[72.8287114,18.9432328],[72.8287769,18.943268],[72.8287934,18.9432777],[72.8288213,18.9432942],[72.8288408,18.9433081],[72.8288545,18.9433178],[72.8288692,18.9433319],[72.8288742,18.9433367],[72.8288976,18.943359],[72.8289204,18.9433856],[72.8289545,18.9434255],[72.8289622,18.9434349],[72.8289725,18.9434515],[72.8289732,18.9434507],[72.8289753,18.9434532],[72.8290072,18.9434909],[72.8290095,18.9434935],[72.8291451,18.9436534],[72.8292225,18.9437408],[72.8292269,18.9437459],[72.8292275,18.9437466],[72.8292277,18.9437468],[72.8292278,18.9437469],[72.8292295,18.9437488],[72.829231,18.9437506],[72.8292314,18.9437511],[72.8293283,18.9438666],[72.8294004,18.9439526],[72.8294175,18.943973],[72.8294725,18.9440513],[72.829514,18.9441103],[72.82954,18.9441327],[72.8295564,18.9441485],[72.8296978,18.9442846],[72.8299563,18.9445322],[72.8301577,18.9447261],[72.8302027,18.9447695],[72.8304988,18.94504],[72.8306553,18.945181],[72.830872,18.9453711],[72.8308918,18.9453885],[72.8311656,18.9456017],[72.8314939,18.9458504],[72.8316539,18.945973],[72.8317533,18.946059],[72.8318395,18.946125],[72.8318939,18.9461667],[72.8319175,18.9461841],[72.8319593,18.9462149],[72.8320235,18.9462653],[72.8320716,18.9462981],[72.8321058,18.9463215],[72.8321833,18.9463753],[72.8322705,18.9464372],[72.8323868,18.9465209],[72.8324339,18.9465542],[72.8324969,18.9465987],[72.8325618,18.9466443],[72.8329169,18.946894],[72.8330585,18.9470013],[72.8331015,18.9470333],[72.8331016,18.9470334],[72.8332819,18.9471674],[72.8333461,18.9472191],[72.8334137,18.9472736],[72.8336073,18.9474263],[72.833663,18.9474703],[72.8336646,18.9475264],[72.8336627,18.9475714],[72.8336542,18.9476214],[72.8336463,18.9476679],[72.833611,18.9478295],[72.833574,18.9480008],[72.8335473,18.9481351],[72.8335114,18.9482581],[72.8335011,18.9482935],[72.8334411,18.9484921],[72.8333872,18.948677],[72.8333486,18.9487985],[72.833305,18.9489456],[72.8332451,18.9491289],[72.8331759,18.9493553],[72.8331758,18.9493556],[72.8329361,18.9501236],[72.8328968,18.9502494],[72.8328355,18.9504524],[72.8327816,18.9506783],[72.8327814,18.950679],[72.8327649,18.9507343],[72.8327645,18.9507356],[72.8325503,18.9514509],[72.8325292,18.9515215],[72.8323649,18.9520777],[72.8323102,18.9522645],[72.8322578,18.9524434],[72.8322559,18.9524501],[72.8322273,18.952536],[72.8318501,18.9536707],[72.8318272,18.9537418],[72.8318043,18.9538124],[72.8318021,18.9538192],[72.8317831,18.9538773],[72.8317766,18.9538973],[72.8317673,18.9539267],[72.831764,18.9539651],[72.8317691,18.9539997],[72.8317692,18.9540044],[72.8317722,18.9540257],[72.8317765,18.9540474],[72.831783,18.9540722],[72.8317909,18.9540885],[72.8317915,18.9540902],[72.8317988,18.9541124],[72.831805,18.9541231],[72.8318143,18.9541364],[72.8319359,18.954317],[72.8320489,18.9545326],[72.8320644,18.9545622],[72.8321159,18.9546586],[72.8321397,18.9547684],[72.8321489,18.95485],[72.8321467,18.9548986],[72.8321857,18.9550543],[72.8321124,18.9558614],[72.8321115,18.9558746],[72.8320818,18.956289],[72.8320797,18.9563307],[72.8320769,18.9563852],[72.8320371,18.9565274],[72.8320366,18.9565521],[72.8320362,18.9565711],[72.8320264,18.956737],[72.8320222,18.9568358],[72.8320213,18.9568499],[72.8320218,18.9569233],[72.8320246,18.9569988],[72.8320287,18.9570298],[72.8320307,18.9570401],[72.8320405,18.9570888],[72.8320558,18.9571766],[72.8320646,18.9572732],[72.8320663,18.9573437],[72.8320635,18.9573702],[72.8320546,18.9574776],[72.8320461,18.9576293],[72.8320342,18.9577815],[72.8320273,18.9578735],[72.832025,18.9579038],[72.8320192,18.9579707],[72.8320093,18.9580327],[72.8320032,18.9580825],[72.8319859,18.9581749],[72.8319748,18.9582302],[72.8319611,18.9582772],[72.8319237,18.9584049],[72.8318023,18.9587528],[72.8317457,18.9594408],[72.8317504,18.9595987],[72.8317622,18.9599883],[72.8317645,18.9601318],[72.8317666,18.9601975],[72.8317739,18.9602594],[72.8317773,18.960288],[72.8317915,18.9603999],[72.8318142,18.9604877],[72.8318432,18.9605809],[72.8318878,18.9607014],[72.8319217,18.9608268],[72.8319346,18.9608782],[72.8319466,18.9609493],[72.831958,18.961074],[72.8319652,18.9612683],[72.8319681,18.9613796],[72.8319697,18.9615524],[72.8319726,18.961644],[72.8319769,18.9617446],[72.8319805,18.9617989],[72.8319897,18.9618729],[72.8262471,18.961688],[72.8262468,18.9616758],[72.8262442,18.9615551],[72.8262413,18.9614134],[72.8262378,18.9613065],[72.8262355,18.961235],[72.8262323,18.9610938],[72.8262304,18.9609946],[72.8262298,18.9609142],[72.8262295,18.9608824],[72.8262273,18.9608313],[72.8262233,18.9607385],[72.8262221,18.9606972],[72.8262197,18.9606121],[72.8262156,18.9604985],[72.8262116,18.9603185],[72.8262089,18.9602373],[72.8262053,18.960094],[72.8262037,18.960043],[72.826193,18.9596932],[72.826189,18.9594925],[72.82618,18.9590438],[72.8261699,18.958615],[72.8261696,18.9586006],[72.8261674,18.9585117],[72.8261654,18.9584302],[72.8261621,18.9582918],[72.8261618,18.9582812],[72.8261602,18.9582265],[72.8261587,18.9581707],[72.8261423,18.9581313],[72.8260993,18.9580393],[72.8260834,18.9580005],[72.8260398,18.9578946],[72.8260056,18.957803],[72.8259574,18.9576936],[72.8259221,18.9576153],[72.8258843,18.9575314],[72.8258074,18.9573684],[72.8257426,18.9572301],[72.8256967,18.9571236],[72.8256623,18.957062],[72.8255949,18.9569414],[72.8255582,18.9568626],[72.8255535,18.9568467],[72.825545,18.9568191],[72.8255449,18.956819],[72.8255336,18.9567817],[72.8255318,18.9567761],[72.8255282,18.9567647],[72.8255232,18.9567522],[72.8255006,18.9567033],[72.8254122,18.9565069],[72.8253257,18.9563141],[72.8252487,18.9561384],[72.8251746,18.9559715],[72.8251689,18.9559592],[72.8251181,18.9558489],[72.8250957,18.9558004],[72.8250592,18.9557195],[72.8250552,18.9557108],[72.8250317,18.9556589],[72.8250422,18.9556478],[72.8251178,18.9555676],[72.8252102,18.9554708],[72.8253041,18.9553716],[72.8253436,18.9553278],[72.8254398,18.9552263],[72.8255083,18.9551501],[72.825612,18.955039],[72.8256238,18.9550266],[72.8255189,18.9549414],[72.8253486,18.9548032],[72.8253053,18.9547574],[72.8251572,18.9546009],[72.8251181,18.9545449],[72.8251042,18.9545021],[72.8251038,18.9545009],[72.8250969,18.9544582],[72.8250961,18.9544239],[72.8251066,18.9543791],[72.8251256,18.9543315],[72.8251285,18.9543234],[72.8251995,18.9541288],[72.8252266,18.9540545],[72.8252578,18.9539096],[72.8252627,18.9538926],[72.8252787,18.9538365],[72.8252916,18.953752],[72.8253172,18.9535849],[72.8253318,18.9534898],[72.8253408,18.953431],[72.8253472,18.9534061],[72.8253709,18.9533666],[72.825372,18.9533647],[72.8254154,18.9531408],[72.8253963,18.9531351],[72.825386,18.9531319],[72.8253294,18.9531131],[72.8253073,18.9531057],[72.8251251,18.9530121],[72.8251227,18.9530109],[72.8249709,18.9529316],[72.8249012,18.9528927],[72.8248468,18.9528603],[72.824816,18.9528442],[72.8247869,18.9528264],[72.8247214,18.9527945],[72.8246175,18.9527386],[72.8244735,18.9526739],[72.8243822,18.9526363],[72.8242899,18.9525919],[72.824181,18.9525424],[72.8240441,18.9524807],[72.8239332,18.9524312],[72.8238103,18.9523819],[72.8236394,18.9523071],[72.8235322,18.9522551],[72.8234491,18.9522191],[72.8233139,18.9521331],[72.8231983,18.9520587],[72.8230928,18.9519925],[72.8229685,18.9519039],[72.8229557,18.9518948],[72.8229362,18.9518809],[72.8229305,18.9518768],[72.8228429,18.9518077],[72.8228211,18.9517916],[72.8228124,18.9517852],[72.8227991,18.9517809],[72.822779,18.9517817],[72.8227669,18.9517828],[72.8227524,18.9517828],[72.8227489,18.9517827],[72.8227352,18.9517825],[72.8227162,18.9517777],[72.8226849,18.9517745],[72.8226556,18.9517586],[72.8225788,18.951717],[72.8223966,18.9516186],[72.8222516,18.9515388],[72.8222343,18.9515297],[72.8220562,18.9514355],[72.8219247,18.9513603],[72.8219216,18.9513585],[72.8218557,18.9513343],[72.8217192,18.9512575],[72.8215165,18.9511537],[72.8214494,18.9511132],[72.8214166,18.9510878],[72.8213844,18.9510621],[72.8213408,18.9510291],[72.8213189,18.9510172],[72.821309,18.951012],[72.8211914,18.9509499],[72.8211548,18.9509294],[72.821094,18.9509167],[72.8210488,18.9509025],[72.8208674,18.9508453],[72.820654,18.9507747],[72.8203664,18.950685],[72.820355,18.9506813],[72.8202607,18.9506508],[72.8201928,18.9505834],[72.8201356,18.9505266],[72.8201283,18.9505193],[72.8201166,18.9505074],[72.8199973,18.9504017],[72.8199966,18.9504011],[72.8199582,18.950367],[72.8199004,18.9503159],[72.8198061,18.9502364],[72.8197861,18.9502185],[72.8196334,18.9500821],[72.8195951,18.9500441],[72.8195238,18.9499799],[72.8194896,18.9499423],[72.8194091,18.9498695],[72.8192698,18.9497413],[72.8192374,18.9497117],[72.8192368,18.9497111],[72.8191875,18.9496661],[72.8191418,18.9496279],[72.8189501,18.9494744],[72.8187309,18.9492881]]]]}}]}