{"type":"FeatureCollection","features":[{"type":"Feature","properties":{"ward": "D"},"geometry":{"type":"MultiPolygon","coordinates":[[[[72.7938221,18.9392745],[72.7940798,18.9393317],[72.7943967,18.9396638],[72.7944392,18.9398289],[72.7945948,18.9402019],[72.7948093,18.9406763],[72.7948496,18.9409097],[72.7951312,18.9414932],[72.7952921,18.9419651],[72.7953324,18.9425993],[72.7954182,18.9431676],[72.7955577,18.9435735],[72.7957937,18.9439363],[72.7963167,18.9446568],[72.7968505,18.9453037],[72.7973923,18.9458491],[72.797682,18.9465924],[72.797808,18.9469679],[72.7979698,18.9472361],[72.7989507,18.947942],[72.7995703,18.9483353],[72.8000692,18.9485331],[72.8005769,18.9486623],[72.8016605,18.9489076],[72.8021559,18.9492561],[72.8025475,18.9498371],[72.8027862,18.9500705],[72.8030759,18.9502709],[72.8035694,18.9507275],[72.8043094,18.9510264],[72.8044076,18.9511575],[72.8044385,18.9515773],[72.8047925,18.9519832],[72.804983,18.9523485],[72.8052083,18.9526326],[72.8054845,18.9527569],[72.8064448,18.9531324],[72.8068203,18.9534191],[72.807354,18.9540086],[72.8076767,18.9547243],[72.8078033,18.9546697],[72.8081372,18.9550832],[72.8082539,18.9551466],[72.8084162,18.9551542],[72.8100574,18.9546936],[72.8109256,18.9544244],[72.8117667,18.9541717],[72.8125382,18.9539079],[72.8128643,18.953778],[72.8132436,18.9535976],[72.8146657,18.9529092],[72.8148843,18.9528283],[72.8155235,18.9521461],[72.8160069,18.9516966],[72.8168383,18.9510852],[72.8173747,18.9507123],[72.8176725,18.9504839],[72.8181285,18.9500197],[72.8187309,18.9492881],[72.8189501,18.9494744],[72.8191418,18.9496279],[72.8191875,18.9496661],[72.8192368,18.9497111],[72.8192374,18.9497117],[72.8192698,18.9497413],[72.8194091,18.9498695],[72.8194896,18.9499423],[72.8195238,18.9499799],[72.8195951,18.9500441],[72.8196334,18.9500821],[72.8197861,18.9502185],[72.8198061,18.9502364],[72.8199004,18.9503159],[72.8199582,18.950367],[72.8199966,18.9504011],[72.8199973,18.9504017],[72.8201166,18.9505074],[72.8201283,18.9505193],[72.8201356,18.9505266],[72.8201928,18.9505834],[72.8202607,18.9506508],[72.820355,18.9506813],[72.8203664,18.950685],[72.820654,18.9507747],[72.8208674,18.9508453],[72.8210488,18.9509025],[72.821094,18.9509167],[72.8211548,18.9509294],[72.8211914,18.9509499],[72.821309,18.951012],[72.8213189,18.9510172],[72.8213408,18.9510291],[72.8213844,18.9510621],[72.8214166,18.9510878],[72.8214494,18.9511132],[72.8215165,18.9511537],[72.8217192,18.9512575],[72.8218557,18.9513343],[72.8219216,18.9513585],[72.8219247,18.9513603],[72.8220562,18.9514355],[72.8222343,18.9515297],[72.8222516,18.9515388],[72.8223966,18.9516186],[72.8225788,18.951717],[72.8226556,18.9517586],[72.8226849,18.9517745],[72.8227162,18.9517777],[72.8227352,18.9517825],[72.8227489,18.9517827],[72.8227524,18.9517828],[72.8227669,18.9517828],[72.822779,18.9517817],[72.8227991,18.9517809],[72.8228124,18.9517852],[72.8228211,18.9517916],[72.8228429,18.9518077],[72.8229305,18.9518768],[72.8229362,18.9518809],[72.8229557,18.9518948],[72.8229685,18.9519039],[72.8230928,18.9519925],[72.8231983,18.9520587],[72.8233139,18.9521331],[72.8234491,18.9522191],[72.8235322,18.9522551],[72.8236394,18.9523071],[72.8238103,18.9523819],[72.8239332,18.9524312],[72.8240441,18.9524807],[72.824181,18.9525424],[72.8242899,18.9525919],[72.8243822,18.9526363],[72.8244735,18.9526739],[72.8246175,18.9527386],[72.8247214,18.9527945],[72.8247869,18.9528264],[72.824816,18.9528442],[72.8248468,18.9528603],[72.8249012,18.9528927],[72.8249709,18.9529316],[72.8251227,18.9530109],[72.8251251,18.9530121],[72.8253073,18.9531057],[72.8253294,18.9531131],[72.825386,18.9531319],[72.8253963,18.9531351],[72.8254154,18.9531408],[72.825372,18.9533647],[72.8253709,18.9533666],[72.8253472,18.9534061],[72.8253408,18.953431],[72.8253318,18.9534898],[72.8253172,18.9535849],[72.8252916,18.953752],[72.8252787,18.9538365],[72.8252627,18.9538926],[72.8252578,18.9539096],[72.8252266,18.9540545],[72.8251995,18.9541288],[72.8251285,18.9543234],[72.8251256,18.9543315],[72.8251066,18.9543791],[72.8250961,18.9544239],[72.8250969,18.9544582],[72.8251038,18.9545009],[72.8251042,18.9545021],[72.8251181,18.9545449],[72.8251572,18.9546009],[72.8253053,18.9547574],[72.8253486,18.9548032],[72.8255189,18.9549414],[72.8256238,18.9550266],[72.825612,18.955039],[72.8255083,18.9551501],[72.8254398,18.9552263],[72.8253436,18.9553278],[72.8253041,18.9553716],[72.8252102,18.9554708],[72.8251178,18.9555676],[72.8250422,18.9556478],[72.8250317,18.9556589],[72.8250552,18.9557108],[72.8250592,18.9557195],[72.8250957,18.9558004],[72.8251181,18.9558489],[72.8251689,18.9559592],[72.8251746,18.9559715],[72.8252487,18.9561384],[72.8253257,18.9563141],[72.8254122,18.9565069],[72.8255006,18.9567033],[72.8255232,18.9567522],[72.8255282,18.9567647],[72.8255318,18.9567761],[72.8255336,18.9567817],[72.8255449,18.956819],[72.825545,18.9568191],[72.8255535,18.9568467],[72.8255582,18.9568626],[72.8255949,18.9569414],[72.8256623,18.957062],[72.8256967,18.9571236],[72.8257426,18.9572301],[72.8258074,18.9573684],[72.8258843,18.9575314],[72.8259221,18.9576153],[72.8259574,18.9576936],[72.8260056,18.957803],[72.8260398,18.9578946],[72.8260834,18.9580005],[72.8260993,18.9580393],[72.8261423,18.9581313],[72.8261587,18.9581707],[72.8261602,18.9582265],[72.8261618,18.9582812],[72.8261621,18.9582918],[72.8261654,18.9584302],[72.8261674,18.9585117],[72.8261696,18.9586006],[72.8261699,18.958615],[72.82618,18.9590438],[72.826189,18.9594925],[72.826193,18.9596932],[72.8262037,18.960043],[72.8262053,18.960094],[72.8262089,18.9602373],[72.8262116,18.9603185],[72.8262156,18.9604985],[72.8262197,18.9606121],[72.8262221,18.9606972],[72.8262233,18.9607385],[72.8262273,18.9608313],[72.8262295,18.9608824],[72.8262298,18.9609142],[72.8262304,18.9609946],[72.8262323,18.9610938],[72.8262355,18.961235],[72.8262378,18.9613065],[72.8262413,18.9614134],[72.8262442,18.9615551],[72.8262468,18.9616758],[72.8262471,18.961688],[72.8254887,18.9617191],[72.824489,18.96176],[72.8244936,18.9619],[72.8244945,18.9619252],[72.8245121,18.9624132],[72.8245153,18.9624779],[72.8245212,18.9625971],[72.8245227,18.9626254],[72.824525,18.9626389],[72.8245314,18.9626748],[72.8245418,18.9627338],[72.8245418,18.9627342],[72.824559,18.9628316],[72.8245757,18.9629265],[72.8245895,18.9630049],[72.8246043,18.9630888],[72.8246212,18.9631845],[72.824629,18.9632309],[72.8246925,18.9636098],[72.8246962,18.96365],[72.8247051,18.9637468],[72.8247048,18.9637581],[72.8247037,18.963799],[72.8247021,18.9638591],[72.8247043,18.9638753],[72.8247476,18.9641882],[72.8247555,18.9642457],[72.8247734,18.9643753],[72.8247989,18.9644542],[72.8248474,18.9648424],[72.8248682,18.9650091],[72.8249302,18.9655051],[72.8249771,18.9658801],[72.824993,18.9660069],[72.8250062,18.9661294],[72.8250273,18.9663248],[72.8250333,18.9663802],[72.8250575,18.9666037],[72.8250759,18.9667737],[72.8250961,18.9669107],[72.8251069,18.9669838],[72.8251304,18.9671434],[72.8251536,18.9673009],[72.8251821,18.9675375],[72.8252122,18.9677873],[72.8252147,18.9678061],[72.825224,18.9678757],[72.8252214,18.9678977],[72.8252205,18.9679047],[72.8252033,18.9679363],[72.8251653,18.9679595],[72.824709,18.9680755],[72.8225809,18.9686227],[72.8219102,18.9687],[72.8196873,18.9689251],[72.8194941,18.9689447],[72.8191817,18.9689695],[72.8190242,18.968982],[72.818781,18.9690012],[72.8187258,18.9690056],[72.8185946,18.9690093],[72.818582,18.9690231],[72.8185817,18.9690428],[72.8188681,18.9698152],[72.8198783,18.9723849],[72.8203931,18.9737471],[72.8212439,18.9757372],[72.8223152,18.9782581],[72.8231903,18.9803721],[72.8220865,18.9801133],[72.8117429,18.978039],[72.8108594,18.9782562],[72.810745,18.978259],[72.8107009,18.9782593],[72.8106042,18.9782599],[72.8104095,18.9782637],[72.810371,18.9782645],[72.810306,18.978266],[72.8101798,18.9782661],[72.8101727,18.9782661],[72.8099189,18.9782681],[72.8098018,18.9782709],[72.8097489,18.9782718],[72.8096923,18.9782727],[72.8096083,18.9782744],[72.8095924,18.9782803],[72.8095946,18.9783091],[72.8095917,18.9783307],[72.8095781,18.9783426],[72.8095512,18.9783513],[72.8094972,18.9783744],[72.8094213,18.9784184],[72.8093768,18.9784467],[72.8093397,18.9784786],[72.8093147,18.9785044],[72.8093028,18.9785256],[72.8093073,18.9785455],[72.8093201,18.9785888],[72.8093139,18.9786004],[72.8092988,18.9786036],[72.8092889,18.9786053],[72.8092804,18.9786391],[72.809287,18.9786569],[72.8092955,18.9787027],[72.8092996,18.9787567],[72.8092963,18.9787935],[72.809294,18.978808],[72.8092769,18.9788191],[72.8092563,18.9788257],[72.8092541,18.9788253],[72.8092424,18.9788231],[72.8091873,18.9787589],[72.8091868,18.9787584],[72.8091167,18.9786862],[72.8090422,18.9786059],[72.8089985,18.9786054],[72.8089512,18.9785708],[72.8088805,18.9785057],[72.8088456,18.9784448],[72.8087835,18.9783268],[72.808711,18.9782507],[72.808528,18.9781982],[72.808323,18.9782066],[72.8080075,18.9782606],[72.8077755,18.9783084],[72.8073866,18.9784662],[72.8070583,18.9786283],[72.806554,18.9789037],[72.80617,18.9790987],[72.8060888,18.9791435],[72.8059963,18.9790986],[72.8056884,18.9789253],[72.8053786,18.9786999],[72.8051102,18.9784874],[72.8048931,18.9782481],[72.8046826,18.977986],[72.804516,18.9777701],[72.8042139,18.977327],[72.8040779,18.9770872],[72.8039228,18.9767711],[72.8035751,18.9760779],[72.8031676,18.9753033],[72.8027814,18.9745547],[72.802733,18.9744583],[72.8017209,18.9724404],[72.8014608,18.9718399],[72.8013072,18.9713649],[72.8012055,18.9710206],[72.8010246,18.970325],[72.8006564,18.9690153],[72.800322,18.9678155],[72.8001757,18.9672573],[72.800083,18.9668941],[72.800004,18.9665315],[72.7998802,18.9660307],[72.7997291,18.9653961],[72.7995724,18.9647932],[72.7994831,18.964406],[72.7994096,18.9640773],[72.7992989,18.9637748],[72.7991924,18.9634299],[72.7991164,18.9630634],[72.7990765,18.9628496],[72.79895,18.9623467],[72.7988473,18.9619027],[72.7988049,18.9616797],[72.7987571,18.9612979],[72.7987232,18.9607659],[72.7987132,18.960476],[72.7987334,18.9602687],[72.7987895,18.9600022],[72.7988401,18.9598617],[72.7989225,18.9597332],[72.7990286,18.9596262],[72.7991733,18.9595034],[72.7992538,18.959402],[72.7994709,18.9590492],[72.7993289,18.9589999],[72.7991143,18.9589796],[72.7988981,18.9593251],[72.798712,18.9591832],[72.7984484,18.9592759],[72.7984567,18.9590125],[72.7984746,18.9587922],[72.7985044,18.9585944],[72.7984265,18.9584929],[72.7980171,18.9580284],[72.7975603,18.9573929],[72.7970271,18.9566073],[72.7966601,18.9564277],[72.796255,18.9562247],[72.7960351,18.9559558],[72.7958554,18.9555322],[72.7956408,18.9552303],[72.7956247,18.9549766],[72.7954236,18.9546469],[72.7950749,18.9542257],[72.7948067,18.9539188],[72.7948791,18.9538402],[72.7945089,18.9534368],[72.7938116,18.9527087],[72.7933234,18.9523435],[72.7927199,18.9511511],[72.7921486,18.9499208],[72.791985,18.9493703],[72.7919367,18.9491673],[72.7919421,18.9489289],[72.7916763,18.9488968],[72.7917855,18.9482182],[72.7920332,18.9482389],[72.7922022,18.9478],[72.792331,18.9467446],[72.7922478,18.9465823],[72.7922264,18.9463489],[72.792339,18.9459049],[72.7923551,18.9457349],[72.7922854,18.9454457],[72.7926019,18.9452123],[72.7933046,18.9442813],[72.7933449,18.9441697],[72.7933368,18.9440276],[72.793436,18.9439895],[72.7933663,18.9437891],[72.7935085,18.9437485],[72.7932939,18.943127],[72.7930691,18.9427242],[72.7930123,18.9424953],[72.7930847,18.9420462],[72.7930847,18.9416885],[72.7928111,18.9411913],[72.7926448,18.9410289],[72.7922934,18.9403084],[72.7922612,18.9399837],[72.7922988,18.9395397],[72.7924141,18.939352],[72.7925375,18.9392911],[72.7927923,18.939319],[72.7929935,18.9392048],[72.7933878,18.9391541],[72.7938221,18.9392745]]]]}}]}