{"type":"FeatureCollection","features":[{"type":"Feature","properties":{"ward": "E"},"geometry":{"type":"MultiPolygon","coordinates":[[[[72.8231903,18.9803721],[72.8223152,18.9782581],[72.8212439,18.9757372],[72.8203931,18.9737471],[72.8198783,18.9723849],[72.8188681,18.9698152],[72.8185817,18.9690428],[72.818582,18.9690231],[72.8185946,18.9690093],[72.8187258,18.9690056],[72.818781,18.9690012],[72.8190242,18.968982],[72.8191817,18.9689695],[72.8194941,18.9689447],[72.8196873,18.9689251],[72.8219102,18.9687],[72.8225809,18.9686227],[72.824709,18.9680755],[72.8251653,18.9679595],[72.8252033,18.9679363],[72.8252205,18.9679047],[72.8252214,18.9678977],[72.825224,18.9678757],[72.8252147,18.9678061],[72.8252122,18.9677873],[72.8251821,18.9675375],[72.8251536,18.9673009],[72.8251304,18.9671434],[72.8251069,18.9669838],[72.8250961,18.9669107],[72.8250759,18.9667737],[72.8250575,18.9666037],[72.8250333,18.9663802],[72.8250273,18.9663248],[72.8250062,18.9661294],[72.824993,18.9660069],[72.8249771,18.9658801],[72.8249302,18.9655051],[72.8248682,18.9650091],[72.8248474,18.9648424],[72.8247989,18.9644542],[72.8247734,18.9643753],[72.8247555,18.9642457],[72.8247476,18.9641882],[72.8247043,18.9638753],[72.8247021,18.9638591],[72.8247037,18.963799],[72.8247048,18.9637581],[72.8247051,18.9637468],[72.8246962,18.96365],[72.8246925,18.9636098],[72.824629,18.9632309],[72.8246212,18.9631845],[72.8246043,18.9630888],[72.8245895,18.9630049],[72.8245757,18.9629265],[72.824559,18.9628316],[72.8245418,18.9627342],[72.8245418,18.9627338],[72.8245314,18.9626748],[72.824525,18.9626389],[72.8245227,18.9626254],[72.8245212,18.9625971],[72.8245153,18.9624779],[72.8245121,18.9624132],[72.8244945,18.9619252],[72.8244936,18.9619],[72.824489,18.96176],[72.8254887,18.9617191],[72.8262471,18.961688],[72.8319897,18.9618729],[72.8321148,18.9618786],[72.8321946,18.9618951],[72.8322862,18.961918],[72.832402,18.9619479],[72.8325889,18.9619931],[72.8326184,18.9619978],[72.8328362,18.9620437],[72.8329917,18.9620743],[72.8330691,18.9620858],[72.8331915,18.9621002],[72.8333033,18.9621121],[72.8334522,18.962121],[72.833479,18.9621213],[72.8336226,18.9621246],[72.8336923,18.9621259],[72.8339342,18.9621256],[72.8341066,18.9621254],[72.8341915,18.9621253],[72.8343525,18.962128],[72.8343664,18.9621297],[72.8343842,18.9621327],[72.8343979,18.9621386],[72.8344633,18.9621599],[72.8345373,18.9621883],[72.8346132,18.9622194],[72.8347057,18.9622619],[72.8347441,18.9622847],[72.8348335,18.962333],[72.834876,18.9623604],[72.8348961,18.9623708],[72.8349638,18.9624061],[72.8350233,18.9624381],[72.8350863,18.9624679],[72.8351241,18.9624839],[72.8351775,18.9625023],[72.8352157,18.962515],[72.8352616,18.9625222],[72.8353521,18.9625336],[72.835452,18.9625443],[72.8355429,18.9625515],[72.8355903,18.9625541],[72.8356794,18.9625549],[72.8357482,18.9625543],[72.8358348,18.962553],[72.8359187,18.9625529],[72.8359602,18.9625537],[72.8359843,18.9625522],[72.8360081,18.9625503],[72.8360473,18.9625473],[72.836112,18.9625415],[72.8362292,18.9625307],[72.8363055,18.9625216],[72.8364025,18.9625144],[72.8365329,18.9625071],[72.8365632,18.9625036],[72.8366682,18.9625063],[72.8368658,18.9625145],[72.8370441,18.962531],[72.8371542,18.9625435],[72.8372464,18.9625554],[72.8372754,18.9625603],[72.8373209,18.9625709],[72.8373367,18.9625766],[72.8373757,18.9625936],[72.837404,18.9626089],[72.8374298,18.9626263],[72.8374516,18.9626451],[72.8374683,18.9626635],[72.8374991,18.9627069],[72.837525,18.9627563],[72.8375729,18.9628676],[72.8376553,18.9630752],[72.8377049,18.963211],[72.8377296,18.963282],[72.8377698,18.9633978],[72.8377968,18.9634752],[72.8378069,18.9635047],[72.8378955,18.9637662],[72.8379793,18.9640105],[72.8380258,18.9640976],[72.838084,18.9642067],[72.838109,18.9642537],[72.8381233,18.9642706],[72.8382587,18.9644301],[72.8382625,18.9644346],[72.8382898,18.9644668],[72.8383829,18.9645737],[72.8385432,18.9647588],[72.838667,18.964917],[72.8387196,18.9649843],[72.8387537,18.9650279],[72.8388161,18.9651078],[72.8389118,18.9649749],[72.8389923,18.9648629],[72.8390602,18.9647686],[72.8391612,18.9646272],[72.8391765,18.9646075],[72.8391922,18.9645905],[72.8392031,18.9645792],[72.8392163,18.964565],[72.8392291,18.9645538],[72.8392482,18.9645412],[72.8392773,18.9645259],[72.8393492,18.9644985],[72.8394414,18.9644698],[72.8395391,18.9644471],[72.8397883,18.9644005],[72.8398856,18.9643802],[72.8404161,18.9642694],[72.8404199,18.9642689],[72.841121,18.964161],[72.8414773,18.9641061],[72.8417225,18.9640713],[72.841811,18.9640562],[72.8419018,18.9640406],[72.8420306,18.9640202],[72.8421745,18.9639974],[72.8423078,18.9639569],[72.8423528,18.9639432],[72.8423868,18.9639325],[72.8424357,18.963917],[72.8425058,18.9639021],[72.8426132,18.9638799],[72.842763,18.9638489],[72.8427901,18.9638433],[72.8432961,18.9637385],[72.8434921,18.963697],[72.8439141,18.9636075],[72.8440545,18.9635776],[72.8441108,18.9635172],[72.8441568,18.9634896],[72.8442907,18.9634632],[72.8443027,18.9634608],[72.8443336,18.9634564],[72.8444182,18.9634443],[72.8445646,18.9634234],[72.84461,18.9634208],[72.8446829,18.9634662],[72.8448614,18.9635843],[72.844967,18.9635106],[72.8453006,18.9632776],[72.8454361,18.9633106],[72.8455645,18.9633418],[72.8456206,18.9633555],[72.8456393,18.96336],[72.8458774,18.9634179],[72.8459215,18.9634286],[72.8459384,18.9634328],[72.8459567,18.9634372],[72.8464377,18.9635471],[72.8464621,18.9635569],[72.8464735,18.9635615],[72.8464737,18.9635617],[72.8465019,18.9635822],[72.8465482,18.9636157],[72.8465571,18.9636231],[72.846624,18.9636554],[72.8466538,18.9636491],[72.8467499,18.9636291],[72.8474698,18.9634787],[72.8476053,18.9634488],[72.8476196,18.9635273],[72.8476716,18.9637508],[72.8483463,18.9636185],[72.8486215,18.9635596],[72.849456,18.9639185],[72.8495224,18.964214],[72.8496864,18.9648652],[72.8497226,18.9649412],[72.8498472,18.965129],[72.8498959,18.9652993],[72.849958,18.9655389],[72.8499628,18.965645],[72.8500285,18.9658781],[72.8500947,18.9659159],[72.8502568,18.9658785],[72.8503531,18.9662989],[72.8524986,18.965819],[72.8526521,18.9663229],[72.8525665,18.9663453],[72.8526314,18.9666086],[72.8527028,18.9665925],[72.8527788,18.9665895],[72.8527961,18.9666544],[72.8529285,18.9666265],[72.8529237,18.9665947],[72.8529309,18.9665607],[72.8529837,18.9665357],[72.8530317,18.9665539],[72.8530509,18.9665879],[72.853207,18.9665584],[72.8531998,18.9665357],[72.8532118,18.9665016],[72.853243,18.9664744],[72.8532814,18.9664699],[72.8533174,18.9664926],[72.853339,18.9665243],[72.853483,18.9664926],[72.853483,18.9664562],[72.8534974,18.9664267],[72.8535334,18.9664063],[72.8535719,18.9664086],[72.8536007,18.966429],[72.8536151,18.9665016],[72.8535719,18.9665243],[72.853495,18.9665243],[72.8533438,18.9665607],[72.853291,18.966597],[72.8532142,18.9665834],[72.8530581,18.9666242],[72.8530101,18.9666651],[72.8529357,18.9666583],[72.852782,18.9666969],[72.8527305,18.9667252],[72.8528096,18.9670431],[72.85168,18.9673886],[72.8515211,18.9674346],[72.8513826,18.967474],[72.8509755,18.9676029],[72.851002,18.9677041],[72.8507698,18.9677567],[72.8508023,18.9678397],[72.8508138,18.9678495],[72.8508531,18.9678708],[72.8522311,18.9678004],[72.8522383,18.9679616],[72.8521375,18.9679684],[72.8521903,18.968679],[72.852087,18.9687562],[72.8507972,18.9688317],[72.8507217,18.9688998],[72.8506662,18.9689049],[72.850661,18.9691241],[72.850722,18.9691471],[72.8507792,18.970347],[72.8506789,18.9703578],[72.8506789,18.9704273],[72.85061,18.9704629],[72.8504316,18.9704286],[72.8503918,18.9705378],[72.8502989,18.9707926],[72.8501024,18.9711073],[72.8500253,18.9712441],[72.8499448,18.9714496],[72.84983,18.9716118],[72.8500367,18.9720144],[72.8501031,18.972241],[72.8500977,18.9724413],[72.849859,18.9726874],[72.8496848,18.9727833],[72.8490449,18.9727901],[72.8489486,18.9729266],[72.8491398,18.9733163],[72.8495287,18.9730471],[72.8501332,18.9731112],[72.8505709,18.9728305],[72.8509342,18.9726003],[72.8520396,18.9721496],[72.8529784,18.9721395],[72.8534854,18.9722915],[72.8536382,18.9723373],[72.8540503,18.9726959],[72.8540803,18.9731705],[72.8541324,18.9737212],[72.8553362,18.9745426],[72.8555024,18.9747927],[72.8557035,18.9750159],[72.8558658,18.9753264],[72.8558788,18.9756284],[72.8553365,18.9766719],[72.8554044,18.9769254],[72.8554594,18.9771972],[72.855484,18.9772794],[72.8556313,18.9777727],[72.8500736,18.9790057],[72.8502774,18.9799695],[72.8500253,18.9800156],[72.8499181,18.980053],[72.8498007,18.9800882],[72.8497589,18.9800999],[72.849677,18.9801314],[72.8495326,18.9801856],[72.8493631,18.9802598],[72.8490853,18.9803715],[72.8490245,18.9803946],[72.8489944,18.9804074],[72.8489156,18.9804409],[72.8488724,18.9804592],[72.848841,18.9804725],[72.8486085,18.9805715],[72.848408,18.9806551],[72.8482251,18.9807305],[72.8482059,18.9807388],[72.8481943,18.9807436],[72.8480727,18.9807944],[72.8479174,18.9808544],[72.8479025,18.9808602],[72.8467143,18.9813704],[72.8466446,18.9814004],[72.8466427,18.9814012],[72.8465784,18.9814288],[72.8467722,18.9818342],[72.8467528,18.9818427],[72.8467238,18.9818554],[72.8466522,18.9818868],[72.8463486,18.9820137],[72.8462462,18.9820565],[72.8460918,18.9821209],[72.846064,18.9821325],[72.8453655,18.9824408],[72.8447779,18.9826874],[72.8444352,18.9828316],[72.8441328,18.9829496],[72.8440775,18.9829516],[72.8438611,18.9829853],[72.8435766,18.9830297],[72.8433181,18.98307],[72.843135,18.9830982],[72.8430912,18.983105],[72.8428687,18.9831394],[72.842857,18.9831412],[72.8428404,18.9831437],[72.8427721,18.9831543],[72.8427207,18.9831622],[72.8426068,18.9831798],[72.8425954,18.9832252],[72.8425907,18.9832437],[72.8426063,18.9832549],[72.8425961,18.9832952],[72.8425908,18.9833162],[72.84259,18.9833195],[72.8425513,18.9834721],[72.8424652,18.9838064],[72.8423859,18.9841251],[72.8423041,18.9844731],[72.8422365,18.9847377],[72.8422226,18.9847918],[72.8421341,18.9851492],[72.8420928,18.9852806],[72.8420412,18.9854868],[72.8420153,18.9855905],[72.8418526,18.9862171],[72.8417084,18.9867725],[72.8415573,18.9873474],[72.8415477,18.987384],[72.8415392,18.9874029],[72.8415189,18.987482],[72.8415206,18.9876638],[72.841505,18.9877255],[72.8414861,18.9877992],[72.8414562,18.9879444],[72.8414347,18.9880489],[72.8414282,18.9880805],[72.8414275,18.988082],[72.8414261,18.9880851],[72.8414241,18.9880891],[72.8414211,18.9880942],[72.8414191,18.9880973],[72.841416,18.9881016],[72.8414131,18.988105],[72.8414097,18.9881088],[72.8414073,18.9881112],[72.8414052,18.9881132],[72.8414015,18.9881164],[72.8413965,18.9881203],[72.841392,18.9881233],[72.8413876,18.9881259],[72.8413842,18.9881278],[72.8413788,18.9881304],[72.8413761,18.9881315],[72.8413723,18.988133],[72.841369,18.9881341],[72.8413658,18.9881351],[72.8413634,18.9881357],[72.8413584,18.9881369],[72.8413526,18.9881379],[72.8413498,18.9881382],[72.8412417,18.9881397],[72.8407537,18.9881488],[72.8402951,18.9881841],[72.8402055,18.9881954],[72.8401474,18.9882028],[72.8399038,18.9882182],[72.8394428,18.9882466],[72.839067,18.9882686],[72.8386293,18.988296],[72.8381368,18.988328],[72.8380791,18.9883313],[72.8379454,18.9883391],[72.8379092,18.9883412],[72.8376902,18.9883539],[72.8376005,18.9883591],[72.8370554,18.9883896],[72.8367712,18.9884112],[72.8364987,18.9884344],[72.8362038,18.9884598],[72.8358027,18.9884875],[72.8356909,18.9884981],[72.8352935,18.9884984],[72.835226,18.9884867],[72.8348893,18.9884299],[72.8348208,18.9884184],[72.834448,18.9883458],[72.8342892,18.9883056],[72.8340941,18.9882887],[72.8339253,18.9882646],[72.833973,18.9882691],[72.8334607,18.9881806],[72.8334133,18.9881721],[72.8331705,18.9881285],[72.8324127,18.9872983],[72.8319347,18.9867746],[72.8270578,18.9814143],[72.8269577,18.9814567],[72.8268877,18.981478],[72.8268278,18.9814867],[72.8267549,18.9814827],[72.8266885,18.9814788],[72.8266323,18.9814623],[72.8265598,18.9814267],[72.8264906,18.9813849],[72.826435,18.9813242],[72.8263957,18.9812796],[72.8263701,18.9812066],[72.826361,18.9811434],[72.8263519,18.9810738],[72.8263554,18.9810054],[72.8261917,18.9809724],[72.8261855,18.9809712],[72.8261845,18.980971],[72.826118,18.9809576],[72.8258481,18.9809045],[72.8257602,18.9808845],[72.8254743,18.9808315],[72.8248383,18.9807106],[72.8246989,18.9806841],[72.8244278,18.9806337],[72.8240779,18.9805643],[72.8239669,18.9805423],[72.8237362,18.9804892],[72.8231903,18.9803721]]]]}}]}