{"type":"FeatureCollection","features":[{"type":"Feature","properties":{"ward": "FN"},"geometry":{"type":"MultiPolygon","coordinates":[[[[72.8428405,19.0169661],[72.8428644,19.0170023],[72.842874,19.0170163],[72.8428742,19.0170165],[72.8429054,19.0170618],[72.842924,19.0170888],[72.8429374,19.0171088],[72.842971,19.017159],[72.8429743,19.0171639],[72.8430083,19.0172147],[72.8430773,19.0173158],[72.8431672,19.0174476],[72.8431723,19.017455],[72.8433084,19.0176534],[72.8434531,19.0178621],[72.8435225,19.0179607],[72.8435941,19.0180626],[72.8436447,19.0181371],[72.8436449,19.0181373],[72.8436557,19.0181532],[72.8437551,19.0182992],[72.84378,19.0183353],[72.8437801,19.0183353],[72.8437801,19.0183354],[72.843922,19.0185405],[72.8440015,19.0186533],[72.8440992,19.0187912],[72.8442721,19.0190351],[72.8443766,19.0191825],[72.8443792,19.0191862],[72.8444208,19.0192464],[72.8444551,19.019296],[72.8445813,19.0194618],[72.8446095,19.0195084],[72.844636,19.0195432],[72.8446527,19.0195651],[72.8446607,19.0195765],[72.8446925,19.0196212],[72.8447561,19.0197106],[72.8448125,19.0197904],[72.8449952,19.0200524],[72.8452433,19.0204082],[72.8452751,19.020453],[72.8453068,19.0204977],[72.845387,19.0206107],[72.8454028,19.0206358],[72.8454029,19.0206358],[72.8454135,19.0206527],[72.8455055,19.0207839],[72.8455057,19.0207842],[72.845596,19.0209128],[72.8457671,19.021158],[72.8458173,19.0212311],[72.8458175,19.0212313],[72.8459335,19.0213997],[72.8460071,19.0215084],[72.8460072,19.0215085],[72.8462226,19.021826],[72.8463932,19.0220894],[72.8464048,19.0221072],[72.8465238,19.0222789],[72.8466115,19.0224056],[72.8466133,19.0224082],[72.8466195,19.022417],[72.8466717,19.0224924],[72.8469598,19.0228957],[72.8471001,19.0230994],[72.8472445,19.0233082],[72.8475535,19.0237561],[72.84775,19.024042],[72.8480164,19.0244197],[72.848066,19.0244967],[72.8480663,19.0244971],[72.8480808,19.0245195],[72.8482045,19.0246987],[72.8482334,19.0247355],[72.8482335,19.0247356],[72.848355,19.0248901],[72.8486345,19.0252376],[72.8487729,19.0254093],[72.8489522,19.0256621],[72.8489524,19.0256624],[72.8491171,19.0258942],[72.8495132,19.02647],[72.8495711,19.0265559],[72.8495712,19.026556],[72.8496469,19.0266681],[72.8498834,19.0270104],[72.8498848,19.0270124],[72.8498869,19.0270155],[72.8498887,19.0270181],[72.8498888,19.0270182],[72.849889,19.0270185],[72.8498902,19.0270203],[72.8498903,19.0270205],[72.8499033,19.0270392],[72.850192,19.0274548],[72.8502571,19.0275535],[72.8503978,19.027767],[72.8504679,19.0278679],[72.8504682,19.0278683],[72.8506784,19.0281707],[72.8509723,19.0286023],[72.8510363,19.0286947],[72.851093,19.0287765],[72.851932,19.0299679],[72.8519642,19.0300383],[72.8520872,19.0302295],[72.8523361,19.0305938],[72.8526296,19.0310125],[72.8526299,19.0310131],[72.8526329,19.0310173],[72.8526331,19.0310175],[72.8526332,19.0310177],[72.8526335,19.0310182],[72.8526336,19.0310183],[72.852831,19.0313021],[72.8529126,19.0314229],[72.8531024,19.0317037],[72.8531026,19.031704],[72.8531248,19.0317368],[72.8531492,19.0317719],[72.8532447,19.031909],[72.8533242,19.0320232],[72.8534301,19.0321834],[72.8535052,19.0322906],[72.8536991,19.0325668],[72.8539052,19.0328697],[72.8539053,19.0328699],[72.8539512,19.0329372],[72.8540693,19.0331117],[72.8541796,19.0332746],[72.8542775,19.0334204],[72.8543521,19.0335313],[72.8543791,19.0335717],[72.8543792,19.0335717],[72.8543891,19.0335865],[72.8543893,19.0335867],[72.8543893,19.0335868],[72.8544045,19.0336092],[72.8544045,19.0336093],[72.8544895,19.0337347],[72.8545232,19.0337846],[72.8545509,19.0338257],[72.8545703,19.0338545],[72.8545706,19.0338548],[72.8546255,19.0339359],[72.8560874,19.0361505],[72.8561223,19.03621],[72.8563538,19.0365567],[72.8563698,19.0365807],[72.8564982,19.0367731],[72.8565181,19.0368028],[72.858716,19.0398844],[72.8588737,19.0401055],[72.859216,19.0405851],[72.8595027,19.0410065],[72.8595942,19.041137],[72.859732,19.0413325],[72.8598423,19.0414905],[72.8599845,19.0417019],[72.8601234,19.0419019],[72.8602974,19.0421478],[72.8604738,19.0424008],[72.8606337,19.0426285],[72.8608317,19.0429081],[72.8609215,19.0430368],[72.8611839,19.0434424],[72.8612677,19.0435472],[72.8613709,19.0437036],[72.8614254,19.0437822],[72.8615681,19.0439896],[72.8617263,19.0442215],[72.8618571,19.0444117],[72.8619856,19.0446007],[72.8620077,19.0446409],[72.8620998,19.0447771],[72.8621692,19.0448803],[72.8622576,19.0450154],[72.8623869,19.0452015],[72.8625102,19.0453788],[72.8626598,19.0455932],[72.862732,19.0457026],[72.8628781,19.0459097],[72.863105,19.0462349],[72.8631057,19.0462359],[72.863159,19.0463121],[72.8631726,19.0463317],[72.863196,19.0463642],[72.8632065,19.0463792],[72.8632106,19.0463851],[72.8632107,19.0463852],[72.8632124,19.0463876],[72.8634052,19.0466643],[72.8635509,19.046874],[72.8636252,19.0469851],[72.863775,19.0472062],[72.8645001,19.0482463],[72.8646009,19.0483939],[72.8647441,19.0486073],[72.8648658,19.0487888],[72.8649405,19.0488959],[72.865072,19.0490912],[72.8652328,19.0493243],[72.8653239,19.0494546],[72.8653973,19.0495628],[72.8655178,19.0497343],[72.865656,19.0499273],[72.8657417,19.0500489],[72.8658515,19.0502099],[72.86597,19.0503829],[72.8661039,19.0505748],[72.866203,19.0507184],[72.8663873,19.0509788],[72.8664953,19.051132],[72.866517,19.0511628],[72.8666464,19.0513275],[72.8666467,19.051328],[72.8667855,19.0515291],[72.8668033,19.0515545],[72.8668037,19.051555],[72.8670286,19.0518736],[72.8672753,19.0522283],[72.8673767,19.0523739],[72.8674308,19.0524505],[72.8675257,19.052585],[72.8676204,19.0525366],[72.8676205,19.0525366],[72.8676451,19.0525244],[72.8676836,19.0525047],[72.8676897,19.0525013],[72.8676898,19.0525012],[72.8677217,19.0524839],[72.8677406,19.0524741],[72.8678317,19.0524283],[72.8678716,19.0524089],[72.8679958,19.0523663],[72.8681739,19.0522134],[72.8682877,19.0520719],[72.8684046,19.0518536],[72.8685355,19.0516883],[72.8688797,19.0516823],[72.8688956,19.0513873],[72.8689618,19.051385],[72.8691069,19.0513966],[72.8691401,19.0513841],[72.8691735,19.0513716],[72.8693069,19.0513216],[72.869439,19.0513142],[72.8695696,19.0513069],[72.8695925,19.051306],[72.8697623,19.0512998],[72.8699154,19.0513029],[72.8700008,19.0513111],[72.8701013,19.0513208],[72.8702732,19.0513383],[72.8702952,19.0513405],[72.8704471,19.0513104],[72.8709149,19.051193],[72.8710334,19.0511273],[72.871081,19.0510884],[72.8710901,19.0510809],[72.8712205,19.0509965],[72.8712716,19.0509294],[72.8713518,19.0508766],[72.8714301,19.0507389],[72.8716308,19.0504479],[72.8717124,19.0503285],[72.8717125,19.0503285],[72.8717579,19.050262],[72.8718367,19.0501564],[72.871843,19.0501479],[72.8718964,19.0500763],[72.8719925,19.0499469],[72.8720475,19.0499668],[72.872241,19.0500001],[72.8725514,19.0500076],[72.8726843,19.050002],[72.8730679,19.0499857],[72.873074,19.0499852],[72.8733953,19.0499598],[72.8734533,19.049948],[72.8734813,19.0499423],[72.8737027,19.0498972],[72.8740945,19.0497751],[72.8741924,19.0497446],[72.8742462,19.0497279],[72.8744243,19.0496629],[72.8745539,19.0496157],[72.8749758,19.0494251],[72.874976,19.049425],[72.8753635,19.049168],[72.8754549,19.0491042],[72.8756593,19.0489616],[72.8756876,19.0489461],[72.8756879,19.048946],[72.8757564,19.0489086],[72.8758652,19.0488725],[72.8759404,19.0488572],[72.8759547,19.0488543],[72.8760019,19.0488562],[72.876065,19.0488628],[72.8761021,19.0488664],[72.8761286,19.048874],[72.8761449,19.0488787],[72.8762191,19.0488995],[72.8763222,19.0489409],[72.8763682,19.0489628],[72.8764165,19.0489855],[72.8764333,19.0489926],[72.8764549,19.0490016],[72.8764826,19.0490113],[72.8764893,19.0490135],[72.8765077,19.0490198],[72.8765514,19.0490297],[72.8765809,19.0490324],[72.8765936,19.0490321],[72.8766194,19.0490312],[72.8766209,19.0490312],[72.8766264,19.0490303],[72.8766342,19.0490291],[72.8766542,19.0490259],[72.8766796,19.049022],[72.8766932,19.0490164],[72.8766958,19.0490152],[72.8767233,19.0489971],[72.8767235,19.0489969],[72.8767727,19.0489402],[72.8768177,19.0488795],[72.876875,19.0488018],[72.8769206,19.0487401],[72.8771277,19.0484983],[72.8772737,19.0483864],[72.8775355,19.0481856],[72.8779237,19.047981],[72.8779244,19.0479806],[72.8779337,19.0479757],[72.8780304,19.0479129],[72.8781185,19.0478588],[72.8782318,19.0478237],[72.8782318,19.0478236],[72.8782957,19.0478038],[72.8783289,19.0477935],[72.8783289,19.0477934],[72.878348,19.0477899],[72.8783641,19.0477916],[72.8783822,19.0477987],[72.8784204,19.0478274],[72.8784605,19.047852],[72.878526,19.047879],[72.8786326,19.047894],[72.8787121,19.047898],[72.8787874,19.0479004],[72.8788416,19.0478983],[72.8788745,19.0478942],[72.8789175,19.0478888],[72.8789486,19.0478836],[72.8789487,19.0478836],[72.8789562,19.0478823],[72.8790015,19.04787],[72.8790408,19.0478592],[72.8791157,19.0478344],[72.879182,19.0478124],[72.8792177,19.0478004],[72.8792885,19.0477728],[72.8793204,19.0477582],[72.8793523,19.0477388],[72.8793969,19.0477064],[72.8793969,19.0477063],[72.8794102,19.0476964],[72.8794792,19.0476392],[72.8795182,19.0476037],[72.8795182,19.0476036],[72.8795318,19.0475912],[72.879548,19.0475754],[72.8795718,19.0475519],[72.8796019,19.0475084],[72.8797657,19.0472673],[72.8799872,19.046915],[72.8800185,19.0467832],[72.8798701,19.0460927],[72.8797872,19.0456416],[72.8797868,19.0456349],[72.8797886,19.045624],[72.8797911,19.0456096],[72.879793,19.0455975],[72.8798018,19.0455768],[72.8798121,19.0455441],[72.8798234,19.0455073],[72.8798329,19.0454707],[72.8798329,19.0454706],[72.8798345,19.0454643],[72.8798362,19.0454566],[72.8798362,19.0454565],[72.8798425,19.0454256],[72.8798427,19.0454243],[72.8798493,19.045392],[72.8798626,19.0453191],[72.8798717,19.045272],[72.8798766,19.045257],[72.8798883,19.0452291],[72.8798883,19.045229],[72.8798889,19.0452276],[72.8798897,19.0452255],[72.8799098,19.0451892],[72.87991,19.0451888],[72.8799148,19.0451801],[72.8799197,19.0451683],[72.8799228,19.045129],[72.8799305,19.0451008],[72.8799322,19.0450941],[72.8799429,19.045069],[72.8799479,19.0450501],[72.879951,19.045032],[72.8799512,19.0450131],[72.8799503,19.0450018],[72.8799493,19.0449928],[72.8799479,19.0449894],[72.8799422,19.0449768],[72.8799357,19.044965],[72.8799357,19.0449599],[72.8799356,19.0449564],[72.8799374,19.0449487],[72.8799462,19.0449309],[72.8799824,19.0448768],[72.8799872,19.0448683],[72.8799873,19.0448682],[72.8800115,19.0448249],[72.8800215,19.0448054],[72.8800276,19.0447929],[72.8800329,19.0447763],[72.8800413,19.0447528],[72.8800444,19.0447475],[72.8800475,19.0447423],[72.880069,19.0446998],[72.8800795,19.0446783],[72.8800857,19.0446585],[72.8800887,19.0446488],[72.8800918,19.0446253],[72.8800931,19.0446139],[72.8800913,19.0445845],[72.8800913,19.0445844],[72.8800919,19.0445775],[72.8800917,19.0445531],[72.8800889,19.0445424],[72.88008,19.0445226],[72.8800761,19.0445142],[72.8800635,19.0444875],[72.8800628,19.0444783],[72.8800618,19.0444694],[72.8800623,19.0444597],[72.8800625,19.0444529],[72.8800692,19.0444321],[72.8800802,19.0444094],[72.8800925,19.0443926],[72.8800946,19.0443899],[72.8800946,19.0443898],[72.8801097,19.0443698],[72.8801208,19.0443583],[72.8801231,19.0443558],[72.8801376,19.0443407],[72.8801534,19.0443312],[72.8801718,19.0443216],[72.8801751,19.0443199],[72.8801806,19.044317],[72.8801936,19.044308],[72.8802082,19.0442875],[72.8802083,19.0442874],[72.8802098,19.0442852],[72.8802248,19.0442508],[72.8802507,19.0441685],[72.8802645,19.0441247],[72.8802645,19.0441246],[72.8802824,19.0440671],[72.8802933,19.0440347],[72.8802933,19.0440346],[72.880304,19.044002],[72.8803247,19.0439516],[72.8803331,19.043931],[72.8803562,19.0438744],[72.8803795,19.0438244],[72.8803871,19.0437975],[72.8804202,19.0436538],[72.8804202,19.0436535],[72.880433,19.0435096],[72.880433,19.0435095],[72.8804375,19.0434566],[72.8804367,19.0434553],[72.8804367,19.0434552],[72.8804189,19.0434257],[72.8804204,19.0433995],[72.8804209,19.0433872],[72.8804211,19.043387],[72.8804316,19.0433804],[72.8804436,19.0433724],[72.8804474,19.0433699],[72.8804597,19.0433544],[72.8804638,19.0433446],[72.8804697,19.0433296],[72.8804782,19.0432989],[72.8804873,19.0432553],[72.8804894,19.0432384],[72.8804912,19.0432233],[72.8804951,19.0432102],[72.8804993,19.0431951],[72.8805038,19.0431774],[72.8805097,19.0431527],[72.8805227,19.0431039],[72.8805384,19.0430306],[72.8805459,19.0429956],[72.8805459,19.0429955],[72.8805657,19.0428993],[72.8805684,19.0428862],[72.8805863,19.0427811],[72.8806018,19.0427127],[72.880602,19.0427119],[72.8806031,19.0427041],[72.8806068,19.0426768],[72.8806087,19.042666],[72.8806124,19.0426445],[72.880613,19.04264],[72.8806138,19.0426365],[72.8806144,19.0426329],[72.880617,19.0426226],[72.880645,19.0425003],[72.8806489,19.0424632],[72.8806495,19.0424598],[72.8806552,19.0424273],[72.8806637,19.0424057],[72.8806657,19.042392],[72.8806684,19.0423719],[72.8806695,19.042359],[72.8806689,19.0423542],[72.8806683,19.0423489],[72.8806683,19.0423399],[72.8806688,19.0423363],[72.8806693,19.0423331],[72.8806706,19.0423297],[72.8806753,19.0423173],[72.8806888,19.0422856],[72.8806991,19.0422615],[72.8807051,19.0422467],[72.8807087,19.0422348],[72.8807088,19.0422347],[72.8807093,19.0422276],[72.8807094,19.0422267],[72.8807095,19.0422215],[72.8807101,19.0422165],[72.8807106,19.04221],[72.880711,19.0422042],[72.8807119,19.0421992],[72.8807121,19.0421978],[72.8807165,19.0421725],[72.8807277,19.0421336],[72.8807322,19.042123],[72.8807338,19.042118],[72.8807311,19.0419256],[72.8807312,19.0419154],[72.8807311,19.0419096],[72.8807314,19.0418999],[72.8807323,19.0418038],[72.8807323,19.0417947],[72.8807324,19.0417669],[72.8807321,19.0417624],[72.8807263,19.0417488],[72.8807177,19.041738],[72.8807082,19.0417282],[72.8807079,19.0417277],[72.8807069,19.0417267],[72.8807049,19.0417217],[72.8807045,19.041717],[72.8807053,19.0417136],[72.8807052,19.0417132],[72.8807052,19.0417128],[72.8807092,19.0416945],[72.8807169,19.0416591],[72.8806984,19.0415669],[72.8806859,19.0415051],[72.8806859,19.0415049],[72.8806872,19.0415033],[72.8806868,19.0415016],[72.8807443,19.0414326],[72.8807773,19.041376],[72.8807796,19.0413714],[72.8807821,19.0413663],[72.8807865,19.041339],[72.8808072,19.0412117],[72.8808215,19.0411277],[72.8808357,19.0410437],[72.880845,19.0409935],[72.8808489,19.0409711],[72.8808556,19.0409328],[72.8808748,19.0408109],[72.88088,19.040772],[72.8808873,19.0407359],[72.8808873,19.0407356],[72.8808879,19.0407295],[72.880889,19.0407182],[72.8808932,19.0406747],[72.880899,19.0406143],[72.8808999,19.0406047],[72.8809273,19.0404339],[72.8809421,19.0403116],[72.8809773,19.040028],[72.8809873,19.0399573],[72.8809973,19.0398871],[72.8810061,19.0398256],[72.8810109,19.0397923],[72.8810179,19.0397429],[72.8810202,19.0397033],[72.8810202,19.0397032],[72.8810206,19.0396964],[72.8810206,19.0396963],[72.8810205,19.0396948],[72.8810191,19.0396822],[72.88102,19.0396741],[72.8810245,19.0396595],[72.8810574,19.0395773],[72.8810833,19.0394937],[72.8810879,19.0394721],[72.8810886,19.0394686],[72.8810896,19.0394607],[72.8811125,19.0392794],[72.8811205,19.0392101],[72.881118,19.0392019],[72.8811149,19.0391921],[72.8811513,19.0390238],[72.8811553,19.0390057],[72.8811757,19.0389236],[72.8811839,19.03888],[72.8811853,19.0388652],[72.8811927,19.0387893],[72.8811933,19.0387828],[72.8812085,19.0387013],[72.8812158,19.0386619],[72.8812453,19.0385176],[72.8812593,19.038449],[72.8812997,19.0382547],[72.8812997,19.0382545],[72.8812998,19.0382544],[72.8813351,19.0380789],[72.8813589,19.0378427],[72.8813724,19.0376963],[72.8813816,19.037515],[72.8813594,19.0372057],[72.8813559,19.0371569],[72.881353,19.037113],[72.8813484,19.037069],[72.8813443,19.0370303],[72.8813405,19.0369958],[72.8813363,19.036959],[72.8813283,19.0368808],[72.8813269,19.0368678],[72.8813265,19.0368645],[72.8813124,19.0367667],[72.8813025,19.0367077],[72.8812912,19.0366401],[72.881281,19.0365863],[72.8812796,19.0365482],[72.8812796,19.0365477],[72.8812789,19.0365332],[72.8812782,19.0365202],[72.8812782,19.0365194],[72.8812782,19.0365063],[72.8812782,19.0365024],[72.8812783,19.0364933],[72.8812214,19.0362056],[72.8812213,19.0362056],[72.8812161,19.0361789],[72.8812153,19.036175],[72.8811953,19.0361022],[72.881187,19.0360722],[72.8811821,19.0360544],[72.8811773,19.0360366],[72.8811735,19.0360201],[72.8811596,19.0359503],[72.8811565,19.035929],[72.8811501,19.0358863],[72.8811351,19.0358109],[72.8811261,19.0357758],[72.8811184,19.0357459],[72.8810985,19.0356684],[72.8810717,19.0355739],[72.8810605,19.0355326],[72.8810453,19.0354767],[72.8810431,19.0354664],[72.8810416,19.0354594],[72.8810378,19.0354421],[72.8810373,19.0354413],[72.8810257,19.0354228],[72.8810135,19.0354035],[72.8810135,19.0354033],[72.8810135,19.0354032],[72.881006,19.0353637],[72.8809986,19.0353209],[72.8809938,19.0352929],[72.8809852,19.0352365],[72.8809804,19.0352046],[72.8809798,19.0352022],[72.8809791,19.0351994],[72.8809788,19.0351984],[72.8809756,19.0351953],[72.8809555,19.0351952],[72.8809437,19.0351527],[72.8809322,19.0351107],[72.8808988,19.034973],[72.8808917,19.0349473],[72.8808719,19.0348752],[72.8808523,19.0347941],[72.8808495,19.0347849],[72.8808439,19.0347669],[72.8808429,19.0347634],[72.8808401,19.0347488],[72.8808385,19.034741],[72.880783,19.0345992],[72.880755,19.0345331],[72.8806021,19.0341826],[72.8800896,19.0331588],[72.880073,19.0331312],[72.8800723,19.0331301],[72.8800569,19.0331073],[72.8800404,19.0330827],[72.8799753,19.0329834],[72.8799708,19.0329616],[72.8799279,19.0328904],[72.8799276,19.03289],[72.8799083,19.0328715],[72.8799049,19.0328644],[72.8799002,19.0328549],[72.8798314,19.0327349],[72.8798287,19.0327302],[72.8797804,19.0326457],[72.8797774,19.0326407],[72.8797726,19.0326328],[72.8796286,19.0323445],[72.879533,19.0321564],[72.8795317,19.0321539],[72.8795079,19.0321115],[72.8794444,19.0319951],[72.8794096,19.031933],[72.8793602,19.0318447],[72.8792952,19.0317215],[72.8792676,19.0316667],[72.8791965,19.0315258],[72.8791088,19.0313409],[72.8790969,19.0313166],[72.8790912,19.031305],[72.879081,19.0312811],[72.8790708,19.0312571],[72.8790484,19.0312045],[72.8790261,19.0311518],[72.878978,19.0310366],[72.878964,19.0310031],[72.87894,19.0309463],[72.8789219,19.0309035],[72.8788785,19.030802],[72.8788762,19.0307991],[72.878819,19.0307293],[72.8788189,19.0307292],[72.8787844,19.0306872],[72.8787837,19.0306475],[72.8787835,19.0306385],[72.8787785,19.0305771],[72.8787716,19.0304963],[72.8787699,19.0304797],[72.8787688,19.0304692],[72.8787476,19.0303953],[72.8787397,19.0303713],[72.8787397,19.0303712],[72.8787198,19.030311],[72.8787053,19.0302723],[72.8786889,19.0302423],[72.8786888,19.030242],[72.8786619,19.030193],[72.8786124,19.0300472],[72.8785741,19.0299358],[72.8785444,19.0298496],[72.8785354,19.0298228],[72.8784658,19.0296165],[72.8784291,19.0295035],[72.878412,19.029451],[72.8783863,19.0293717],[72.8783747,19.0293383],[72.8783546,19.0292806],[72.8782793,19.0290492],[72.8782571,19.0289881],[72.8782228,19.0288932],[72.8781899,19.0288005],[72.8781473,19.0287075],[72.8781304,19.0286644],[72.8781107,19.0285863],[72.8780776,19.0284658],[72.8780407,19.0283248],[72.8779958,19.028156],[72.877978,19.0280889],[72.8778847,19.0277327],[72.8778682,19.0276595],[72.8778334,19.027505],[72.8778182,19.0274393],[72.8778167,19.0274335],[72.8777787,19.0272765],[72.8777237,19.0270414],[72.8776787,19.0268345],[72.8776647,19.0267744],[72.8776417,19.0266901],[72.8775991,19.0265341],[72.8775132,19.0261373],[72.8774708,19.0259849],[72.8774202,19.0257777],[72.877393,19.0256549],[72.8773778,19.0255767],[72.8773689,19.0255165],[72.8773687,19.0255025],[72.8773685,19.0254875],[72.8773685,19.0254867],[72.8773683,19.0254711],[72.8773649,19.0254357],[72.8773638,19.0254235],[72.8773627,19.0254102],[72.8773615,19.0253977],[72.8773437,19.0252594],[72.8773332,19.0251893],[72.8773285,19.0251579],[72.8773154,19.0250757],[72.8773137,19.0250032],[72.8773137,19.0250015],[72.8773136,19.0249997],[72.8772987,19.0248949],[72.8772947,19.0247859],[72.8772912,19.0247518],[72.8772824,19.0246889],[72.8772822,19.0246876],[72.8772802,19.0246449],[72.8772828,19.0246125],[72.8772853,19.0245802],[72.8772867,19.0245727],[72.8772856,19.0245417],[72.8773,19.0241395],[72.8773,19.0241379],[72.8772985,19.0241186],[72.8772974,19.0239284],[72.8772976,19.0238713],[72.8772976,19.0238692],[72.8772991,19.023862],[72.8773043,19.0238383],[72.8773242,19.0237469],[72.8773306,19.0237173],[72.8773515,19.0236459],[72.87741,19.023428],[72.8774139,19.0234052],[72.8774223,19.0232925],[72.8774259,19.0232438],[72.8774511,19.0231318],[72.8775569,19.0228648],[72.8775652,19.0228439],[72.877593,19.0227737],[72.8776269,19.0226795],[72.8776813,19.0225601],[72.8777253,19.022466],[72.8777808,19.0223408],[72.8778247,19.0222387],[72.8778657,19.0221529],[72.8778683,19.0221484],[72.8779136,19.0220676],[72.878004,19.0219112],[72.878004,19.0219111],[72.8780772,19.0217672],[72.8781196,19.0216971],[72.8782277,19.0215298],[72.8782527,19.0214747],[72.878297,19.0214119],[72.878365,19.0213156],[72.8784339,19.021235],[72.8785943,19.0210403],[72.8788012,19.0207693],[72.8789875,19.0205235],[72.8792525,19.0201914],[72.879424,19.0199596],[72.8795474,19.019793],[72.8796194,19.0197064],[72.879646,19.0196742],[72.8796759,19.019638],[72.8796967,19.0196128],[72.8797074,19.0195997],[72.8797217,19.0195846],[72.8797335,19.0195703],[72.879764,19.0195283],[72.87978,19.0195051],[72.879791,19.0194896],[72.8798074,19.0194703],[72.8798319,19.0194397],[72.879843,19.0194281],[72.8798503,19.0194185],[72.8798561,19.0194057],[72.8798635,19.0193952],[72.8798745,19.0193837],[72.8798888,19.0193674],[72.8799097,19.0193442],[72.8799248,19.019328],[72.8799354,19.0193149],[72.8799465,19.0193002],[72.8799661,19.0192805],[72.8800548,19.0191869],[72.8805119,19.0187762],[72.8805303,19.0187563],[72.8806404,19.0186372],[72.8807077,19.0185711],[72.8807711,19.0185088],[72.8808629,19.018417],[72.8809359,19.0183427],[72.8810089,19.0182685],[72.8812004,19.018092],[72.8812874,19.0180171],[72.8813777,19.0179395],[72.8814802,19.0178483],[72.8816529,19.0177159],[72.8817632,19.0176294],[72.8818078,19.0175882],[72.8819479,19.0174704],[72.8820391,19.0173971],[72.8820438,19.0173944],[72.8820886,19.0173683],[72.8821212,19.0173493],[72.8822458,19.0172614],[72.8825022,19.017082],[72.8825287,19.0170597],[72.8825486,19.0170431],[72.8825512,19.0170407],[72.8828063,19.0168102],[72.8833055,19.0164254],[72.8835751,19.0161705],[72.8837499,19.0159641],[72.8838643,19.0157966],[72.8839504,19.015618],[72.884048,19.0153609],[72.8842963,19.0145194],[72.8843253,19.014219],[72.8843581,19.0138364],[72.8843627,19.0137715],[72.8843728,19.0136564],[72.8843872,19.0134689],[72.8843886,19.0134533],[72.884546,19.0116949],[72.8848346,19.0102534],[72.884369,19.0094658],[72.8839541,19.0085518],[72.88374,19.008657],[72.8830647,19.0084963],[72.8826141,19.0078319],[72.8820026,19.007421],[72.8811765,19.0074616],[72.8803879,19.0072232],[72.879551,19.0068073],[72.8793901,19.0067871],[72.8792775,19.0070204],[72.878902,19.0069037],[72.8787035,19.0060567],[72.8784782,19.0059045],[72.8779846,19.0059248],[72.8766864,19.006006],[72.875289,19.0059071],[72.8732747,19.0060947],[72.8730628,19.006574],[72.8718799,19.0065461],[72.8714347,19.0058893],[72.8713113,19.0053415],[72.8713133,19.0044989],[72.871191,19.0043534],[72.871029,19.0043665],[72.8709009,19.0044641],[72.8707051,19.004672],[72.8702223,19.0052781],[72.8697947,19.0076641],[72.8695884,19.0082191],[72.8694192,19.0086742],[72.8693939,19.0086721],[72.8693698,19.0086701],[72.8693691,19.0086701],[72.8692503,19.0086104],[72.869021,19.0085285],[72.8689646,19.0087595],[72.8689587,19.0088066],[72.8689598,19.008857],[72.8689967,19.009082],[72.8689986,19.0091392],[72.8689878,19.0095074],[72.8689681,19.0095963],[72.8689416,19.0096641],[72.8688881,19.0097669],[72.8688321,19.0098571],[72.8687439,19.0099847],[72.8686272,19.0101204],[72.8685277,19.0102277],[72.8684615,19.0102892],[72.8683812,19.0103438],[72.8683289,19.0103575],[72.8682527,19.0103684],[72.8680751,19.0103655],[72.8680103,19.0103857],[72.8679747,19.0104013],[72.8679497,19.0104237],[72.8679281,19.0104546],[72.8679153,19.0104872],[72.8679031,19.0105401],[72.8678872,19.0106072],[72.8678838,19.0106643],[72.8678535,19.0108254],[72.8678378,19.0108757],[72.8678214,19.0109142],[72.8677909,19.0109517],[72.8677568,19.0109916],[72.8676996,19.0110347],[72.8675803,19.0110998],[72.8674295,19.0112124],[72.8673964,19.0112456],[72.8673531,19.0113116],[72.8672234,19.0114984],[72.8671661,19.0115533],[72.8670832,19.0116095],[72.866869,19.0116961],[72.8667444,19.0117611],[72.866714,19.0117894],[72.8666845,19.0118176],[72.8665928,19.0119309],[72.8664661,19.0121599],[72.8663442,19.0123653],[72.8662646,19.0125032],[72.8661928,19.0125889],[72.8661384,19.012627],[72.8661117,19.0126401],[72.8660549,19.0126563],[72.8660186,19.0126584],[72.8657951,19.0126474],[72.8657092,19.0126607],[72.8656551,19.0126702],[72.8655893,19.0127014],[72.865493,19.0127659],[72.8654269,19.0128197],[72.8653097,19.0129277],[72.8651904,19.0130617],[72.8651201,19.0131643],[72.8650631,19.0132663],[72.8650246,19.0133037],[72.8649086,19.0133856],[72.8648171,19.0134913],[72.864554,19.0138835],[72.8644901,19.0139719],[72.8644013,19.0140709],[72.8643716,19.0141093],[72.8643587,19.0141495],[72.8643067,19.0142767],[72.864275,19.0143343],[72.8642543,19.0143661],[72.8642336,19.014391],[72.8642113,19.0144093],[72.864124,19.0144596],[72.8640314,19.0145106],[72.8640063,19.0145373],[72.8639856,19.0145656],[72.863981,19.0145815],[72.8639808,19.0146],[72.8639846,19.0146455],[72.8640021,19.0147247],[72.8640033,19.0147727],[72.8639959,19.0147978],[72.8639789,19.0148178],[72.8639595,19.0148322],[72.8639406,19.0148389],[72.8639015,19.0148395],[72.8638485,19.0148292],[72.8638274,19.0148327],[72.8637602,19.0148775],[72.8637666,19.014913],[72.8637717,19.0149668],[72.863783,19.0150429],[72.863791,19.0151558],[72.8635976,19.0150935],[72.8635974,19.0150937],[72.8632741,19.0149913],[72.8631682,19.0149511],[72.8631006,19.0149255],[72.8630993,19.014925],[72.8631917,19.0152931],[72.863155,19.0152675],[72.8630851,19.0152187],[72.8626912,19.0149437],[72.8606647,19.0135288],[72.8604185,19.0133569],[72.8565051,19.0107277],[72.8563045,19.0105306],[72.8562542,19.0105868],[72.8562762,19.0106704],[72.8559926,19.0107318],[72.8558999,19.0107519],[72.8558909,19.0107537],[72.8558404,19.0107639],[72.8558223,19.0107676],[72.8558151,19.0107688],[72.8557255,19.0107847],[72.8557113,19.0107879],[72.8554883,19.0108378],[72.8552141,19.0108949],[72.8549525,19.0109495],[72.8548118,19.0109811],[72.8548168,19.0110145],[72.8548318,19.0111162],[72.8548397,19.0111792],[72.8546812,19.0112255],[72.8545223,19.011263],[72.8543762,19.0113038],[72.8541613,19.0113567],[72.8541022,19.0113718],[72.8540553,19.0113837],[72.8539876,19.0114008],[72.8536056,19.0114969],[72.8533106,19.0115719],[72.8532984,19.0115748],[72.8532021,19.011598],[72.8522672,19.0118356],[72.8519359,19.0119199],[72.850331,19.0123284],[72.850081,19.0123928],[72.8500496,19.0124029],[72.8500089,19.0124149],[72.8499803,19.0124215],[72.8499084,19.0124333],[72.8498837,19.0124405],[72.8495078,19.0125438],[72.8492903,19.012609],[72.8492013,19.0126364],[72.8492169,19.0126751],[72.8491458,19.0127403],[72.8491026,19.0127463],[72.8489444,19.0127751],[72.8487449,19.012816],[72.8486582,19.0128337],[72.8485971,19.0128471],[72.8484943,19.0128779],[72.8480238,19.0130155],[72.8477629,19.0130927],[72.8475627,19.0131505],[72.8474826,19.0131768],[72.8474512,19.0131926],[72.8474042,19.0132323],[72.8473503,19.0132799],[72.8472521,19.0133742],[72.8470199,19.0135746],[72.8469051,19.0136745],[72.8468807,19.0136981],[72.8468516,19.0137259],[72.8468078,19.0137808],[72.8466837,19.0139378],[72.8465956,19.0139948],[72.8464493,19.0140824],[72.8463104,19.0141734],[72.8453199,19.0148348],[72.8452788,19.0148667],[72.8451628,19.0149569],[72.844905,19.0151739],[72.8447161,19.0153206],[72.8444812,19.0155049],[72.8444501,19.0155293],[72.8443008,19.0156614],[72.8440959,19.0158435],[72.8439952,19.0159289],[72.8435448,19.016315],[72.8434918,19.0163642],[72.8432052,19.0166254],[72.8430026,19.01681],[72.8430025,19.01681],[72.8428405,19.0169661]]]]}}]}