{"type":"FeatureCollection","features":[{"type":"Feature","properties":{"ward": "FS"},"geometry":{"type":"MultiPolygon","coordinates":[[[[72.8331705,18.9881285],[72.8330203,18.9894902],[72.8330203,18.9894982],[72.833023,18.9894984],[72.8330255,18.9894986],[72.8330268,18.9894987],[72.833027,18.9896364],[72.8330306,18.9899246],[72.8330411,18.991135],[72.8330268,18.9925926],[72.8330774,18.9948617],[72.8330684,18.9950883],[72.8330219,18.9964019],[72.8331046,18.9983404],[72.8333414,18.9999038],[72.833558,19.0008469],[72.8335902,19.001],[72.8336056,19.0010676],[72.8336464,19.0012603],[72.8339786,19.0022201],[72.83409,19.0025776],[72.8341963,19.0029051],[72.8343455,19.0033087],[72.8345046,19.0037473],[72.8347008,19.0042345],[72.8347379,19.0043246],[72.8348715,19.0046491],[72.8350746,19.0051032],[72.8350971,19.0051504],[72.8353141,19.0056065],[72.835503,19.0059863],[72.8356129,19.0061859],[72.8357805,19.0064759],[72.8359522,19.0067581],[72.8363326,19.0073725],[72.8365745,19.007687],[72.8367759,19.0079963],[72.8368214,19.0080648],[72.8369311,19.0082301],[72.8371158,19.0085083],[72.8374017,19.0089396],[72.837516,19.009112],[72.8376003,19.0092456],[72.837762,19.0094902],[72.8378493,19.0096122],[72.8379141,19.0097029],[72.8381996,19.0101344],[72.8384601,19.0105256],[72.8387429,19.0109537],[72.8390764,19.0114378],[72.8392054,19.0116291],[72.8393052,19.0117772],[72.8394066,19.011922],[72.840154,19.0130088],[72.8402819,19.0131955],[72.8404641,19.0134577],[72.840662,19.0137446],[72.8408844,19.0140756],[72.8411262,19.0144405],[72.8413734,19.0148202],[72.8415299,19.0150705],[72.8417149,19.0153473],[72.8421524,19.0160158],[72.8422562,19.0161609],[72.8424221,19.0163892],[72.8428405,19.0169661],[72.8430025,19.01681],[72.8430026,19.01681],[72.8432052,19.0166254],[72.8434918,19.0163642],[72.8435448,19.016315],[72.8439952,19.0159289],[72.8440959,19.0158435],[72.8443008,19.0156614],[72.8444501,19.0155293],[72.8444812,19.0155049],[72.8447161,19.0153206],[72.844905,19.0151739],[72.8451628,19.0149569],[72.8452788,19.0148667],[72.8453199,19.0148348],[72.8463104,19.0141734],[72.8464493,19.0140824],[72.8465956,19.0139948],[72.8466837,19.0139378],[72.8468078,19.0137808],[72.8468516,19.0137259],[72.8468807,19.0136981],[72.8469051,19.0136745],[72.8470199,19.0135746],[72.8472521,19.0133742],[72.8473503,19.0132799],[72.8474042,19.0132323],[72.8474512,19.0131926],[72.8474826,19.0131768],[72.8475627,19.0131505],[72.8477629,19.0130927],[72.8480238,19.0130155],[72.8484943,19.0128779],[72.8485971,19.0128471],[72.8486582,19.0128337],[72.8487449,19.012816],[72.8489444,19.0127751],[72.8491026,19.0127463],[72.8491458,19.0127403],[72.8492169,19.0126751],[72.8492013,19.0126364],[72.8492903,19.012609],[72.8495078,19.0125438],[72.8498837,19.0124405],[72.8499084,19.0124333],[72.8499803,19.0124215],[72.8500089,19.0124149],[72.8500496,19.0124029],[72.850081,19.0123928],[72.850331,19.0123284],[72.8519359,19.0119199],[72.8522672,19.0118356],[72.8532021,19.011598],[72.8532984,19.0115748],[72.8533106,19.0115719],[72.8536056,19.0114969],[72.8539876,19.0114008],[72.8540553,19.0113837],[72.8541022,19.0113718],[72.8541613,19.0113567],[72.8543762,19.0113038],[72.8545223,19.011263],[72.8546812,19.0112255],[72.8548397,19.0111792],[72.8548318,19.0111162],[72.8548168,19.0110145],[72.8548118,19.0109811],[72.8549525,19.0109495],[72.8552141,19.0108949],[72.8554883,19.0108378],[72.8557113,19.0107879],[72.8557255,19.0107847],[72.8558151,19.0107688],[72.8558223,19.0107676],[72.8558404,19.0107639],[72.8558909,19.0107537],[72.8558999,19.0107519],[72.8559926,19.0107318],[72.8562762,19.0106704],[72.8562542,19.0105868],[72.8563045,19.0105306],[72.8565051,19.0107277],[72.8604185,19.0133569],[72.8606647,19.0135288],[72.8626912,19.0149437],[72.8630851,19.0152187],[72.863155,19.0152675],[72.8631917,19.0152931],[72.8630993,19.014925],[72.8631006,19.0149255],[72.8631682,19.0149511],[72.8632741,19.0149913],[72.8635974,19.0150937],[72.8635976,19.0150935],[72.863791,19.0151558],[72.863783,19.0150429],[72.8637717,19.0149668],[72.8637666,19.014913],[72.8637602,19.0148775],[72.8638274,19.0148327],[72.8638485,19.0148292],[72.8639015,19.0148395],[72.8639406,19.0148389],[72.8639595,19.0148322],[72.8639789,19.0148178],[72.8639959,19.0147978],[72.8640033,19.0147727],[72.8640021,19.0147247],[72.8639846,19.0146455],[72.8639808,19.0146],[72.863981,19.0145815],[72.8639856,19.0145656],[72.8640063,19.0145373],[72.8640314,19.0145106],[72.864124,19.0144596],[72.8642113,19.0144093],[72.8642336,19.014391],[72.8642543,19.0143661],[72.864275,19.0143343],[72.8643067,19.0142767],[72.8643587,19.0141495],[72.8643716,19.0141093],[72.8644013,19.0140709],[72.8644901,19.0139719],[72.864554,19.0138835],[72.8648171,19.0134913],[72.8649086,19.0133856],[72.8650246,19.0133037],[72.8650631,19.0132663],[72.8651201,19.0131643],[72.8651904,19.0130617],[72.8653097,19.0129277],[72.8654269,19.0128197],[72.865493,19.0127659],[72.8655893,19.0127014],[72.8656551,19.0126702],[72.8657092,19.0126607],[72.8657951,19.0126474],[72.8660186,19.0126584],[72.8660549,19.0126563],[72.8661117,19.0126401],[72.8661384,19.012627],[72.8661928,19.0125889],[72.8662646,19.0125032],[72.8663442,19.0123653],[72.8664661,19.0121599],[72.8665928,19.0119309],[72.8666845,19.0118176],[72.866714,19.0117894],[72.8667444,19.0117611],[72.866869,19.0116961],[72.8670832,19.0116095],[72.8671661,19.0115533],[72.8672234,19.0114984],[72.8673531,19.0113116],[72.8673964,19.0112456],[72.8674295,19.0112124],[72.8675803,19.0110998],[72.8676996,19.0110347],[72.8677568,19.0109916],[72.8677909,19.0109517],[72.8678214,19.0109142],[72.8678378,19.0108757],[72.8678535,19.0108254],[72.8678838,19.0106643],[72.8678872,19.0106072],[72.8679031,19.0105401],[72.8679153,19.0104872],[72.8679281,19.0104546],[72.8679497,19.0104237],[72.8679747,19.0104013],[72.8680103,19.0103857],[72.8680751,19.0103655],[72.8682527,19.0103684],[72.8683289,19.0103575],[72.8683812,19.0103438],[72.8684615,19.0102892],[72.8685277,19.0102277],[72.8686272,19.0101204],[72.8687439,19.0099847],[72.8688321,19.0098571],[72.8688881,19.0097669],[72.8689416,19.0096641],[72.8689681,19.0095963],[72.8689878,19.0095074],[72.8689986,19.0091392],[72.8689967,19.009082],[72.8689598,19.008857],[72.8689587,19.0088066],[72.8689646,19.0087595],[72.869021,19.0085285],[72.8692503,19.0086104],[72.8693691,19.0086701],[72.8693698,19.0086701],[72.8693939,19.0086721],[72.8694192,19.0086742],[72.8695884,19.0082191],[72.8697947,19.0076641],[72.8702223,19.0052781],[72.8688678,19.0047481],[72.8680792,19.0039366],[72.867642,19.0038199],[72.8670153,19.0041125],[72.8667837,19.0042206],[72.8661388,19.0045067],[72.8659603,19.0045858],[72.8658369,19.0045579],[72.8657779,19.0044945],[72.8657055,19.0038605],[72.8653407,19.0032722],[72.8649116,19.0029019],[72.8643966,19.0029881],[72.8640479,19.002065],[72.8632861,19.0019078],[72.8624305,19.0019281],[72.8618699,19.0019864],[72.8610948,19.0021132],[72.8609633,19.001786],[72.8608561,19.0011723],[72.8607166,19.0004597],[72.8603706,18.9993413],[72.8602338,18.9987275],[72.8600755,18.9982939],[72.8601855,18.9980047],[72.8605396,18.997197],[72.8607005,18.9967024],[72.8608242,18.99639],[72.8610133,18.9959317],[72.8620742,18.9954745],[72.8620213,18.9953622],[72.8619994,18.9953168],[72.861013,18.9957248],[72.8603598,18.994936],[72.8602445,18.9947509],[72.8601614,18.9946469],[72.8600433,18.9946089],[72.859877,18.9946165],[72.8596491,18.9946317],[72.859405,18.9946596],[72.8590509,18.99469],[72.8587317,18.994827],[72.8583589,18.9947027],[72.8579861,18.9945049],[72.8581604,18.9942538],[72.8581524,18.9940763],[72.8581456,18.9939416],[72.8579807,18.9936451],[72.8577983,18.9934118],[72.8575784,18.993394],[72.8573263,18.9934371],[72.8570741,18.993635],[72.8568086,18.9935614],[72.8566423,18.993465],[72.8566182,18.9933306],[72.8567362,18.9929477],[72.8566396,18.9928361],[72.8564545,18.9927828],[72.8568128,18.9918959],[72.856938,18.9915859],[72.8570331,18.9915975],[72.8581497,18.9889049],[72.8589115,18.9870712],[72.8595391,18.9855976],[72.8596678,18.9852324],[72.860197,18.9839269],[72.8612014,18.981601],[72.8608277,18.9812654],[72.8595471,18.9800836],[72.8594699,18.9800183],[72.857692,18.9783549],[72.856409,18.9785795],[72.8502774,18.9799695],[72.8500253,18.9800156],[72.8499181,18.980053],[72.8498007,18.9800882],[72.8497589,18.9800999],[72.849677,18.9801314],[72.8495326,18.9801856],[72.8493631,18.9802598],[72.8490853,18.9803715],[72.8490245,18.9803946],[72.8489944,18.9804074],[72.8489156,18.9804409],[72.8488724,18.9804592],[72.848841,18.9804725],[72.8486085,18.9805715],[72.848408,18.9806551],[72.8482251,18.9807305],[72.8482059,18.9807388],[72.8481943,18.9807436],[72.8480727,18.9807944],[72.8479174,18.9808544],[72.8479025,18.9808602],[72.8467143,18.9813704],[72.8466446,18.9814004],[72.8466427,18.9814012],[72.8465784,18.9814288],[72.8467722,18.9818342],[72.8467528,18.9818427],[72.8467238,18.9818554],[72.8466522,18.9818868],[72.8463486,18.9820137],[72.8462462,18.9820565],[72.8460918,18.9821209],[72.846064,18.9821325],[72.8453655,18.9824408],[72.8447779,18.9826874],[72.8444352,18.9828316],[72.8441328,18.9829496],[72.8440775,18.9829516],[72.8438611,18.9829853],[72.8435766,18.9830297],[72.8433181,18.98307],[72.843135,18.9830982],[72.8430912,18.983105],[72.8428687,18.9831394],[72.842857,18.9831412],[72.8428404,18.9831437],[72.8427721,18.9831543],[72.8427207,18.9831622],[72.8426068,18.9831798],[72.8425954,18.9832252],[72.8425907,18.9832437],[72.8426063,18.9832549],[72.8425961,18.9832952],[72.8425908,18.9833162],[72.84259,18.9833195],[72.8425513,18.9834721],[72.8424652,18.9838064],[72.8423859,18.9841251],[72.8423041,18.9844731],[72.8422365,18.9847377],[72.8422226,18.9847918],[72.8421341,18.9851492],[72.8420928,18.9852806],[72.8420412,18.9854868],[72.8420153,18.9855905],[72.8418526,18.9862171],[72.8417084,18.9867725],[72.8415573,18.9873474],[72.8415477,18.987384],[72.8415392,18.9874029],[72.8415189,18.987482],[72.8415206,18.9876638],[72.841505,18.9877255],[72.8414861,18.9877992],[72.8414562,18.9879444],[72.8414347,18.9880489],[72.8414282,18.9880805],[72.8414275,18.988082],[72.8414261,18.9880851],[72.8414241,18.9880891],[72.8414211,18.9880942],[72.8414191,18.9880973],[72.841416,18.9881016],[72.8414131,18.988105],[72.8414097,18.9881088],[72.8414073,18.9881112],[72.8414052,18.9881132],[72.8414015,18.9881164],[72.8413965,18.9881203],[72.841392,18.9881233],[72.8413876,18.9881259],[72.8413842,18.9881278],[72.8413788,18.9881304],[72.8413761,18.9881315],[72.8413723,18.988133],[72.841369,18.9881341],[72.8413658,18.9881351],[72.8413634,18.9881357],[72.8413584,18.9881369],[72.8413526,18.9881379],[72.8413498,18.9881382],[72.8412417,18.9881397],[72.8407537,18.9881488],[72.8402951,18.9881841],[72.8402055,18.9881954],[72.8401474,18.9882028],[72.8399038,18.9882182],[72.8394428,18.9882466],[72.839067,18.9882686],[72.8386293,18.988296],[72.8381368,18.988328],[72.8380791,18.9883313],[72.8379454,18.9883391],[72.8379092,18.9883412],[72.8376902,18.9883539],[72.8376005,18.9883591],[72.8370554,18.9883896],[72.8367712,18.9884112],[72.8364987,18.9884344],[72.8362038,18.9884598],[72.8358027,18.9884875],[72.8356909,18.9884981],[72.8352935,18.9884984],[72.835226,18.9884867],[72.8348893,18.9884299],[72.8348208,18.9884184],[72.834448,18.9883458],[72.8342892,18.9883056],[72.8340941,18.9882887],[72.8339253,18.9882646],[72.833973,18.9882691],[72.8334607,18.9881806],[72.8334133,18.9881721],[72.8331705,18.9881285]]]]}}]}