{"type":"FeatureCollection","features":[{"type":"Feature","properties":{"ward": "GN"},"geometry":{"type":"MultiPolygon","coordinates":[[[[72.8269446,19.0193308],[72.8269987,19.0192404],[72.8270122,19.0192179],[72.8270609,19.0191365],[72.827081,19.0191028],[72.8271011,19.0190692],[72.8271468,19.0189798],[72.8272075,19.0188608],[72.8272989,19.0186821],[72.8273365,19.0186078],[72.8273628,19.0185563],[72.8273918,19.0184995],[72.8275257,19.0182756],[72.8279814,19.0174616],[72.8280568,19.017341],[72.8285549,19.0165445],[72.8286554,19.0163839],[72.8286554,19.0163838],[72.8286619,19.0163723],[72.8286748,19.0163594],[72.8286771,19.016357],[72.8286856,19.0163485],[72.8287182,19.0163156],[72.8287258,19.016308],[72.828763,19.0162539],[72.8287786,19.0162312],[72.8289825,19.0163192],[72.8292823,19.016323],[72.8293246,19.0162523],[72.8297271,19.0155811],[72.829829,19.015417],[72.8302036,19.0148137],[72.8303119,19.0146276],[72.8303154,19.0146216],[72.8304785,19.0143406],[72.8305866,19.0141544],[72.8306497,19.0140458],[72.8307544,19.0138671],[72.8307812,19.0138151],[72.830912,19.0135963],[72.8311439,19.0131905],[72.8313018,19.012727],[72.8314641,19.0122505],[72.831476,19.012222],[72.8314764,19.0122211],[72.8315536,19.0120365],[72.8318416,19.0113478],[72.8318621,19.0112987],[72.831874,19.0112701],[72.8318757,19.0112663],[72.8318878,19.0112373],[72.8318879,19.0112371],[72.8319015,19.0112045],[72.8319445,19.0111016],[72.8319646,19.0110725],[72.8320372,19.0109673],[72.8320393,19.0109643],[72.8320506,19.0109478],[72.8322142,19.0107107],[72.8324446,19.0103768],[72.8328344,19.0098118],[72.8331021,19.0093972],[72.8343269,19.0086058],[72.8363326,19.0073725],[72.8365745,19.007687],[72.8367759,19.0079963],[72.8368214,19.0080648],[72.8369311,19.0082301],[72.8371158,19.0085083],[72.8374017,19.0089396],[72.837516,19.009112],[72.8376003,19.0092456],[72.837762,19.0094902],[72.8378493,19.0096122],[72.8379141,19.0097029],[72.8381996,19.0101344],[72.8384601,19.0105256],[72.8387429,19.0109537],[72.8390764,19.0114378],[72.8392054,19.0116291],[72.8393052,19.0117772],[72.8394066,19.011922],[72.840154,19.0130088],[72.8402819,19.0131955],[72.8404641,19.0134577],[72.840662,19.0137446],[72.8408844,19.0140756],[72.8411262,19.0144405],[72.8413734,19.0148202],[72.8415299,19.0150705],[72.8417149,19.0153473],[72.8421524,19.0160158],[72.8422562,19.0161609],[72.8424221,19.0163892],[72.8428405,19.0169661],[72.8428644,19.0170023],[72.842874,19.0170163],[72.8428742,19.0170165],[72.8429054,19.0170618],[72.842924,19.0170888],[72.8429374,19.0171088],[72.842971,19.017159],[72.8429743,19.0171639],[72.8430083,19.0172147],[72.8430773,19.0173158],[72.8431672,19.0174476],[72.8431723,19.017455],[72.8433084,19.0176534],[72.8434531,19.0178621],[72.8435225,19.0179607],[72.8435941,19.0180626],[72.8436447,19.0181371],[72.8436449,19.0181373],[72.8436557,19.0181532],[72.8437551,19.0182992],[72.84378,19.0183353],[72.8437801,19.0183353],[72.8437801,19.0183354],[72.843922,19.0185405],[72.8440015,19.0186533],[72.8440992,19.0187912],[72.8442721,19.0190351],[72.8443766,19.0191825],[72.8443792,19.0191862],[72.8444208,19.0192464],[72.8444551,19.019296],[72.8445813,19.0194618],[72.8446095,19.0195084],[72.844636,19.0195432],[72.8446527,19.0195651],[72.8446607,19.0195765],[72.8446925,19.0196212],[72.8447561,19.0197106],[72.8448125,19.0197904],[72.8449952,19.0200524],[72.8452433,19.0204082],[72.8452751,19.020453],[72.8453068,19.0204977],[72.845387,19.0206107],[72.8454028,19.0206358],[72.8454029,19.0206358],[72.8454135,19.0206527],[72.8455055,19.0207839],[72.8455057,19.0207842],[72.845596,19.0209128],[72.8457671,19.021158],[72.8458173,19.0212311],[72.8458175,19.0212313],[72.8459335,19.0213997],[72.8460071,19.0215084],[72.8460072,19.0215085],[72.8462226,19.021826],[72.8463932,19.0220894],[72.8464048,19.0221072],[72.8465238,19.0222789],[72.8466115,19.0224056],[72.8466133,19.0224082],[72.8466195,19.022417],[72.8466717,19.0224924],[72.8469598,19.0228957],[72.8471001,19.0230994],[72.8472445,19.0233082],[72.8475535,19.0237561],[72.84775,19.024042],[72.8480164,19.0244197],[72.848066,19.0244967],[72.8480663,19.0244971],[72.8480808,19.0245195],[72.8482045,19.0246987],[72.8482334,19.0247355],[72.8482335,19.0247356],[72.848355,19.0248901],[72.8486345,19.0252376],[72.8487729,19.0254093],[72.8489522,19.0256621],[72.8489524,19.0256624],[72.8491171,19.0258942],[72.8495132,19.02647],[72.8495711,19.0265559],[72.8495712,19.026556],[72.8496469,19.0266681],[72.8498834,19.0270104],[72.8498848,19.0270124],[72.8498869,19.0270155],[72.8498887,19.0270181],[72.8498888,19.0270182],[72.849889,19.0270185],[72.8498902,19.0270203],[72.8498903,19.0270205],[72.8499033,19.0270392],[72.850192,19.0274548],[72.8502571,19.0275535],[72.8503978,19.027767],[72.8504679,19.0278679],[72.8504682,19.0278683],[72.8506784,19.0281707],[72.8509723,19.0286023],[72.8510363,19.0286947],[72.851093,19.0287765],[72.851932,19.0299679],[72.8519642,19.0300383],[72.8520872,19.0302295],[72.8523361,19.0305938],[72.8526296,19.0310125],[72.8526299,19.0310131],[72.8526329,19.0310173],[72.8526331,19.0310175],[72.8526332,19.0310177],[72.8526335,19.0310182],[72.8526336,19.0310183],[72.852831,19.0313021],[72.8529126,19.0314229],[72.8531024,19.0317037],[72.8531026,19.031704],[72.8531248,19.0317368],[72.8531492,19.0317719],[72.8532447,19.031909],[72.8533242,19.0320232],[72.8534301,19.0321834],[72.8535052,19.0322906],[72.8536991,19.0325668],[72.8539052,19.0328697],[72.8539053,19.0328699],[72.8539512,19.0329372],[72.8540693,19.0331117],[72.8541796,19.0332746],[72.8542775,19.0334204],[72.8543521,19.0335313],[72.8543791,19.0335717],[72.8543792,19.0335717],[72.8543891,19.0335865],[72.8543893,19.0335867],[72.8543893,19.0335868],[72.8544045,19.0336092],[72.8544045,19.0336093],[72.8544895,19.0337347],[72.8545232,19.0337846],[72.8545509,19.0338257],[72.8545703,19.0338545],[72.8545706,19.0338548],[72.8546255,19.0339359],[72.8560874,19.0361505],[72.8561223,19.03621],[72.8563538,19.0365567],[72.8563698,19.0365807],[72.8564982,19.0367731],[72.8565181,19.0368028],[72.858716,19.0398844],[72.8588737,19.0401055],[72.859216,19.0405851],[72.8595027,19.0410065],[72.8595942,19.041137],[72.859732,19.0413325],[72.8598423,19.0414905],[72.8599845,19.0417019],[72.8601234,19.0419019],[72.8602974,19.0421478],[72.8604738,19.0424008],[72.8606337,19.0426285],[72.8608317,19.0429081],[72.8609215,19.0430368],[72.8611839,19.0434424],[72.8612677,19.0435472],[72.8613709,19.0437036],[72.8614254,19.0437822],[72.8615681,19.0439896],[72.8617263,19.0442215],[72.8618571,19.0444117],[72.8619856,19.0446007],[72.8620077,19.0446409],[72.8620998,19.0447771],[72.8621692,19.0448803],[72.8622576,19.0450154],[72.8623869,19.0452015],[72.8625102,19.0453788],[72.8626598,19.0455932],[72.862732,19.0457026],[72.8628781,19.0459097],[72.863105,19.0462349],[72.8631057,19.0462359],[72.863159,19.0463121],[72.8631726,19.0463317],[72.863196,19.0463642],[72.8632065,19.0463792],[72.8632106,19.0463851],[72.8632107,19.0463852],[72.8632124,19.0463876],[72.8634052,19.0466643],[72.8635509,19.046874],[72.8636252,19.0469851],[72.863775,19.0472062],[72.8645001,19.0482463],[72.8646009,19.0483939],[72.8647441,19.0486073],[72.8648658,19.0487888],[72.8649405,19.0488959],[72.865072,19.0490912],[72.8652328,19.0493243],[72.8653239,19.0494546],[72.8653973,19.0495628],[72.8655178,19.0497343],[72.865656,19.0499273],[72.8657417,19.0500489],[72.8658515,19.0502099],[72.86597,19.0503829],[72.8661039,19.0505748],[72.866203,19.0507184],[72.8663873,19.0509788],[72.8664953,19.051132],[72.866517,19.0511628],[72.8666464,19.0513275],[72.8666467,19.051328],[72.8667855,19.0515291],[72.8668033,19.0515545],[72.8668037,19.051555],[72.8670286,19.0518736],[72.8672753,19.0522283],[72.8673767,19.0523739],[72.8669887,19.0523733],[72.8666082,19.0523726],[72.8663674,19.0523717],[72.8662018,19.0523711],[72.865857,19.0523699],[72.8635585,19.0523331],[72.8632132,19.0523276],[72.8622196,19.0523117],[72.8611754,19.0522951],[72.8600583,19.0522774],[72.8592933,19.0522171],[72.8584083,19.0521474],[72.8582507,19.0521357],[72.8571916,19.0520571],[72.854183,19.0518339],[72.852427,19.0517036],[72.8498134,19.0515096],[72.8473037,19.0513233],[72.8462576,19.0512456],[72.8445127,19.05112],[72.8432184,19.0510269],[72.842901,19.051004],[72.8422442,19.0509602],[72.8421624,19.050951],[72.842162,19.0509509],[72.8421421,19.0509374],[72.8420978,19.0509073],[72.841888,19.0507648],[72.8418797,19.0507591],[72.8417805,19.0506903],[72.841765,19.0506795],[72.8416693,19.0506135],[72.8416576,19.0506055],[72.8414627,19.050471],[72.8411207,19.0502443],[72.8410852,19.0502201],[72.8408726,19.0500748],[72.8408176,19.0500368],[72.8407208,19.0499702],[72.8406577,19.0499268],[72.8406332,19.0499104],[72.8405716,19.0498688],[72.8404624,19.0497953],[72.8403938,19.0497453],[72.8403557,19.0497175],[72.8403044,19.0496802],[72.8403043,19.0496802],[72.8403027,19.049679],[72.8402941,19.0496729],[72.8401669,19.0495827],[72.8400838,19.0495238],[72.8400553,19.0495037],[72.8399097,19.0494007],[72.8398399,19.0493536],[72.8397372,19.0492801],[72.8396369,19.0492082],[72.8396078,19.049189],[72.8395836,19.049173],[72.8395575,19.0491556],[72.8394334,19.0490627],[72.8394041,19.04904],[72.8393687,19.0490126],[72.8392979,19.0489609],[72.8391713,19.0488673],[72.8390323,19.0487626],[72.8388769,19.0486444],[72.8388131,19.0485957],[72.8388119,19.0485948],[72.8387102,19.0485171],[72.838607,19.048437],[72.8385598,19.0484003],[72.8385249,19.0483747],[72.8384504,19.0483201],[72.8384236,19.0483116],[72.8381406,19.0482645],[72.838127,19.0482578],[72.8381404,19.048131],[72.8379929,19.0480549],[72.8376308,19.0481513],[72.8374431,19.0483034],[72.8370461,19.0482476],[72.8369227,19.0481792],[72.8368798,19.0480955],[72.8367439,19.0479493],[72.836633,19.0477558],[72.8364695,19.0475906],[72.8362782,19.0474446],[72.8362208,19.0472831],[72.8362251,19.0471217],[72.8362895,19.0467928],[72.8364735,19.0462565],[72.8367168,19.0457621],[72.836848,19.045583],[72.8368806,19.0454962],[72.8375046,19.044349],[72.8377065,19.0440004],[72.8379069,19.0432639],[72.8379594,19.0426408],[72.8378977,19.0426102],[72.8378172,19.0425709],[72.8377743,19.0425126],[72.8377555,19.0424479],[72.8377515,19.0423287],[72.8376563,19.0422362],[72.8376241,19.0421399],[72.8375825,19.0420258],[72.8375825,19.0418762],[72.8376254,19.041255],[72.8377166,19.0406515],[72.8378373,19.0396323],[72.8379339,19.0391531],[72.8380573,19.0386156],[72.8381002,19.0381313],[72.8380492,19.0376521],[72.838068,19.0371475],[72.8378668,19.0360319],[72.8378561,19.0353219],[72.8378856,19.0345968],[72.8378159,19.033902],[72.8377461,19.0338107],[72.8376469,19.0333797],[72.8375208,19.0330196],[72.8374538,19.0325658],[72.8373653,19.0324593],[72.8373277,19.032406],[72.8372714,19.0320029],[72.8370702,19.0314146],[72.8369442,19.0312676],[72.8366867,19.0313969],[72.8366384,19.0312904],[72.8368074,19.0311864],[72.836802,19.0310089],[72.8365499,19.0301899],[72.8364426,19.0299414],[72.8361824,19.0296169],[72.8361315,19.0295028],[72.8358176,19.028628],[72.8354073,19.0277253],[72.8351846,19.0272714],[72.8347555,19.0266476],[72.8345838,19.0264853],[72.8344577,19.0263839],[72.834321,19.0263915],[72.8342271,19.0262166],[72.8341922,19.0260391],[72.8341064,19.0258565],[72.8337631,19.025433],[72.8334787,19.0249969],[72.8334385,19.0248701],[72.8334492,19.024789],[72.833468,19.0246875],[72.8327089,19.024008],[72.832253,19.0234501],[72.8318561,19.0230064],[72.8313357,19.0225119],[72.8300482,19.0215255],[72.8291255,19.0207699],[72.8283798,19.0202095],[72.8269446,19.0193308]]]]}}]}