{"type":"FeatureCollection","features":[{"type":"Feature","properties":{"ward": "GS"},"geometry":{"type":"MultiPolygon","coordinates":[[[[72.8060888,18.9791435],[72.80617,18.9790987],[72.806554,18.9789037],[72.8070583,18.9786283],[72.8073866,18.9784662],[72.8077755,18.9783084],[72.8080075,18.9782606],[72.808323,18.9782066],[72.808528,18.9781982],[72.808711,18.9782507],[72.8087835,18.9783268],[72.8088456,18.9784448],[72.8088805,18.9785057],[72.8089512,18.9785708],[72.8089985,18.9786054],[72.8090422,18.9786059],[72.8091167,18.9786862],[72.8091868,18.9787584],[72.8091873,18.9787589],[72.8092424,18.9788231],[72.8092541,18.9788253],[72.8092563,18.9788257],[72.8092769,18.9788191],[72.809294,18.978808],[72.8092963,18.9787935],[72.8092996,18.9787567],[72.8092955,18.9787027],[72.809287,18.9786569],[72.8092804,18.9786391],[72.8092889,18.9786053],[72.8092988,18.9786036],[72.8093139,18.9786004],[72.8093201,18.9785888],[72.8093073,18.9785455],[72.8093028,18.9785256],[72.8093147,18.9785044],[72.8093397,18.9784786],[72.8093768,18.9784467],[72.8094213,18.9784184],[72.8094972,18.9783744],[72.8095512,18.9783513],[72.8095781,18.9783426],[72.8095917,18.9783307],[72.8095946,18.9783091],[72.8095924,18.9782803],[72.8096083,18.9782744],[72.8096923,18.9782727],[72.8097489,18.9782718],[72.8098018,18.9782709],[72.8099189,18.9782681],[72.8101727,18.9782661],[72.8101798,18.9782661],[72.810306,18.978266],[72.810371,18.9782645],[72.8104095,18.9782637],[72.8106042,18.9782599],[72.8107009,18.9782593],[72.810745,18.978259],[72.8108594,18.9782562],[72.8117429,18.978039],[72.8220865,18.9801133],[72.8231903,18.9803721],[72.8237362,18.9804892],[72.8239669,18.9805423],[72.8240779,18.9805643],[72.8244278,18.9806337],[72.8246989,18.9806841],[72.8248383,18.9807106],[72.8254743,18.9808315],[72.8257602,18.9808845],[72.8258481,18.9809045],[72.826118,18.9809576],[72.8261845,18.980971],[72.8261855,18.9809712],[72.8261917,18.9809724],[72.8263554,18.9810054],[72.8263519,18.9810738],[72.826361,18.9811434],[72.8263701,18.9812066],[72.8263957,18.9812796],[72.826435,18.9813242],[72.8264906,18.9813849],[72.8265598,18.9814267],[72.8266323,18.9814623],[72.8266885,18.9814788],[72.8267549,18.9814827],[72.8268278,18.9814867],[72.8268877,18.981478],[72.8269577,18.9814567],[72.8270578,18.9814143],[72.8319347,18.9867746],[72.8324127,18.9872983],[72.8331705,18.9881285],[72.8330203,18.9894902],[72.8330203,18.9894982],[72.833023,18.9894984],[72.8330255,18.9894986],[72.8330268,18.9894987],[72.833027,18.9896364],[72.8330306,18.9899246],[72.8330411,18.991135],[72.8330268,18.9925926],[72.8330774,18.9948617],[72.8330684,18.9950883],[72.8330219,18.9964019],[72.8331046,18.9983404],[72.8333414,18.9999038],[72.833558,19.0008469],[72.8335902,19.001],[72.8336056,19.0010676],[72.8336464,19.0012603],[72.8339786,19.0022201],[72.83409,19.0025776],[72.8341963,19.0029051],[72.8343455,19.0033087],[72.8345046,19.0037473],[72.8347008,19.0042345],[72.8347379,19.0043246],[72.8348715,19.0046491],[72.8350746,19.0051032],[72.8350971,19.0051504],[72.8353141,19.0056065],[72.835503,19.0059863],[72.8356129,19.0061859],[72.8357805,19.0064759],[72.8359522,19.0067581],[72.8363326,19.0073725],[72.8343269,19.0086058],[72.8331021,19.0093972],[72.8328344,19.0098118],[72.8324446,19.0103768],[72.8322142,19.0107107],[72.8320506,19.0109478],[72.8320393,19.0109643],[72.8320372,19.0109673],[72.8319646,19.0110725],[72.8319445,19.0111016],[72.8319015,19.0112045],[72.8318879,19.0112371],[72.8318878,19.0112373],[72.8318757,19.0112663],[72.831874,19.0112701],[72.8318621,19.0112987],[72.8318416,19.0113478],[72.8315536,19.0120365],[72.8314764,19.0122211],[72.831476,19.012222],[72.8314641,19.0122505],[72.8313018,19.012727],[72.8311439,19.0131905],[72.830912,19.0135963],[72.8307812,19.0138151],[72.8307544,19.0138671],[72.8306497,19.0140458],[72.8305866,19.0141544],[72.8304785,19.0143406],[72.8303154,19.0146216],[72.8303119,19.0146276],[72.8302036,19.0148137],[72.829829,19.015417],[72.8297271,19.0155811],[72.8293246,19.0162523],[72.8292823,19.016323],[72.8289825,19.0163192],[72.8287786,19.0162312],[72.828763,19.0162539],[72.8287258,19.016308],[72.8287182,19.0163156],[72.8286856,19.0163485],[72.8286771,19.016357],[72.8286748,19.0163594],[72.8286619,19.0163723],[72.8286554,19.0163838],[72.8286554,19.0163839],[72.8285549,19.0165445],[72.8280568,19.017341],[72.8279814,19.0174616],[72.8275257,19.0182756],[72.8273918,19.0184995],[72.8273628,19.0185563],[72.8273365,19.0186078],[72.8272989,19.0186821],[72.8272075,19.0188608],[72.8271468,19.0189798],[72.8271011,19.0190692],[72.827081,19.0191028],[72.8270609,19.0191365],[72.8270122,19.0192179],[72.8269987,19.0192404],[72.8269446,19.0193308],[72.8269114,19.0193105],[72.8258286,19.0186904],[72.8253543,19.0184547],[72.8249922,19.0182759],[72.8240347,19.0178511],[72.8235895,19.0177143],[72.8227553,19.0175646],[72.8224844,19.017524],[72.8223503,19.017737],[72.8218514,19.0177801],[72.8213283,19.0178309],[72.8208924,19.0179228],[72.8205237,19.0180033],[72.8203078,19.0180958],[72.82012,19.0181808],[72.8200167,19.0182949],[72.8198882,19.0184665],[72.8195111,19.0187564],[72.819196,19.0191685],[72.8190739,19.0194487],[72.8189841,19.0196351],[72.8189331,19.0199039],[72.8188607,19.020288],[72.8188071,19.0206506],[72.8187749,19.0209461],[72.8187548,19.0211819],[72.8187816,19.0213771],[72.8187387,19.021651],[72.8187548,19.0217081],[72.8187295,19.0218989],[72.8187038,19.0219819],[72.8185536,19.0221417],[72.8184745,19.022323],[72.8182827,19.0223876],[72.8180346,19.0226552],[72.8179166,19.0229062],[72.8177825,19.0230558],[72.8176296,19.0231965],[72.8174955,19.0234222],[72.8174204,19.0237366],[72.8172433,19.0239851],[72.817077,19.0242463],[72.8169832,19.0243249],[72.8168866,19.0244137],[72.8167418,19.0245734],[72.8164279,19.0247864],[72.81609,19.0249715],[72.8159264,19.0252809],[72.8157493,19.0255116],[72.815626,19.0256283],[72.8154174,19.026015],[72.815583,19.0261303],[72.8155348,19.026214],[72.8153551,19.0260771],[72.8150064,19.0267769],[72.8149044,19.0266958],[72.8149071,19.026247],[72.8149313,19.0257449],[72.8150064,19.0253037],[72.8151056,19.0250045],[72.815229,19.024718],[72.8153899,19.0244669],[72.8155053,19.0240764],[72.8156447,19.0236124],[72.8157252,19.0232904],[72.8157735,19.0231154],[72.815854,19.0229506],[72.8158942,19.0227731],[72.8159183,19.0224941],[72.8158432,19.0220808],[72.8158164,19.0217638],[72.8158218,19.0215813],[72.8158298,19.0213378],[72.8158459,19.0209549],[72.8159049,19.0206278],[72.816039,19.0202297],[72.8160632,19.0199001],[72.8160417,19.0195248],[72.8159586,19.019261],[72.8159398,19.0188781],[72.8160149,19.0179982],[72.8160283,19.0176711],[72.8160417,19.0171183],[72.8160953,19.0167709],[72.8161952,19.0165525],[72.8162885,19.0163753],[72.8164172,19.0162358],[72.8164762,19.0162231],[72.8165863,19.0162739],[72.8175317,19.0167937],[72.8175786,19.0168044],[72.8176148,19.0168127],[72.8177623,19.0167126],[72.8178012,19.0167088],[72.8178039,19.0166213],[72.8178066,19.0165338],[72.817816,19.0164983],[72.8177181,19.0164463],[72.8176953,19.0164983],[72.8176534,19.0164894],[72.8176162,19.0164819],[72.8175759,19.0164641],[72.8171709,19.0163043],[72.8171414,19.0163322],[72.8170221,19.0162739],[72.8170181,19.0162293],[72.816267,19.0158606],[72.8161624,19.015645],[72.8162107,19.0154396],[72.8162402,19.0152088],[72.8162804,19.0149147],[72.8163904,19.0145038],[72.816503,19.0141742],[72.8163836,19.0141776],[72.8163758,19.0138784],[72.8163517,19.01349],[72.8163186,19.0133043],[72.8162455,19.0131038],[72.8161968,19.0129312],[72.8161426,19.0125853],[72.8161357,19.0124695],[72.8161159,19.0124051],[72.8160939,19.0123677],[72.8160417,19.01231],[72.8160023,19.0122586],[72.8159651,19.0121651],[72.8159473,19.0120968],[72.8159378,19.0120475],[72.8159268,19.0120221],[72.8159005,19.011997],[72.8158735,19.0119781],[72.8158537,19.011946],[72.8158382,19.0119031],[72.8157915,19.0117653],[72.8157661,19.0116519],[72.8157298,19.0114977],[72.815698,19.0114269],[72.8156128,19.0113129],[72.815542,19.0112394],[72.8154677,19.0111159],[72.8154223,19.0110126],[72.8153717,19.0109098],[72.8153093,19.01082],[72.8152281,19.0107245],[72.8151605,19.0106685],[72.8150839,19.010599],[72.8150182,19.0105369],[72.8149579,19.0104938],[72.8149045,19.0104734],[72.8148257,19.0104463],[72.814764,19.010404],[72.814587,19.0102071],[72.8144901,19.0100789],[72.8144461,19.009983],[72.8144157,19.0098776],[72.8143921,19.0098105],[72.8143583,19.0097562],[72.8143008,19.0097131],[72.8142518,19.0096875],[72.8142248,19.0096875],[72.814191,19.0096907],[72.8141521,19.0096907],[72.8140761,19.0096555],[72.8139809,19.0096104],[72.8138669,19.0095432],[72.8137891,19.0095153],[72.8137247,19.0095153],[72.8136644,19.0095255],[72.8135745,19.0095572],[72.8134002,19.0096168],[72.8133224,19.0096435],[72.8133009,19.0096359],[72.8132808,19.0096244],[72.8132566,19.0096371],[72.8132137,19.0096802],[72.8131681,19.0097487],[72.8130783,19.0098831],[72.8130206,19.0099566],[72.8129455,19.0100086],[72.8128394,19.0100677],[72.8127553,19.0100899],[72.8126595,19.0100949],[72.8125807,19.0100798],[72.8124328,19.0100237],[72.8122638,19.0099422],[72.8122131,19.0098943],[72.8121861,19.0098304],[72.8121794,19.0097362],[72.8121794,19.0096531],[72.8121822,19.0095983],[72.8121705,19.0095752],[72.8121513,19.0095531],[72.8121503,19.0095259],[72.8121694,19.0094554],[72.8122714,19.009186],[72.8123223,19.0090034],[72.8123474,19.0088997],[72.8123876,19.008726],[72.8124007,19.0086269],[72.8124091,19.0085414],[72.8124049,19.0085127],[72.8123922,19.0084815],[72.812377,19.0084743],[72.8123424,19.0084655],[72.8123179,19.0084687],[72.8123061,19.0084791],[72.8122875,19.0084815],[72.8122723,19.0084711],[72.8122647,19.0084496],[72.8122621,19.0084112],[72.8122714,19.0083881],[72.812301,19.0083757],[72.8123213,19.0083574],[72.8123382,19.008327],[72.8123331,19.0083038],[72.8123162,19.0082679],[72.8122858,19.0082423],[72.8122227,19.0082188],[72.8121948,19.0082012],[72.8121906,19.0081797],[72.8122058,19.0081277],[72.8122286,19.0080742],[72.8122666,19.0080255],[72.8122928,19.0080143],[72.8123156,19.0080191],[72.8123537,19.0080463],[72.8123902,19.0080702],[72.8124418,19.0080798],[72.8124629,19.0080798],[72.8124857,19.0080718],[72.8124967,19.0080566],[72.8124975,19.0080055],[72.8124756,19.0074855],[72.8124764,19.0073168],[72.8124714,19.0072545],[72.8124486,19.0071722],[72.8124258,19.00709],[72.8124149,19.00699],[72.8124234,19.0069581],[72.8124263,19.0069259],[72.8124125,19.0069058],[72.8123667,19.0068786],[72.8122997,19.0068565],[72.812223,19.0068404],[72.8121517,19.0068293],[72.8120974,19.0068081],[72.8120633,19.0067931],[72.8120495,19.0067689],[72.8120442,19.0067357],[72.8120527,19.0066924],[72.812091,19.0066512],[72.8121442,19.0066361],[72.8122326,19.0066391],[72.8122975,19.0066421],[72.8123571,19.0066371],[72.8123763,19.006627],[72.8123763,19.0066059],[72.8123635,19.0065545],[72.8122969,19.0063932],[72.8122768,19.0063399],[72.8122459,19.0063222],[72.812207,19.0063133],[72.8121655,19.0062968],[72.8121373,19.0062702],[72.8121319,19.0062359],[72.8121292,19.0061992],[72.8121453,19.0061675],[72.812152,19.0061358],[72.812144,19.006099],[72.8121232,19.0060366],[72.8121084,19.0059479],[72.8121111,19.0058794],[72.8120977,19.0058579],[72.8120615,19.0058325],[72.8120199,19.0057653],[72.8118778,19.0054579],[72.8117372,19.00517],[72.8116661,19.0049822],[72.8115715,19.0047106],[72.8114613,19.0044933],[72.8113301,19.0041909],[72.8113073,19.0041059],[72.8112443,19.0039614],[72.8110514,19.0035465],[72.8108773,19.0031759],[72.8108236,19.0030365],[72.810678,19.0026458],[72.8105302,19.0021727],[72.810411,19.0017439],[72.8103303,19.0013815],[72.8102342,19.000803],[72.810186,19.0003009],[72.8101619,18.9998042],[72.8101643,18.9991351],[72.8101973,18.9987044],[72.8102612,18.9981889],[72.810278,18.9980941],[72.8102934,18.9980071],[72.8103186,18.9978648],[72.8104492,18.9973464],[72.8105295,18.9970514],[72.8106341,18.9966763],[72.8107721,18.9961607],[72.8109051,18.9956796],[72.8109956,18.9953191],[72.8110533,18.9948889],[72.8110931,18.9944694],[72.8110992,18.994301],[72.8111003,18.9942325],[72.8110983,18.993975],[72.8110896,18.9938219],[72.8111015,18.9936465],[72.8111185,18.9935809],[72.8111324,18.9935478],[72.8111773,18.9935043],[72.8112404,18.9934683],[72.8113129,18.9934389],[72.8113918,18.9934154],[72.8114828,18.9934037],[72.8115581,18.9933986],[72.8116185,18.9933961],[72.8117093,18.993396],[72.8118072,18.9934099],[72.8118774,18.9934299],[72.8119485,18.9934645],[72.8120992,18.9935387],[72.8121176,18.9935619],[72.8121574,18.9935979],[72.8122539,18.9936614],[72.8122659,18.9936846],[72.8122963,18.9937294],[72.8123282,18.9937548],[72.8123635,18.993759],[72.8124058,18.9937465],[72.8124732,18.9937093],[72.8125146,18.9936617],[72.8125647,18.9935727],[72.8126273,18.9933053],[72.8126407,18.9931861],[72.8126972,18.9931515],[72.8127292,18.9929591],[72.8127883,18.992753],[72.8127589,18.9927038],[72.812719,18.9927042],[72.8126301,18.9927164],[72.8125939,18.9927163],[72.8125595,18.9927012],[72.8125252,18.9926818],[72.8124962,18.992671],[72.8124738,18.9926713],[72.8124478,18.9926858],[72.8124311,18.9927021],[72.8124062,18.9927209],[72.8123823,18.9927257],[72.8123567,18.9927182],[72.8123449,18.9927019],[72.8123427,18.992672],[72.8123428,18.9926455],[72.812335,18.9926216],[72.8123164,18.9926014],[72.8122932,18.9925803],[72.8122763,18.9925624],[72.8122625,18.9925418],[72.812233,18.992515],[72.8121855,18.99249],[72.8121449,18.9924658],[72.8121141,18.9924396],[72.8120869,18.9924119],[72.8120638,18.9923872],[72.8120328,18.9923568],[72.8120073,18.992342],[72.8119753,18.9923318],[72.8119347,18.9923357],[72.8118974,18.9923465],[72.8118612,18.9923679],[72.811839,18.9923889],[72.8118168,18.9924144],[72.8118032,18.9924325],[72.8117894,18.992448],[72.8117546,18.9924696],[72.8117138,18.9924839],[72.8115544,18.9925153],[72.811531,18.9925192],[72.8114525,18.992528],[72.8113598,18.9925384],[72.8112857,18.9925466],[72.8111777,18.9925585],[72.8111445,18.9925548],[72.8111162,18.9925497],[72.8110705,18.9925279],[72.8110314,18.9924867],[72.8110078,18.9924328],[72.810994,18.9923714],[72.8109585,18.9922046],[72.8109216,18.9920191],[72.810892,18.9918824],[72.8108261,18.9915917],[72.8107697,18.991387],[72.8106582,18.9910687],[72.8105656,18.9908119],[72.8104505,18.9905297],[72.8103188,18.9902431],[72.8100956,18.9898001],[72.8099183,18.9894282],[72.8097972,18.9891642],[72.8097208,18.9889703],[72.8096595,18.9887617],[72.8096027,18.9884838],[72.8095885,18.9883469],[72.8095803,18.9882271],[72.8095835,18.9880721],[72.8096013,18.9879419],[72.8096431,18.9877849],[72.8097075,18.9876325],[72.8098,18.9874814],[72.8098992,18.9873429],[72.8100156,18.9872068],[72.8101348,18.9871272],[72.810284,18.9870562],[72.8104477,18.9869938],[72.8105998,18.9869689],[72.8107143,18.9869552],[72.8108653,18.9869473],[72.8110204,18.986933],[72.8111401,18.9869057],[72.8112974,18.986859],[72.8113593,18.9868409],[72.8114032,18.9868412],[72.8114659,18.9868635],[72.8115813,18.9869007],[72.8116395,18.9869456],[72.8116904,18.9870038],[72.8117818,18.9871032],[72.8118742,18.9871881],[72.8119123,18.9872385],[72.8119885,18.9873615],[72.812024,18.9874221],[72.8120659,18.9874738],[72.8121605,18.9875649],[72.812199,18.9875917],[72.8122693,18.9876257],[72.8123409,18.9876414],[72.812419,18.9876432],[72.8124871,18.9876304],[72.8125954,18.9875945],[72.8126961,18.9875389],[72.812813,18.9874591],[72.8131376,18.9872306],[72.8132603,18.9871131],[72.8133178,18.9870237],[72.8133891,18.9868839],[72.8134287,18.9868107],[72.8134438,18.9866481],[72.8134949,18.9864479],[72.8135182,18.9863003],[72.8135202,18.9861612],[72.8134888,18.9860179],[72.8133786,18.9857694],[72.8131752,18.9854543],[72.8129837,18.9852065],[72.8127616,18.9849071],[72.8126426,18.9846333],[72.8125665,18.9843725],[72.8125513,18.9842469],[72.8125425,18.9841075],[72.8125699,18.9839082],[72.81261,18.983743],[72.8126717,18.9835329],[72.8127035,18.9834231],[72.8127433,18.9830938],[72.812748,18.9829278],[72.8127353,18.9825968],[72.8127212,18.9824876],[72.8126531,18.9822052],[72.812599,18.9820465],[72.8125377,18.9818901],[72.8124859,18.9817755],[72.8123045,18.9815031],[72.8121183,18.9812684],[72.8119716,18.9811112],[72.8118377,18.9809855],[72.8116718,18.9808529],[72.8114947,18.9807399],[72.8113123,18.9806639],[72.8110703,18.9805998],[72.8108196,18.9805401],[72.8105515,18.980467],[72.8103028,18.9803992],[72.8097961,18.9802474],[72.8095065,18.9808204],[72.8089312,18.9819517],[72.8089057,18.9821305],[72.8089714,18.9823841],[72.8091726,18.9823587],[72.8091793,18.9831399],[72.8088212,18.9831298],[72.8088186,18.9830791],[72.8086241,18.9830715],[72.8085731,18.9824361],[72.8086766,18.9824299],[72.8086819,18.98237],[72.8086759,18.9821329],[72.8086427,18.9821356],[72.8086375,18.982029],[72.8087045,18.9818274],[72.8088708,18.9818705],[72.8089178,18.9817754],[72.8094287,18.980809],[72.8095989,18.9804],[72.8095522,18.9803278],[72.8094944,18.9802507],[72.8094515,18.9801891],[72.8094036,18.980162],[72.8092573,18.9801188],[72.8087403,18.9799389],[72.8081467,18.9797475],[72.8072588,18.9795189],[72.806761,18.9793825],[72.8062447,18.9792192],[72.8060888,18.9791435]]]]}}]}