{"type":"FeatureCollection","features":[{"type":"Feature","properties":{"ward": "HE"},"geometry":{"type":"MultiPolygon","coordinates":[[[[72.8428127,19.0904229],[72.8426482,19.0894341],[72.8421583,19.0866137],[72.8421551,19.0865832],[72.8421368,19.0864097],[72.8421188,19.086239],[72.8421153,19.0862059],[72.8420868,19.0859347],[72.8420584,19.0857343],[72.8419421,19.0847496],[72.8418342,19.0838354],[72.8416742,19.0827786],[72.8415807,19.0821605],[72.8415146,19.0816565],[72.8414541,19.0811946],[72.8414531,19.0811861],[72.8413702,19.0804464],[72.8412858,19.0794546],[72.8412728,19.0793011],[72.8412068,19.0785243],[72.8411914,19.0783432],[72.8411083,19.077295],[72.8411049,19.0772525],[72.841035,19.0763708],[72.840945,19.0751131],[72.8409405,19.0750504],[72.840889,19.0743316],[72.8408894,19.0734476],[72.8408897,19.0728482],[72.8408902,19.0717365],[72.8408903,19.0714908],[72.8409548,19.0706458],[72.8409743,19.07039],[72.8409832,19.0702734],[72.8410045,19.069994],[72.8410277,19.06969],[72.8410734,19.0690909],[72.8410902,19.0683626],[72.8410911,19.0683377],[72.8411538,19.0666974],[72.8411726,19.066204],[72.8412177,19.0650243],[72.8412528,19.0640383],[72.8412752,19.0634096],[72.841306,19.0625461],[72.8413056,19.0618359],[72.8413055,19.0615796],[72.8413048,19.0600281],[72.8413046,19.0596336],[72.8413044,19.0591959],[72.8413041,19.0586168],[72.841304,19.0583645],[72.8413328,19.0574445],[72.8413335,19.0574312],[72.8413726,19.0567543],[72.8413888,19.056474],[72.8413956,19.0563563],[72.8414067,19.0562823],[72.8414657,19.0558897],[72.8414723,19.0558455],[72.8414913,19.0557189],[72.841607,19.0552284],[72.8416071,19.055228],[72.8416332,19.0551038],[72.8417899,19.0546093],[72.8418577,19.0544214],[72.8418936,19.0543321],[72.8419536,19.0541646],[72.8420008,19.0541646],[72.842032,19.0540942],[72.8420737,19.0539844],[72.8421168,19.0538617],[72.8421997,19.0536368],[72.8422942,19.0533803],[72.8424214,19.0530291],[72.8425099,19.0528117],[72.8426124,19.05256],[72.8426533,19.052454],[72.8427341,19.0522453],[72.8427678,19.0521604],[72.8427981,19.0520844],[72.8428927,19.0518469],[72.8430275,19.0515084],[72.843057,19.0514343],[72.8430728,19.0513947],[72.8431168,19.0512842],[72.8432046,19.0510638],[72.8432184,19.0510269],[72.8445127,19.05112],[72.8462576,19.0512456],[72.8473037,19.0513233],[72.8498134,19.0515096],[72.852427,19.0517036],[72.854183,19.0518339],[72.8571916,19.0520571],[72.8582507,19.0521357],[72.8584083,19.0521474],[72.8592933,19.0522171],[72.8600583,19.0522774],[72.8611754,19.0522951],[72.8622196,19.0523117],[72.8632132,19.0523276],[72.8635585,19.0523331],[72.8651689,19.0536665],[72.8657312,19.054128],[72.866514,19.0547666],[72.8685968,19.0564799],[72.8687933,19.0566776],[72.8690426,19.0569285],[72.8690435,19.0569293],[72.8691935,19.0570786],[72.8695177,19.0574013],[72.8697073,19.0576759],[72.8701479,19.0584916],[72.8704648,19.0590549],[72.870646,19.0593445],[72.8708004,19.0595842],[72.8711532,19.060258],[72.8712813,19.0605133],[72.8712747,19.0607561],[72.8712822,19.060937],[72.8713051,19.0611679],[72.8713223,19.0613526],[72.8713225,19.0613542],[72.8713375,19.061419],[72.8713904,19.0615466],[72.871824,19.062284],[72.8724809,19.0631799],[72.8727942,19.0636014],[72.8729265,19.0637777],[72.8729428,19.0638473],[72.8730427,19.0642202],[72.8730453,19.064412],[72.8730455,19.0644296],[72.873026,19.064604],[72.8730181,19.0646752],[72.8729772,19.0650414],[72.8728802,19.0653073],[72.8728146,19.0654529],[72.8728122,19.0654584],[72.8726613,19.0656401],[72.8725508,19.0657939],[72.8725203,19.0657914],[72.8725019,19.0657899],[72.8725069,19.0660045],[72.872498,19.0660767],[72.8724839,19.0661999],[72.8724787,19.0662443],[72.8725073,19.0663658],[72.8725085,19.0664731],[72.8725089,19.066786],[72.8725089,19.0668436],[72.8725098,19.0668609],[72.8725289,19.0669398],[72.8725566,19.0670744],[72.8725728,19.0671595],[72.8725826,19.0672107],[72.8725987,19.0673033],[72.8726091,19.0673493],[72.8726155,19.0673846],[72.8726286,19.0674569],[72.8726733,19.0677024],[72.8727046,19.0678425],[72.872746,19.0681568],[72.8727536,19.0682082],[72.8727805,19.0684069],[72.8727981,19.0685368],[72.8728532,19.0689589],[72.8728902,19.0692422],[72.8729214,19.0694258],[72.8729686,19.0697694],[72.8729834,19.0700144],[72.8729904,19.0701547],[72.8729953,19.0702539],[72.873016,19.0703154],[72.8730559,19.0704336],[72.873091,19.0705376],[72.8731348,19.070671],[72.873162,19.0707539],[72.8731824,19.070816],[72.8731874,19.0708314],[72.8731903,19.0708402],[72.8731991,19.0708662],[72.8732234,19.0709383],[72.8732305,19.0709594],[72.8732322,19.0709646],[72.8732456,19.0710044],[72.8732677,19.0710699],[72.8732916,19.0711215],[72.8732961,19.0711312],[72.8733122,19.0711661],[72.8733232,19.07119],[72.8733283,19.071201],[72.8733558,19.0712605],[72.8733647,19.0713387],[72.8733171,19.0714127],[72.8731734,19.0714861],[72.8730223,19.0715415],[72.8729053,19.0715795],[72.8728111,19.0715963],[72.8727056,19.0716129],[72.8725546,19.071692],[72.8725543,19.0716921],[72.872444,19.0718921],[72.8722558,19.0722309],[72.8722057,19.0723051],[72.8721253,19.0724496],[72.8720027,19.0728107],[72.8719607,19.0729346],[72.8718512,19.0732501],[72.871805,19.0733832],[72.8715845,19.0738391],[72.8714845,19.0740459],[72.8714764,19.0740686],[72.871473,19.0740781],[72.8714358,19.0741829],[72.871369,19.0743712],[72.871369,19.0743713],[72.8713721,19.0745427],[72.8713723,19.0745549],[72.8713683,19.0745832],[72.8713588,19.0746679],[72.8713551,19.0747006],[72.8713429,19.0747674],[72.8713078,19.0749229],[72.8712337,19.075241],[72.8711824,19.0754621],[72.8711301,19.0756777],[72.8712134,19.0758344],[72.8712674,19.0759352],[72.8712665,19.0759829],[72.8712917,19.0759943],[72.8713034,19.0759996],[72.8714436,19.0760558],[72.8715437,19.0760969],[72.8716538,19.0761382],[72.8718645,19.0762252],[72.8722329,19.0763919],[72.8723819,19.0764638],[72.8725939,19.0765738],[72.8727295,19.07661],[72.8736233,19.0768899],[72.8736878,19.0769091],[72.8737688,19.0769332],[72.8739915,19.077042],[72.8740929,19.0770978],[72.87434,19.0772171],[72.8744505,19.0772696],[72.874657,19.0773666],[72.8747332,19.0774037],[72.8749267,19.0774978],[72.8751804,19.0777675],[72.8752786,19.077872],[72.8753236,19.0780792],[72.8755113,19.0782438],[72.8755836,19.0783072],[72.8758408,19.0787504],[72.8759038,19.0788729],[72.8759026,19.0788734],[72.875935,19.0789262],[72.8756021,19.0790838],[72.8755465,19.0791101],[72.8748667,19.079432],[72.8746802,19.0795203],[72.8746416,19.0795386],[72.8745714,19.0795719],[72.8744229,19.0796422],[72.8742929,19.0797037],[72.8741312,19.0797803],[72.8740158,19.0798343],[72.8737854,19.0799424],[72.8725409,19.0805263],[72.8724272,19.0805796],[72.8723351,19.0806228],[72.8719125,19.0808157],[72.8709854,19.0812307],[72.8707017,19.081357],[72.8705268,19.0814348],[72.870476,19.0814574],[72.8704485,19.0814945],[72.8701102,19.081698],[72.8701102,19.0817039],[72.87011,19.0817134],[72.8701234,19.0817256],[72.8686292,19.0824091],[72.8685057,19.0824555],[72.8683152,19.0825117],[72.8681978,19.0825156],[72.8679803,19.0824919],[72.8674951,19.0824438],[72.8670377,19.0824066],[72.8667752,19.0824036],[72.8665741,19.0824119],[72.8664284,19.0824474],[72.8662256,19.0825884],[72.8660002,19.082745],[72.8654599,19.0831968],[72.865274,19.0833871],[72.8651479,19.0835181],[72.8650232,19.0835938],[72.864922,19.0836457],[72.8648561,19.0836135],[72.8647666,19.0835749],[72.864678,19.0835155],[72.864617,19.0834829],[72.8645729,19.0834346],[72.8645795,19.0833604],[72.8645596,19.0831637],[72.8645396,19.082983],[72.8644858,19.0828284],[72.8643817,19.0826732],[72.8642774,19.0825286],[72.8641949,19.0824268],[72.864078,19.0823989],[72.8639448,19.0823336],[72.8638951,19.0822959],[72.8638507,19.0822688],[72.8637894,19.0822628],[72.8636947,19.0822458],[72.8636058,19.0822076],[72.8635176,19.0821216],[72.8633959,19.08203],[72.8632741,19.0819489],[72.8631298,19.0818782],[72.8629408,19.0818123],[72.8627069,19.0817618],[72.8624618,19.0817112],[72.8623056,19.0816987],[72.8621606,19.0816811],[72.8620503,19.0817],[72.8619423,19.0817217],[72.8618883,19.0817345],[72.8616887,19.0817613],[72.8615319,19.0818462],[72.8613793,19.0819307],[72.8613144,19.0819874],[72.8612826,19.0820135],[72.8612111,19.0821431],[72.8611041,19.0822504],[72.8610179,19.0823569],[72.8608977,19.0825049],[72.8608523,19.0825772],[72.8608192,19.082612],[72.8607375,19.0827212],[72.8606864,19.0827941],[72.8606512,19.0829101],[72.8606163,19.0830241],[72.860635,19.0830704],[72.8606208,19.0831133],[72.8606101,19.0832323],[72.8605906,19.0834547],[72.8605703,19.083498],[72.860543,19.0835612],[72.8604023,19.0837544],[72.8602472,19.0837945],[72.8600015,19.0838506],[72.8598914,19.0838791],[72.8598478,19.0838748],[72.859805,19.0838657],[72.8597634,19.0838518],[72.8597237,19.0838333],[72.8596747,19.0837809],[72.8596293,19.0837254],[72.8595877,19.0836671],[72.85955,19.0836061],[72.8595163,19.0835427],[72.8594758,19.0834517],[72.8594757,19.0834516],[72.8594475,19.0833883],[72.8594294,19.08335],[72.8594127,19.0833131],[72.8594062,19.0832995],[72.8593962,19.0832782],[72.8593873,19.0832612],[72.8593812,19.0832493],[72.8593714,19.0832331],[72.8593654,19.0832232],[72.8592636,19.0830557],[72.8592452,19.083013],[72.8592218,19.08297],[72.8592027,19.0829387],[72.8592019,19.0829374],[72.8591775,19.0829025],[72.8591316,19.0828399],[72.8590882,19.0827814],[72.859033,19.0826954],[72.8589899,19.0826289],[72.8589678,19.0825891],[72.8589502,19.0825572],[72.8589207,19.0825026],[72.8588954,19.0824557],[72.8588766,19.0824159],[72.8588609,19.0823723],[72.858855,19.0823517],[72.8588504,19.0823356],[72.8588346,19.082255],[72.8588269,19.0821698],[72.8588238,19.0821348],[72.8588233,19.0821297],[72.8588225,19.0821203],[72.8588234,19.0820826],[72.8584631,19.0820396],[72.8584609,19.0820875],[72.8584598,19.0821118],[72.8584637,19.0821739],[72.8584652,19.0821966],[72.8584667,19.0822214],[72.8584977,19.0823048],[72.8585134,19.0823521],[72.858538,19.0824265],[72.8585521,19.082471],[72.8585612,19.0824997],[72.8585762,19.0825459],[72.8585804,19.0825589],[72.858587,19.0825792],[72.8586327,19.0826934],[72.8586876,19.0827928],[72.8587365,19.0828682],[72.8587527,19.0828933],[72.8587974,19.082963],[72.8588469,19.0830298],[72.8588627,19.0830502],[72.8588902,19.0830888],[72.8589262,19.0831401],[72.8589649,19.0831814],[72.8589881,19.0832175],[72.859008,19.0832483],[72.8590488,19.0833216],[72.8590623,19.0833679],[72.8590815,19.083419],[72.8590945,19.0834463],[72.8591111,19.0834832],[72.859112,19.083485],[72.8591289,19.0835207],[72.8591556,19.0835806],[72.8591963,19.0836719],[72.8592443,19.0837742],[72.8592526,19.083791],[72.8592838,19.083854],[72.8593069,19.0839267],[72.8593085,19.0839316],[72.8593169,19.0839748],[72.8593174,19.0840022],[72.8592928,19.0840901],[72.8592785,19.0843342],[72.8592985,19.0845149],[72.859379,19.0847654],[72.8594385,19.0849201],[72.8594712,19.0849881],[72.859481,19.0850905],[72.8594784,19.0852922],[72.859436,19.0855465],[72.8594229,19.0857003],[72.8594263,19.0858703],[72.8594517,19.0860617],[72.8595164,19.0862483],[72.8596363,19.0864727],[72.8597069,19.0866275],[72.8597388,19.0867553],[72.8597647,19.0869148],[72.8597626,19.0870794],[72.8597618,19.0871378],[72.8597541,19.0873733],[72.859665,19.0875174],[72.8593795,19.0876696],[72.859258,19.0877823],[72.8591581,19.0879159],[72.8591553,19.0881337],[72.8591751,19.0882894],[72.8591842,19.0884347],[72.8589561,19.0883595],[72.8588907,19.0883587],[72.8586388,19.0884387],[72.8580799,19.0886396],[72.8576981,19.088743],[72.8580947,19.0893856],[72.8583722,19.0898353],[72.859517,19.0916908],[72.8601449,19.0927365],[72.8603393,19.0930482],[72.8602063,19.0931205],[72.8598743,19.0932958],[72.8596427,19.0934901],[72.8594777,19.0936022],[72.8593449,19.0937459],[72.8590594,19.0938981],[72.8587629,19.0940502],[72.8584889,19.0941507],[72.8582043,19.0942304],[72.8579958,19.0943316],[72.857874,19.0944252],[72.8570849,19.0935619],[72.8567104,19.0932051],[72.8564524,19.0929544],[72.8563372,19.0928551],[72.8561994,19.0927203],[72.8561568,19.0926872],[72.8561118,19.0926565],[72.8560643,19.0926258],[72.8559942,19.0925952],[72.8559168,19.092567],[72.8558168,19.0925317],[72.8557293,19.0925083],[72.8556244,19.0924873],[72.855492,19.0924663],[72.8553921,19.0924477],[72.8552972,19.092429],[72.8552072,19.0924032],[72.8550872,19.0923609],[72.8549222,19.0922831],[72.8547846,19.0922005],[72.8546939,19.0921428],[72.8545417,19.0920342],[72.8543858,19.0919186],[72.8542783,19.0918732],[72.8541819,19.0918242],[72.8540966,19.0917823],[72.8540374,19.091786],[72.8539559,19.0917757],[72.8538632,19.0917303],[72.8537817,19.0917129],[72.853704,19.0917167],[72.8535595,19.0916644],[72.8534631,19.0916331],[72.853352,19.0916158],[72.8532334,19.0915599],[72.8530518,19.0915007],[72.8527927,19.091505],[72.8526886,19.0913928],[72.8526366,19.0913367],[72.8525623,19.0912736],[72.8524881,19.0912175],[72.8524473,19.0911965],[72.8522031,19.0912043],[72.8519462,19.0910394],[72.85185,19.0909813],[72.8517422,19.090905],[72.8515266,19.0907524],[72.8513188,19.0906034],[72.8512379,19.0905417],[72.8511417,19.0904617],[72.85103,19.0903671],[72.8508797,19.0902253],[72.8507873,19.0901343],[72.8506756,19.0900361],[72.8505755,19.0899708],[72.8504216,19.0898727],[72.8503446,19.0898328],[72.8503099,19.0897855],[72.8502751,19.0897199],[72.8502365,19.0896616],[72.8501865,19.0896326],[72.8501327,19.0896218],[72.8500828,19.0896147],[72.8500482,19.0895965],[72.850025,19.0895638],[72.8500056,19.0894981],[72.8499862,19.0894398],[72.8499515,19.0893925],[72.8493881,19.0888171],[72.849085,19.089142],[72.8490184,19.0892134],[72.8489614,19.0891713],[72.8489142,19.0891385],[72.8488671,19.0891081],[72.8488176,19.08908],[72.8487239,19.0890289],[72.8486304,19.0890245],[72.8485271,19.0890389],[72.8484633,19.0890812],[72.8484142,19.0891328],[72.8483653,19.0892031],[72.8482967,19.0892829],[72.8481984,19.0893347],[72.8480608,19.0893866],[72.8478985,19.0894246],[72.8476722,19.0894534],[72.8474902,19.089454],[72.8473327,19.0894498],[72.8471702,19.0894316],[72.8469683,19.0893948],[72.8462048,19.0892242],[72.8461863,19.0895518],[72.84597,19.0896086],[72.8459309,19.089707],[72.845877,19.089754],[72.8453145,19.089968],[72.8442821,19.0904715],[72.8442705,19.0904761],[72.8442679,19.0904772],[72.8437645,19.0906789],[72.8437191,19.090636],[72.8436699,19.0905896],[72.8436693,19.090589],[72.8435653,19.0904908],[72.8434154,19.0903838],[72.8433731,19.0903753],[72.8433308,19.0903694],[72.843088,19.0903945],[72.8428127,19.0904229]]]]}}]}