{"type":"FeatureCollection","features":[{"type":"Feature","properties":{"ward": "HW"},"geometry":{"type":"MultiPolygon","coordinates":[[[[72.8231006,19.082428],[72.8230998,19.0823894],[72.823082,19.0823466],[72.8230433,19.0823114],[72.8229159,19.0822599],[72.8227094,19.082101],[72.822669,19.082049],[72.8226593,19.0820093],[72.8226721,19.0819679],[72.8227268,19.0819265],[72.8228089,19.0818943],[72.822846,19.0818666],[72.8228862,19.0818222],[72.8229069,19.0817227],[72.8229479,19.0814316],[72.8229992,19.0811148],[72.8230543,19.0806971],[72.8230753,19.0805375],[72.8231312,19.0802829],[72.8232129,19.0798408],[72.823205,19.0797278],[72.8232049,19.0796244],[72.8232341,19.0794907],[72.8232442,19.0794778],[72.8232879,19.0794217],[72.8233082,19.0793957],[72.8233797,19.0793264],[72.8233896,19.0793128],[72.823421,19.0792696],[72.8234607,19.0791582],[72.8230557,19.0787602],[72.8228762,19.0786649],[72.8225883,19.0785244],[72.8224819,19.0784291],[72.82235,19.078311],[72.8222629,19.0781762],[72.8221529,19.0779941],[72.8221234,19.0778847],[72.8220511,19.0777501],[72.821974,19.0775788],[72.8219705,19.0775766],[72.8217411,19.077434],[72.8215147,19.0772933],[72.8213885,19.0768599],[72.821413,19.0768097],[72.8213936,19.07647],[72.8216501,19.0759019],[72.8218648,19.0751661],[72.8218692,19.0748319],[72.8218292,19.0746143],[72.821767,19.0745246],[72.8215286,19.0741807],[72.821478,19.0740976],[72.821359,19.0738515],[72.8212616,19.0738475],[72.8212743,19.0732172],[72.8214429,19.0732233],[72.8214418,19.0731946],[72.8214976,19.0724166],[72.8215825,19.0718981],[72.8217828,19.0710735],[72.8220498,19.0702709],[72.8223802,19.0695752],[72.8223812,19.0695706],[72.8223928,19.0695168],[72.8223849,19.0690013],[72.8222602,19.0684566],[72.8221195,19.0680092],[72.8221239,19.0676749],[72.822203,19.0672301],[72.8224005,19.0666891],[72.822645,19.0659119],[72.8227549,19.065356],[72.8227357,19.0645757],[72.8225806,19.0641142],[72.822283,19.0633446],[72.8221292,19.0627855],[72.821959,19.0623517],[72.821951,19.0623175],[72.8216081,19.0623668],[72.8214006,19.0612909],[72.8213326,19.0609652],[72.8212765,19.0607696],[72.8212247,19.0602535],[72.8205265,19.058981],[72.8211766,19.0586447],[72.821254,19.0581273],[72.822305,19.0573033],[72.8223891,19.0573817],[72.8225227,19.0573297],[72.8229354,19.0571395],[72.8232169,19.0568398],[72.8228823,19.0567212],[72.8229291,19.0566252],[72.8231134,19.0562828],[72.8231575,19.05614],[72.8231824,19.0560148],[72.82372,19.0560434],[72.8237373,19.0559295],[72.823524,19.0559179],[72.8234763,19.0558687],[72.8234846,19.0556221],[72.8234843,19.0554783],[72.8234537,19.0552728],[72.8234035,19.0550028],[72.8235331,19.0550035],[72.8234973,19.0549692],[72.8234014,19.0548904],[72.8232018,19.0547366],[72.8230881,19.0546568],[72.8228138,19.0544812],[72.8227039,19.0544046],[72.8225572,19.0542886],[72.8224524,19.0541949],[72.8223776,19.0541214],[72.8223086,19.0540334],[72.8222175,19.0539264],[72.8221498,19.0538386],[72.8220791,19.0537378],[72.8220213,19.0536469],[72.821924,19.0534714],[72.821852,19.0533151],[72.8217406,19.0530151],[72.8216349,19.0526954],[72.8215452,19.0523887],[72.8214717,19.0521032],[72.8214222,19.0518825],[72.8213238,19.0513685],[72.8212857,19.0511371],[72.8212086,19.0507443],[72.8211566,19.0505774],[72.821087,19.0504131],[72.8210311,19.0502978],[72.8209696,19.0501832],[72.8209014,19.0500681],[72.8208011,19.0499106],[72.8205469,19.0494651],[72.8203944,19.0491823],[72.8202401,19.0488828],[72.8186404,19.0455659],[72.8182205,19.0449664],[72.8180159,19.0450001],[72.8179285,19.0449507],[72.8174007,19.0441471],[72.8172958,19.0436549],[72.817183,19.0430515],[72.8171849,19.0430204],[72.8171921,19.042998],[72.8172043,19.0429769],[72.8172245,19.0429557],[72.8172709,19.0429323],[72.8173058,19.0429208],[72.8177133,19.0428486],[72.8176976,19.0427604],[72.8180998,19.0423216],[72.818126,19.0421002],[72.8181977,19.0419039],[72.8180228,19.0418269],[72.8180754,19.0416829],[72.8184014,19.0417928],[72.8185374,19.0416692],[72.8185983,19.0415047],[72.8186424,19.0414194],[72.8187006,19.0413521],[72.8187903,19.0412726],[72.8188839,19.041075],[72.818979,19.0410529],[72.8190861,19.0409577],[72.8192417,19.0408591],[72.8196334,19.0408486],[72.8199282,19.0409353],[72.8202782,19.0410201],[72.8205004,19.0410845],[72.8207868,19.0411873],[72.8211253,19.0413288],[72.8213124,19.0414166],[72.8214707,19.0414965],[72.8218033,19.0416811],[72.8220301,19.0413701],[72.8220324,19.0411927],[72.8219924,19.0406821],[72.8222535,19.0403304],[72.8225106,19.0402891],[72.8225537,19.0405557],[72.8224797,19.0408653],[72.8224763,19.0411314],[72.8225675,19.0412877],[72.8226383,19.041222],[72.8229202,19.0410701],[72.8230601,19.0410717],[72.8231499,19.0413389],[72.8231458,19.0416494],[72.8232108,19.0420271],[72.8236495,19.042365],[72.8240926,19.0423702],[72.82486,19.0425345],[72.8275434,19.0442072],[72.8287251,19.0447977],[72.8293066,19.0449154],[72.8295599,19.0451624],[72.8297652,19.0455196],[72.8297582,19.0460518],[72.8317402,19.0478715],[72.832344,19.0485977],[72.833204,19.0491067],[72.8334598,19.0492528],[72.83377,19.0494217],[72.8337957,19.0494258],[72.8346733,19.0493839],[72.8353574,19.0494885],[72.8353933,19.0494903],[72.8364361,19.0490354],[72.8367858,19.0490395],[72.8370875,19.049154],[72.8374285,19.0493184],[72.837693,19.0492276],[72.8380047,19.0489188],[72.8380348,19.0482925],[72.8380495,19.0482104],[72.8381113,19.0482525],[72.8381262,19.0482626],[72.8381406,19.0482645],[72.8384236,19.0483116],[72.8384504,19.0483201],[72.8385249,19.0483747],[72.8385598,19.0484003],[72.838607,19.048437],[72.8387102,19.0485171],[72.8388119,19.0485948],[72.8388131,19.0485957],[72.8388769,19.0486444],[72.8390323,19.0487626],[72.8391713,19.0488673],[72.8392979,19.0489609],[72.8393687,19.0490126],[72.8394041,19.04904],[72.8394334,19.0490627],[72.8395575,19.0491556],[72.8395836,19.049173],[72.8396078,19.049189],[72.8396369,19.0492082],[72.8397372,19.0492801],[72.8398399,19.0493536],[72.8399097,19.0494007],[72.8400553,19.0495037],[72.8400838,19.0495238],[72.8401669,19.0495827],[72.8402941,19.0496729],[72.8403027,19.049679],[72.8403043,19.0496802],[72.8403044,19.0496802],[72.8403557,19.0497175],[72.8403938,19.0497453],[72.8404624,19.0497953],[72.8405716,19.0498688],[72.8406332,19.0499104],[72.8406577,19.0499268],[72.8407208,19.0499702],[72.8408176,19.0500368],[72.8408726,19.0500748],[72.8410852,19.0502201],[72.8411207,19.0502443],[72.8414627,19.050471],[72.8416576,19.0506055],[72.8416693,19.0506135],[72.841765,19.0506795],[72.8417805,19.0506903],[72.8418797,19.0507591],[72.841888,19.0507648],[72.8420978,19.0509073],[72.8421421,19.0509374],[72.842162,19.0509509],[72.8421624,19.050951],[72.8422442,19.0509602],[72.842901,19.051004],[72.8432184,19.0510269],[72.8432046,19.0510638],[72.8431168,19.0512842],[72.8430728,19.0513947],[72.843057,19.0514343],[72.8430275,19.0515084],[72.8428927,19.0518469],[72.8427981,19.0520844],[72.8427678,19.0521604],[72.8427341,19.0522453],[72.8426533,19.052454],[72.8426124,19.05256],[72.8425099,19.0528117],[72.8424214,19.0530291],[72.8422942,19.0533803],[72.8421997,19.0536368],[72.8421168,19.0538617],[72.8420737,19.0539844],[72.842032,19.0540942],[72.8420008,19.0541646],[72.8419536,19.0541646],[72.8418936,19.0543321],[72.8418577,19.0544214],[72.8417899,19.0546093],[72.8416332,19.0551038],[72.8416071,19.055228],[72.841607,19.0552284],[72.8414913,19.0557189],[72.8414723,19.0558455],[72.8414657,19.0558897],[72.8414067,19.0562823],[72.8413956,19.0563563],[72.8413888,19.056474],[72.8413726,19.0567543],[72.8413335,19.0574312],[72.8413328,19.0574445],[72.841304,19.0583645],[72.8413041,19.0586168],[72.8413044,19.0591959],[72.8413046,19.0596336],[72.8413048,19.0600281],[72.8413055,19.0615796],[72.8413056,19.0618359],[72.841306,19.0625461],[72.8412752,19.0634096],[72.8412528,19.0640383],[72.8412177,19.0650243],[72.8411726,19.066204],[72.8411538,19.0666974],[72.8410911,19.0683377],[72.8410902,19.0683626],[72.8410734,19.0690909],[72.8410277,19.06969],[72.8410045,19.069994],[72.8409832,19.0702734],[72.8409743,19.07039],[72.8409548,19.0706458],[72.8408903,19.0714908],[72.8408902,19.0717365],[72.8408897,19.0728482],[72.8408894,19.0734476],[72.840889,19.0743316],[72.8409405,19.0750504],[72.840945,19.0751131],[72.841035,19.0763708],[72.8411049,19.0772525],[72.8411083,19.077295],[72.8411914,19.0783432],[72.8412068,19.0785243],[72.8412728,19.0793011],[72.8412858,19.0794546],[72.8413702,19.0804464],[72.8414531,19.0811861],[72.8414541,19.0811946],[72.8415146,19.0816565],[72.8415807,19.0821605],[72.8416742,19.0827786],[72.8418342,19.0838354],[72.8419421,19.0847496],[72.8420584,19.0857343],[72.8420868,19.0859347],[72.8421153,19.0862059],[72.8421188,19.086239],[72.8421368,19.0864097],[72.8421551,19.0865832],[72.8421583,19.0866137],[72.8426482,19.0894341],[72.8428127,19.0904229],[72.8426997,19.0904379],[72.8417528,19.0905629],[72.8416276,19.0905666],[72.8415514,19.0905683],[72.8414944,19.0905573],[72.8413777,19.0905301],[72.8395771,19.0899169],[72.8395424,19.0899066],[72.8394409,19.0898808],[72.8393809,19.0898669],[72.8393202,19.0898534],[72.8392594,19.0898405],[72.8391985,19.0898281],[72.8391374,19.0898163],[72.8390763,19.089805],[72.839015,19.0897942],[72.8389536,19.0897841],[72.8388921,19.0897744],[72.8388305,19.0897653],[72.8387689,19.0897568],[72.8387071,19.0897488],[72.8386453,19.0897414],[72.8385834,19.0897346],[72.8385214,19.0897283],[72.838459,19.0897225],[72.8383931,19.08972],[72.8383403,19.0897187],[72.8382745,19.0897198],[72.838271,19.089665],[72.8382695,19.0896405],[72.8382687,19.0896285],[72.8382669,19.0895994],[72.8382591,19.0894759],[72.838251,19.0893489],[72.8382411,19.089192],[72.8382346,19.0890884],[72.8382264,19.0889589],[72.8382146,19.0887728],[72.8382104,19.0887066],[72.8381998,19.0885385],[72.8381929,19.0884305],[72.8381897,19.0883797],[72.8381849,19.0882609],[72.8381828,19.0882097],[72.8381803,19.0881489],[72.8381782,19.0880963],[72.8381707,19.0879118],[72.8381621,19.0877016],[72.8381528,19.087472],[72.8381518,19.0874448],[72.8381441,19.0872269],[72.8381247,19.0866802],[72.8378739,19.0866772],[72.8366676,19.0866022],[72.8355623,19.0865306],[72.8348632,19.0864826],[72.8345177,19.0864904],[72.8345177,19.0864901],[72.8343599,19.0864777],[72.8343141,19.0864907],[72.8343079,19.0864925],[72.834298,19.0864953],[72.8340702,19.0865599],[72.8340465,19.0865432],[72.8340424,19.0865403],[72.8340357,19.0865355],[72.8339909,19.086504],[72.8339852,19.0865035],[72.8339661,19.0865018],[72.8337833,19.0864853],[72.8333301,19.0864445],[72.833312,19.0864428],[72.8329731,19.0864231],[72.8328047,19.086405],[72.8327033,19.0863846],[72.8326927,19.0863825],[72.8326871,19.0863814],[72.8326661,19.0863772],[72.8325217,19.0863697],[72.8324762,19.08615],[72.8322104,19.0848643],[72.832196,19.0848334],[72.830407,19.085355],[72.8303752,19.0852748],[72.8303726,19.0852678],[72.8303467,19.0851955],[72.8303145,19.0851035],[72.8302601,19.0849465],[72.8302055,19.0847907],[72.830098,19.0844881],[72.8300149,19.0842729],[72.8300008,19.0842367],[72.8299749,19.0841958],[72.8299309,19.0840772],[72.8298752,19.0839289],[72.829865,19.0839056],[72.8298431,19.0838555],[72.8297939,19.0837103],[72.8286004,19.0826813],[72.828524,19.0824715],[72.8283522,19.0823575],[72.8283522,19.082348],[72.8282575,19.0821879],[72.8282182,19.0821253],[72.8280967,19.081822],[72.8280876,19.0817991],[72.8279321,19.0814084],[72.8279039,19.0813356],[72.8278048,19.0810799],[72.8276792,19.0809636],[72.8276546,19.0809385],[72.8276004,19.0808835],[72.8275771,19.0808601],[72.8275112,19.0807939],[72.8275057,19.0807882],[72.8274989,19.0807812],[72.8273439,19.0807538],[72.8272159,19.0808348],[72.8270185,19.0808655],[72.8268413,19.0808558],[72.8267462,19.0808479],[72.8266735,19.0808789],[72.8264981,19.0809117],[72.8263796,19.0809338],[72.8260076,19.0810033],[72.8257629,19.0810652],[72.8254503,19.0811442],[72.8251222,19.0812405],[72.8249779,19.0812828],[72.8246368,19.0814233],[72.8244377,19.0815056],[72.8241968,19.0816052],[72.8240447,19.0816823],[72.8234758,19.0819706],[72.8232175,19.0822809],[72.8231006,19.082428]]]]}}]}