{"type":"FeatureCollection","features":[{"type":"Feature","properties":{"ward": "KE"},"geometry":{"type":"MultiPolygon","coordinates":[[[[72.8428127,19.0904229],[72.8428208,19.0904714],[72.8428406,19.0905904],[72.842874,19.0907833],[72.8431939,19.0926327],[72.8432418,19.0932276],[72.8432653,19.0934202],[72.8434719,19.0946979],[72.8434745,19.0947173],[72.8435287,19.0949717],[72.8436982,19.0966209],[72.843945,19.0983935],[72.8439457,19.0983998],[72.8439482,19.0984231],[72.8439719,19.0986843],[72.8439763,19.0987372],[72.8439905,19.0988656],[72.8441994,19.1007649],[72.8442084,19.101123],[72.8443058,19.1019393],[72.8444134,19.1024588],[72.8446335,19.1038599],[72.8446889,19.104223],[72.8449582,19.105994],[72.8450108,19.1066374],[72.8451516,19.1078849],[72.8455314,19.1102126],[72.845899,19.1125304],[72.8459708,19.1129836],[72.8462113,19.1147772],[72.8463137,19.1155412],[72.8463159,19.1155553],[72.8463265,19.115623],[72.8463538,19.1158133],[72.8465249,19.1171183],[72.8467037,19.118286],[72.8470801,19.1213868],[72.8470869,19.1214368],[72.847116,19.1216516],[72.8471799,19.122217],[72.8471967,19.1223648],[72.8472737,19.123046],[72.8473201,19.1234568],[72.8473892,19.1240676],[72.8474013,19.1241746],[72.8475893,19.1259985],[72.847621,19.1263458],[72.8478048,19.1278084],[72.8478213,19.127927],[72.8478595,19.1282006],[72.8478622,19.1282201],[72.8483497,19.1320124],[72.848596,19.1338639],[72.84873,19.1348709],[72.8487326,19.1348881],[72.8487406,19.1349405],[72.8487439,19.1349694],[72.848953,19.1362378],[72.8491274,19.1373205],[72.8491735,19.137701],[72.8493145,19.1388635],[72.849324,19.1389735],[72.8493341,19.1390967],[72.8493471,19.1392044],[72.8495003,19.1404792],[72.8496351,19.1413231],[72.8498378,19.1426772],[72.8498907,19.1430126],[72.8499689,19.1435094],[72.8499765,19.1435575],[72.8502704,19.1435278],[72.8502709,19.1435278],[72.8513693,19.1434169],[72.8517996,19.1433735],[72.8519001,19.1433634],[72.8519004,19.1433633],[72.8519155,19.1433627],[72.8519271,19.1433622],[72.851971,19.1433561],[72.8520185,19.1433496],[72.8521231,19.1433352],[72.8521901,19.14333],[72.8522498,19.1433245],[72.8523981,19.1432909],[72.8524336,19.1432825],[72.8524952,19.1432694],[72.8525146,19.1432657],[72.8525395,19.1431901],[72.8525515,19.1431537],[72.8525529,19.1431494],[72.8525871,19.1430481],[72.8526241,19.1429341],[72.8526578,19.1428256],[72.8526872,19.1427386],[72.8526732,19.1426751],[72.8527246,19.1425196],[72.8527371,19.1424802],[72.8528413,19.142486],[72.8528711,19.1424871],[72.8529634,19.1424906],[72.8530926,19.1424963],[72.853216,19.1425009],[72.8533368,19.1425073],[72.8533564,19.1425081],[72.8533856,19.1425096],[72.8535924,19.142518],[72.8536861,19.1425239],[72.8538539,19.1425321],[72.8539349,19.142522],[72.8540657,19.1425137],[72.8541915,19.1425084],[72.8543125,19.1425018],[72.8543657,19.1424657],[72.8543847,19.1424534],[72.8544301,19.1424239],[72.8545294,19.1423586],[72.854543,19.1423485],[72.8545539,19.1423427],[72.8545568,19.1423412],[72.8545628,19.1423368],[72.8545674,19.1423334],[72.8545927,19.1423162],[72.8546043,19.1423087],[72.8546949,19.1422495],[72.8547343,19.1422243],[72.8547351,19.1422243],[72.8547369,19.1422232],[72.8549077,19.14213],[72.8549132,19.142127],[72.8549851,19.1420878],[72.8552589,19.1419434],[72.8553249,19.1419264],[72.8554281,19.1419],[72.8556717,19.1418379],[72.8557527,19.1418172],[72.8561567,19.1417504],[72.8567123,19.141662],[72.8570488,19.141605],[72.857291,19.1416177],[72.8574203,19.1416203],[72.8575132,19.1416221],[72.8575977,19.1416275],[72.8577841,19.1416382],[72.8577972,19.1416373],[72.8578979,19.1416423],[72.8581654,19.1416552],[72.8583167,19.1416626],[72.8584059,19.1416843],[72.8586397,19.1417421],[72.8586741,19.1417509],[72.8588785,19.1418049],[72.8588938,19.1418055],[72.8589267,19.1418069],[72.8589581,19.1418082],[72.8589884,19.1418095],[72.8590211,19.1418109],[72.8592342,19.1418198],[72.8592538,19.1418208],[72.8592989,19.1418234],[72.8593279,19.1418251],[72.8593608,19.1418264],[72.8593901,19.1418273],[72.8595064,19.1418331],[72.8595745,19.14184],[72.8598169,19.1418856],[72.8600643,19.1419179],[72.8601343,19.1419296],[72.8602316,19.1419394],[72.8603586,19.1419574],[72.8604795,19.1419766],[72.8606051,19.1419917],[72.8606302,19.1419923],[72.8606401,19.1419929],[72.860891,19.1420057],[72.8611934,19.1420211],[72.8613145,19.1420009],[72.8612681,19.1419837],[72.8617062,19.1419107],[72.8617244,19.1419113],[72.8617947,19.1419138],[72.8620113,19.1419266],[72.8622823,19.1419426],[72.8625082,19.141956],[72.8632129,19.1416628],[72.8632475,19.1416442],[72.863376,19.14159],[72.86347,19.1415354],[72.8638774,19.1412988],[72.8641491,19.1413118],[72.8645318,19.1413086],[72.8645828,19.1413014],[72.8648552,19.1412628],[72.8650668,19.1412326],[72.8653785,19.1411668],[72.8656021,19.1411175],[72.8658781,19.1410566],[72.8659315,19.1409913],[72.8659882,19.1409738],[72.8662532,19.1408941],[72.8664231,19.1408619],[72.866624,19.1408113],[72.8671861,19.1406607],[72.8673222,19.1406243],[72.8675292,19.1405713],[72.8679764,19.1404801],[72.8685794,19.1402579],[72.8688155,19.1402052],[72.8690107,19.1401616],[72.8690992,19.1401396],[72.8691026,19.1401372],[72.8691848,19.1400785],[72.8692984,19.1400179],[72.8693952,19.1399874],[72.8694708,19.1399636],[72.8695438,19.1399312],[72.8708907,19.1395506],[72.8708998,19.139548],[72.8711031,19.1394951],[72.8711438,19.1394848],[72.8712879,19.1394482],[72.8713108,19.1394433],[72.8714753,19.1394084],[72.8716303,19.1393726],[72.8720833,19.139281],[72.8721825,19.1392623],[72.8723319,19.139234],[72.8723762,19.1392257],[72.8724718,19.1392076],[72.8725149,19.1391995],[72.8725637,19.1391862],[72.8726124,19.139173],[72.8727601,19.1391329],[72.8727606,19.1391328],[72.8727609,19.1391327],[72.8727612,19.1391327],[72.8736141,19.1389013],[72.8741957,19.1387411],[72.875383,19.1385354],[72.8753282,19.1385243],[72.8750693,19.138472],[72.8748942,19.1384692],[72.8748449,19.1384685],[72.8747989,19.1385002],[72.8746886,19.1385764],[72.8744535,19.138389],[72.8743802,19.1381677],[72.8747203,19.137583],[72.8749092,19.1376354],[72.8752767,19.1377423],[72.8755665,19.1378394],[72.8756786,19.1377705],[72.8757625,19.1377273],[72.8759579,19.1378103],[72.876117,19.1379225],[72.8762701,19.1381245],[72.8762943,19.1382676],[72.876349,19.1384563],[72.8764514,19.138631],[72.8765596,19.1387271],[72.8769975,19.1386736],[72.8771911,19.1386305],[72.8773605,19.1385633],[72.8777375,19.1387546],[72.8778056,19.1387892],[72.8778597,19.1389386],[72.8779963,19.1393154],[72.8780572,19.1394834],[72.878078,19.1395409],[72.87811,19.1395807],[72.8781982,19.1395776],[72.8782694,19.1395738],[72.8783335,19.1395704],[72.8783474,19.1395573],[72.8783481,19.1395565],[72.8783635,19.139542],[72.87837,19.1395077],[72.8783758,19.1394022],[72.8783745,19.1393806],[72.8786757,19.1387828],[72.8787607,19.1383009],[72.8788301,19.1379646],[72.879076,19.1379149],[72.8791537,19.1378992],[72.8798534,19.1377949],[72.8811123,19.1376073],[72.8811258,19.1376058],[72.8812032,19.1375977],[72.8812889,19.1375825],[72.8813162,19.1375776],[72.8821726,19.1374179],[72.8823333,19.1373884],[72.8830275,19.1372608],[72.8832687,19.1372077],[72.8832701,19.1372074],[72.8833029,19.1372002],[72.8833942,19.1371854],[72.8836162,19.1371452],[72.8838542,19.1371021],[72.8849299,19.136908],[72.885246,19.1368544],[72.8853331,19.1370408],[72.885358,19.137094],[72.8853853,19.1371524],[72.8855838,19.1375771],[72.8860106,19.1374132],[72.886479,19.1372327],[72.8865239,19.1372159],[72.8866349,19.1371721],[72.8866401,19.1371701],[72.8866795,19.137155],[72.8868351,19.1370847],[72.8873702,19.1369609],[72.8873836,19.1369559],[72.8874399,19.1369343],[72.8875243,19.136902],[72.8875712,19.1368847],[72.887725,19.1368256],[72.8878697,19.1367707],[72.8879624,19.1367345],[72.8880887,19.1366872],[72.8881125,19.1366783],[72.8882994,19.1366065],[72.8885042,19.1365281],[72.888703,19.1364518],[72.8887043,19.1364513],[72.8887062,19.1364506],[72.8887306,19.1364411],[72.8887834,19.1364207],[72.8888939,19.1363769],[72.8889501,19.1363553],[72.8889986,19.1363366],[72.8891046,19.1362963],[72.8892844,19.1362269],[72.8894147,19.1361767],[72.8895793,19.1361132],[72.88963,19.1360932],[72.8896654,19.1360792],[72.889734,19.1360369],[72.8898044,19.1360026],[72.8899936,19.1359397],[72.8902012,19.1358507],[72.8906851,19.1356512],[72.8906734,19.1356223],[72.8906033,19.1354482],[72.8905723,19.1353709],[72.8905392,19.1352635],[72.8905171,19.1352214],[72.8904931,19.1351977],[72.8903869,19.1351125],[72.8901379,19.1349035],[72.8900732,19.1348499],[72.8900079,19.1347943],[72.8899894,19.1347781],[72.8899712,19.1347621],[72.889971,19.1347619],[72.8899451,19.1347393],[72.8899204,19.1346998],[72.8898674,19.134595],[72.8898192,19.1345134],[72.8898008,19.1344824],[72.889757,19.1344046],[72.8897173,19.1343346],[72.8895406,19.1340767],[72.8895256,19.1340375],[72.8895047,19.1340304],[72.8895145,19.1337619],[72.8894926,19.1337232],[72.8894627,19.1336701],[72.8894259,19.133605],[72.8893074,19.1332736],[72.8893104,19.1331792],[72.8892582,19.1330444],[72.8892147,19.1329193],[72.8892114,19.1329097],[72.8891663,19.132801],[72.8889012,19.1323765],[72.8887462,19.1323751],[72.8885852,19.1322109],[72.8885894,19.1318402],[72.8885941,19.1314353],[72.8885568,19.1313726],[72.888522,19.1313139],[72.8887144,19.131205],[72.8885853,19.1310849],[72.8884828,19.1309944],[72.8883174,19.1309209],[72.8882286,19.1308811],[72.8880809,19.1308196],[72.8879218,19.1307553],[72.8877941,19.1306121],[72.8876967,19.1304998],[72.8875773,19.1303726],[72.8873853,19.1302947],[72.8872025,19.1302221],[72.8871413,19.1301971],[72.8868858,19.1300756],[72.8868053,19.1299623],[72.8865359,19.1296072],[72.886395,19.1294285],[72.8862666,19.1294294],[72.886199,19.1294298],[72.8861974,19.1294304],[72.8861461,19.1294469],[72.8861057,19.1294608],[72.8861009,19.1294619],[72.8860583,19.1294723],[72.8860066,19.1294837],[72.8859397,19.1294974],[72.8858838,19.1295072],[72.8858228,19.1295178],[72.8857288,19.129532],[72.8856526,19.1295415],[72.8855816,19.1295488],[72.8854767,19.1295572],[72.8853989,19.1295619],[72.8853203,19.1295642],[72.8852391,19.1295649],[72.8851732,19.1295658],[72.8851115,19.1295643],[72.8850507,19.1295611],[72.8849958,19.1295581],[72.8849486,19.1295552],[72.884881,19.1295504],[72.8848236,19.1295441],[72.8847716,19.1295379],[72.8848747,19.1291328],[72.8848933,19.1290824],[72.8849103,19.1289572],[72.8849268,19.1288356],[72.8849458,19.1287665],[72.884894,19.1286801],[72.8847655,19.1284738],[72.8847293,19.1284158],[72.8847438,19.1283369],[72.8847785,19.128307],[72.8848884,19.1282124],[72.8849123,19.1281809],[72.8849528,19.1281276],[72.8849649,19.1281083],[72.8850237,19.1280139],[72.8850293,19.1280003],[72.8850807,19.1278747],[72.8851245,19.1278053],[72.8851576,19.1277726],[72.8852505,19.1276999],[72.8854754,19.1275296],[72.8855844,19.1274687],[72.8857517,19.1274292],[72.886337,19.127211],[72.88648,19.1271237],[72.8865109,19.1270292],[72.8866691,19.126599],[72.8866881,19.1265476],[72.886661,19.1259145],[72.8867432,19.1255636],[72.8868418,19.1251095],[72.8870553,19.1245742],[72.8870711,19.124463],[72.8870743,19.1244504],[72.8871761,19.1241689],[72.8872993,19.1238845],[72.8874035,19.1236378],[72.8874333,19.1235693],[72.8874506,19.1235237],[72.8874539,19.1235093],[72.8874591,19.1234619],[72.8874612,19.1234426],[72.8875026,19.1230497],[72.8875296,19.1227932],[72.887694,19.1225579],[72.8877825,19.1224464],[72.8880279,19.1223159],[72.888061,19.1222567],[72.8884514,19.1220048],[72.8885801,19.1219218],[72.8885882,19.1219165],[72.8885732,19.1218165],[72.8885482,19.1216495],[72.8885448,19.1216267],[72.8885244,19.1214912],[72.8883804,19.1214366],[72.8878635,19.1212401],[72.8872996,19.121099],[72.8872706,19.1210939],[72.8868877,19.1208558],[72.8868009,19.1208018],[72.886633,19.1206682],[72.8864267,19.1202714],[72.88641,19.1202196],[72.8863257,19.1199576],[72.8863169,19.1199382],[72.8862737,19.1195707],[72.8862505,19.1193573],[72.8861567,19.1190647],[72.8861371,19.1190034],[72.8858951,19.1186868],[72.8858485,19.1186297],[72.8858479,19.1186207],[72.8858452,19.1185761],[72.8858288,19.1183921],[72.8858286,19.1183367],[72.8858969,19.1181061],[72.8859477,19.1177045],[72.8860112,19.1173434],[72.8861229,19.1169032],[72.8861261,19.1168005],[72.8861359,19.1164775],[72.8861436,19.1163101],[72.8861595,19.1160687],[72.886309,19.1157772],[72.8864896,19.1156873],[72.886585,19.1154897],[72.8866975,19.1153805],[72.8866982,19.1153561],[72.8867047,19.1153279],[72.8868704,19.1150303],[72.887049,19.1146932],[72.8871445,19.1144911],[72.8873205,19.1140572],[72.8872603,19.1138551],[72.8872413,19.1138086],[72.8871391,19.1135288],[72.8868528,19.1134023],[72.8867034,19.1132918],[72.8866714,19.113047],[72.8862667,19.1128734],[72.8858747,19.1126965],[72.8858336,19.1125273],[72.8859874,19.1124933],[72.8858023,19.1123653],[72.8857821,19.1123513],[72.8855406,19.1121842],[72.8854606,19.1120212],[72.8852691,19.111631],[72.8853576,19.1110157],[72.8855704,19.1108873],[72.8856988,19.1107791],[72.8857782,19.1107437],[72.885989,19.1105846],[72.8860295,19.110557],[72.8861943,19.1103746],[72.8862632,19.1102982],[72.8867003,19.1100136],[72.8869561,19.1098412],[72.8869714,19.10981],[72.8870191,19.1097161],[72.887053,19.1096245],[72.8870552,19.1096173],[72.8870738,19.1095598],[72.8870566,19.1092474],[72.8870186,19.1090881],[72.8869093,19.1089206],[72.8868927,19.1088899],[72.8868776,19.1088438],[72.8868622,19.1087242],[72.8868246,19.1084862],[72.8868235,19.1084553],[72.8868064,19.1084039],[72.8866676,19.1081585],[72.8866252,19.1080091],[72.8865334,19.107745],[72.8865365,19.1077136],[72.8865352,19.1077097],[72.8865265,19.1076839],[72.8865074,19.107666],[72.8863433,19.1072379],[72.8862957,19.1071908],[72.8862649,19.1071545],[72.8861206,19.1069777],[72.8860136,19.106842],[72.8859461,19.1067618],[72.8858378,19.1067056],[72.8856968,19.1066839],[72.885102,19.1063899],[72.8850634,19.1063715],[72.8849045,19.106303],[72.8848307,19.1060908],[72.8846539,19.1060867],[72.8845342,19.1060306],[72.884434,19.105955],[72.8843984,19.1059089],[72.8841085,19.1055413],[72.8841258,19.1054236],[72.8841208,19.1052994],[72.8841032,19.1051262],[72.8840762,19.1050223],[72.8840496,19.1049095],[72.8841092,19.1046447],[72.8838859,19.1042456],[72.8838217,19.1040514],[72.8836387,19.103821],[72.8835392,19.1037942],[72.8831978,19.1037538],[72.883129,19.1037197],[72.8830488,19.1036668],[72.8827056,19.1034105],[72.8827098,19.1033805],[72.8825451,19.1032924],[72.8822193,19.1031278],[72.8820008,19.1030278],[72.881934,19.1028895],[72.8814723,19.1027608],[72.8811815,19.1027212],[72.8809805,19.1026457],[72.8806378,19.1025169],[72.880361,19.1024131],[72.8802278,19.1021934],[72.8801744,19.1020967],[72.8801642,19.1020744],[72.8801081,19.1019525],[72.8800832,19.1018908],[72.8800566,19.1018251],[72.8800217,19.1017364],[72.8800173,19.1017252],[72.8797945,19.1013543],[72.8796618,19.1010505],[72.8796,19.100909],[72.8795402,19.1007683],[72.8795318,19.1007535],[72.8794723,19.1006113],[72.8794538,19.1005555],[72.8792817,19.1001304],[72.8792038,19.099928],[72.8791321,19.0997502],[72.8790907,19.0993112],[72.8790599,19.0992003],[72.8789525,19.0989332],[72.8790131,19.0987067],[72.879094,19.0985546],[72.8792115,19.098493],[72.879391,19.0984928],[72.8798079,19.0985132],[72.8799628,19.0984806],[72.8803289,19.0982328],[72.8805599,19.0981228],[72.8806778,19.0980392],[72.8807319,19.0979133],[72.8807497,19.0977679],[72.8807214,19.0976249],[72.8807387,19.0974286],[72.8808281,19.0971725],[72.8808871,19.0969271],[72.8809506,19.0966512],[72.880935,19.0965488],[72.8809203,19.0964522],[72.8808692,19.0962779],[72.8807602,19.0960794],[72.8806009,19.0959235],[72.8802958,19.0956627],[72.8801534,19.0955301],[72.8800965,19.095427],[72.8800357,19.095317],[72.8799803,19.0952205],[72.8798701,19.0950425],[72.8797867,19.0948773],[72.8797389,19.0947865],[72.8794817,19.0945448],[72.8793415,19.0944752],[72.879132,19.094504],[72.8788616,19.0944063],[72.8786964,19.0942574],[72.8785142,19.0939846],[72.8783646,19.0935828],[72.878294,19.0932937],[72.878291,19.0930699],[72.8783344,19.0927605],[72.8783345,19.0927597],[72.8783886,19.0923752],[72.8784138,19.0922071],[72.8784509,19.0919602],[72.8786974,19.0912984],[72.8789002,19.0910766],[72.8787155,19.0908792],[72.8788252,19.0907626],[72.8792399,19.0903447],[72.8790369,19.0899877],[72.8792277,19.0897971],[72.8789246,19.0893564],[72.8787559,19.088445],[72.8788566,19.0877638],[72.8788836,19.0875808],[72.8791333,19.0867783],[72.8791296,19.0867557],[72.8791289,19.0867387],[72.879129,19.0867236],[72.8791294,19.08664],[72.8791296,19.0866079],[72.8791409,19.0864071],[72.8791501,19.0862543],[72.8791503,19.0862515],[72.8791522,19.0862061],[72.8791621,19.0859792],[72.8783165,19.086032],[72.878163,19.0860421],[72.8779262,19.0860578],[72.877709,19.0860722],[72.8775163,19.0860849],[72.8774538,19.0860891],[72.8774175,19.0860915],[72.8766204,19.0861432],[72.8762588,19.0861682],[72.8762246,19.0858408],[72.87615,19.0851266],[72.8761437,19.0850658],[72.8761393,19.085026],[72.8761355,19.0849916],[72.8761289,19.0849323],[72.8760763,19.0847994],[72.8760044,19.0847454],[72.8758547,19.0846588],[72.8755957,19.0844657],[72.8755726,19.0844485],[72.8754177,19.0843299],[72.8746739,19.0839762],[72.8724825,19.0829985],[72.8719252,19.0827499],[72.8701234,19.0817256],[72.8686292,19.0824091],[72.8685057,19.0824555],[72.8683152,19.0825117],[72.8681978,19.0825156],[72.8679803,19.0824919],[72.8674951,19.0824438],[72.8670377,19.0824066],[72.8667752,19.0824036],[72.8665741,19.0824119],[72.8664284,19.0824474],[72.8662256,19.0825884],[72.8660002,19.082745],[72.8654599,19.0831968],[72.865274,19.0833871],[72.8651479,19.0835181],[72.8650232,19.0835938],[72.864922,19.0836457],[72.8648561,19.0836135],[72.8647666,19.0835749],[72.864678,19.0835155],[72.864617,19.0834829],[72.8645729,19.0834346],[72.8645795,19.0833604],[72.8645596,19.0831637],[72.8645396,19.082983],[72.8644858,19.0828284],[72.8643817,19.0826732],[72.8642774,19.0825286],[72.8641949,19.0824268],[72.864078,19.0823989],[72.8639448,19.0823336],[72.8638951,19.0822959],[72.8638507,19.0822688],[72.8637894,19.0822628],[72.8636947,19.0822458],[72.8636058,19.0822076],[72.8635176,19.0821216],[72.8633959,19.08203],[72.8632741,19.0819489],[72.8631298,19.0818782],[72.8629408,19.0818123],[72.8627069,19.0817618],[72.8624618,19.0817112],[72.8623056,19.0816987],[72.8621606,19.0816811],[72.8620503,19.0817],[72.8619423,19.0817217],[72.8618883,19.0817345],[72.8616887,19.0817613],[72.8615319,19.0818462],[72.8613793,19.0819307],[72.8613144,19.0819874],[72.8612826,19.0820135],[72.8612111,19.0821431],[72.8611041,19.0822504],[72.8610179,19.0823569],[72.8608977,19.0825049],[72.8608523,19.0825772],[72.8608192,19.082612],[72.8607375,19.0827212],[72.8606864,19.0827941],[72.8606512,19.0829101],[72.8606163,19.0830241],[72.860635,19.0830704],[72.8606208,19.0831133],[72.8606101,19.0832323],[72.8605906,19.0834547],[72.8605703,19.083498],[72.860543,19.0835612],[72.8604023,19.0837544],[72.8602472,19.0837945],[72.8600015,19.0838506],[72.8598914,19.0838791],[72.8598478,19.0838748],[72.859805,19.0838657],[72.8597634,19.0838518],[72.8597237,19.0838333],[72.8596747,19.0837809],[72.8596293,19.0837254],[72.8595877,19.0836671],[72.85955,19.0836061],[72.8595163,19.0835427],[72.8594758,19.0834517],[72.8594757,19.0834516],[72.8594475,19.0833883],[72.8594294,19.08335],[72.8594127,19.0833131],[72.8594062,19.0832995],[72.8593962,19.0832782],[72.8593873,19.0832612],[72.8593812,19.0832493],[72.8593714,19.0832331],[72.8593654,19.0832232],[72.8592636,19.0830557],[72.8592452,19.083013],[72.8592218,19.08297],[72.8592027,19.0829387],[72.8592019,19.0829374],[72.8591775,19.0829025],[72.8591316,19.0828399],[72.8590882,19.0827814],[72.859033,19.0826954],[72.8589899,19.0826289],[72.8589678,19.0825891],[72.8589502,19.0825572],[72.8589207,19.0825026],[72.8588954,19.0824557],[72.8588766,19.0824159],[72.8588609,19.0823723],[72.858855,19.0823517],[72.8588504,19.0823356],[72.8588346,19.082255],[72.8588269,19.0821698],[72.8588238,19.0821348],[72.8588233,19.0821297],[72.8588225,19.0821203],[72.8588234,19.0820826],[72.8584631,19.0820396],[72.8584609,19.0820875],[72.8584598,19.0821118],[72.8584637,19.0821739],[72.8584652,19.0821966],[72.8584667,19.0822214],[72.8584977,19.0823048],[72.8585134,19.0823521],[72.858538,19.0824265],[72.8585521,19.082471],[72.8585612,19.0824997],[72.8585762,19.0825459],[72.8585804,19.0825589],[72.858587,19.0825792],[72.8586327,19.0826934],[72.8586876,19.0827928],[72.8587365,19.0828682],[72.8587527,19.0828933],[72.8587974,19.082963],[72.8588469,19.0830298],[72.8588627,19.0830502],[72.8588902,19.0830888],[72.8589262,19.0831401],[72.8589649,19.0831814],[72.8589881,19.0832175],[72.859008,19.0832483],[72.8590488,19.0833216],[72.8590623,19.0833679],[72.8590815,19.083419],[72.8590945,19.0834463],[72.8591111,19.0834832],[72.859112,19.083485],[72.8591289,19.0835207],[72.8591556,19.0835806],[72.8591963,19.0836719],[72.8592443,19.0837742],[72.8592526,19.083791],[72.8592838,19.083854],[72.8593069,19.0839267],[72.8593085,19.0839316],[72.8593169,19.0839748],[72.8593174,19.0840022],[72.8592928,19.0840901],[72.8592785,19.0843342],[72.8592985,19.0845149],[72.859379,19.0847654],[72.8594385,19.0849201],[72.8594712,19.0849881],[72.859481,19.0850905],[72.8594784,19.0852922],[72.859436,19.0855465],[72.8594229,19.0857003],[72.8594263,19.0858703],[72.8594517,19.0860617],[72.8595164,19.0862483],[72.8596363,19.0864727],[72.8597069,19.0866275],[72.8597388,19.0867553],[72.8597647,19.0869148],[72.8597626,19.0870794],[72.8597618,19.0871378],[72.8597541,19.0873733],[72.859665,19.0875174],[72.8593795,19.0876696],[72.859258,19.0877823],[72.8591581,19.0879159],[72.8591553,19.0881337],[72.8591751,19.0882894],[72.8591842,19.0884347],[72.8589561,19.0883595],[72.8588907,19.0883587],[72.8586388,19.0884387],[72.8580799,19.0886396],[72.8576981,19.088743],[72.8580947,19.0893856],[72.8583722,19.0898353],[72.859517,19.0916908],[72.8601449,19.0927365],[72.8603393,19.0930482],[72.8602063,19.0931205],[72.8598743,19.0932958],[72.8596427,19.0934901],[72.8594777,19.0936022],[72.8593449,19.0937459],[72.8590594,19.0938981],[72.8587629,19.0940502],[72.8584889,19.0941507],[72.8582043,19.0942304],[72.8579958,19.0943316],[72.857874,19.0944252],[72.8570849,19.0935619],[72.8567104,19.0932051],[72.8564524,19.0929544],[72.8563372,19.0928551],[72.8561994,19.0927203],[72.8561568,19.0926872],[72.8561118,19.0926565],[72.8560643,19.0926258],[72.8559942,19.0925952],[72.8559168,19.092567],[72.8558168,19.0925317],[72.8557293,19.0925083],[72.8556244,19.0924873],[72.855492,19.0924663],[72.8553921,19.0924477],[72.8552972,19.092429],[72.8552072,19.0924032],[72.8550872,19.0923609],[72.8549222,19.0922831],[72.8547846,19.0922005],[72.8546939,19.0921428],[72.8545417,19.0920342],[72.8543858,19.0919186],[72.8542783,19.0918732],[72.8541819,19.0918242],[72.8540966,19.0917823],[72.8540374,19.091786],[72.8539559,19.0917757],[72.8538632,19.0917303],[72.8537817,19.0917129],[72.853704,19.0917167],[72.8535595,19.0916644],[72.8534631,19.0916331],[72.853352,19.0916158],[72.8532334,19.0915599],[72.8530518,19.0915007],[72.8527927,19.091505],[72.8526886,19.0913928],[72.8526366,19.0913367],[72.8525623,19.0912736],[72.8524881,19.0912175],[72.8524473,19.0911965],[72.8522031,19.0912043],[72.8519462,19.0910394],[72.85185,19.0909813],[72.8517422,19.090905],[72.8515266,19.0907524],[72.8513188,19.0906034],[72.8512379,19.0905417],[72.8511417,19.0904617],[72.85103,19.0903671],[72.8508797,19.0902253],[72.8507873,19.0901343],[72.8506756,19.0900361],[72.8505755,19.0899708],[72.8504216,19.0898727],[72.8503446,19.0898328],[72.8503099,19.0897855],[72.8502751,19.0897199],[72.8502365,19.0896616],[72.8501865,19.0896326],[72.8501327,19.0896218],[72.8500828,19.0896147],[72.8500482,19.0895965],[72.850025,19.0895638],[72.8500056,19.0894981],[72.8499862,19.0894398],[72.8499515,19.0893925],[72.8493881,19.0888171],[72.849085,19.089142],[72.8490184,19.0892134],[72.8489614,19.0891713],[72.8489142,19.0891385],[72.8488671,19.0891081],[72.8488176,19.08908],[72.8487239,19.0890289],[72.8486304,19.0890245],[72.8485271,19.0890389],[72.8484633,19.0890812],[72.8484142,19.0891328],[72.8483653,19.0892031],[72.8482967,19.0892829],[72.8481984,19.0893347],[72.8480608,19.0893866],[72.8478985,19.0894246],[72.8476722,19.0894534],[72.8474902,19.089454],[72.8473327,19.0894498],[72.8471702,19.0894316],[72.8469683,19.0893948],[72.8462048,19.0892242],[72.8461863,19.0895518],[72.84597,19.0896086],[72.8459309,19.089707],[72.845877,19.089754],[72.8453145,19.089968],[72.8442821,19.0904715],[72.8442705,19.0904761],[72.8442679,19.0904772],[72.8437645,19.0906789],[72.8437191,19.090636],[72.8436699,19.0905896],[72.8436693,19.090589],[72.8435653,19.0904908],[72.8434154,19.0903838],[72.8433731,19.0903753],[72.8433308,19.0903694],[72.843088,19.0903945],[72.8428127,19.0904229]]]]}}]}