{"type":"FeatureCollection","features":[{"type":"Feature","properties":{"ward": "KW"},"geometry":{"type":"MultiPolygon","coordinates":[[[[72.7832087,19.1348374],[72.7830597,19.1349444],[72.7830001,19.1350683],[72.7828928,19.1351303],[72.7828213,19.1350908],[72.7827557,19.1349838],[72.7827021,19.1350627],[72.7827021,19.1351584],[72.7826246,19.1351753],[72.7825292,19.1352147],[72.7824756,19.1352767],[72.7823742,19.1352767],[72.7822431,19.1353555],[72.7820881,19.135333],[72.781957,19.1353499],[72.7818616,19.1353499],[72.7817305,19.1353048],[72.7814802,19.1353048],[72.7813312,19.1352203],[72.7812835,19.1351415],[72.7811941,19.1350908],[72.7811106,19.1350402],[72.7810868,19.1348825],[72.7809914,19.1347811],[72.7808603,19.1346741],[72.7808126,19.1345052],[72.7808364,19.1342631],[72.7806517,19.134325],[72.7805325,19.1342405],[72.7803894,19.1341054],[72.7803477,19.1340265],[72.7802821,19.1337619],[72.7803238,19.1335986],[72.7805742,19.1332663],[72.7806219,19.1332213],[72.780759,19.1332438],[72.7808245,19.1332776],[72.7809437,19.13321],[72.7810153,19.1330974],[72.7810927,19.1327989],[72.7811345,19.1326976],[72.7810987,19.1325455],[72.7813788,19.1323147],[72.7814265,19.1323879],[72.781504,19.1324329],[72.7816232,19.1324104],[72.7817543,19.1322752],[72.7818676,19.1322471],[72.7818855,19.1320218],[72.7820464,19.1318079],[72.7822014,19.1317009],[72.7822073,19.1316108],[72.7823206,19.1315713],[72.7825352,19.1314981],[72.7826425,19.1314643],[72.7828213,19.1313517],[72.7828213,19.1312335],[72.7829286,19.1311997],[72.7829464,19.1310533],[72.7831372,19.1309181],[72.7832147,19.1308956],[72.7832623,19.1308224],[72.7835127,19.1306816],[72.7835604,19.1307267],[72.7836855,19.130721],[72.7837809,19.1306028],[72.7838524,19.1305802],[72.7838882,19.1306309],[72.7838286,19.1307435],[72.7837094,19.1308168],[72.783459,19.1309069],[72.7832683,19.1309744],[72.783161,19.1310138],[72.7831312,19.1311434],[72.7829107,19.1313742],[72.7827617,19.1315657],[72.7825531,19.1317684],[72.7823206,19.1319148],[72.7822312,19.1320331],[72.7822848,19.1321176],[72.7821835,19.1322978],[72.7822371,19.1323653],[72.7823683,19.1323653],[72.7824577,19.1322189],[72.7825113,19.1320894],[72.7827021,19.1320894],[72.7829226,19.1321288],[72.7832266,19.1324667],[72.7832743,19.1325624],[72.7832862,19.1327595],[72.7832325,19.1330636],[72.7833816,19.133272],[72.7835306,19.1333058],[72.7836379,19.133379],[72.7837153,19.1335535],[72.7837094,19.1337281],[72.7837869,19.1338463],[72.7837749,19.1339759],[72.7837332,19.1340603],[72.7835127,19.1342124],[72.7833564,19.1343478],[72.783316,19.1344038],[72.7833279,19.1345277],[72.7832862,19.1347023],[72.7832087,19.1348374]]],[[[72.7888177,19.1448706],[72.7886617,19.1448059],[72.7882969,19.1445753],[72.7879697,19.1440989],[72.7877363,19.1434432],[72.7876071,19.1429394],[72.7875003,19.1421376],[72.7875231,19.1419907],[72.787621,19.141864],[72.7877672,19.1418539],[72.788132,19.1416157],[72.7881803,19.1410709],[72.7880703,19.140217],[72.7882513,19.1396899],[72.7883854,19.1392059],[72.788423,19.1385775],[72.7883506,19.1380682],[72.7884149,19.1373713],[72.7882607,19.1358081],[72.7879831,19.1351186],[72.7879335,19.1347651],[72.7879496,19.1344952],[72.7878946,19.1337604],[72.7878946,19.1334702],[72.7876291,19.1330939],[72.7874601,19.1330103],[72.7873635,19.1330002],[72.7869987,19.1332029],[72.7867305,19.1335234],[72.7865267,19.1335526],[72.7863215,19.1335298],[72.7860688,19.1334581],[72.785958,19.1333068],[72.7859443,19.1331623],[72.786031,19.132971],[72.7859715,19.1327569],[72.7860052,19.1325423],[72.7863289,19.1322752],[72.7865075,19.1322387],[72.7867176,19.1322091],[72.7868063,19.1322146],[72.7868885,19.1322347],[72.7870973,19.132321],[72.7871852,19.1324211],[72.7873143,19.1324747],[72.7874645,19.1325457],[72.7876254,19.1324849],[72.7877649,19.1323734],[72.7878829,19.1321707],[72.7881092,19.1319511],[72.7879965,19.1319055],[72.7881675,19.1315737],[72.788195,19.1315203],[72.7882822,19.1312419],[72.7883506,19.1310033],[72.7883023,19.1307829],[72.7882487,19.1306536],[72.7881833,19.1305387],[72.7880653,19.1305387],[72.7878329,19.1306663],[72.7877176,19.1307474],[72.7874842,19.1307879],[72.7873786,19.1306097],[72.7872928,19.1303765],[72.786928,19.130265],[72.7869817,19.1300724],[72.7870353,19.1298799],[72.7870675,19.129667],[72.7870568,19.1294947],[72.7870889,19.1294212],[72.787157,19.1293688],[72.7874118,19.1294753],[72.7875486,19.1295918],[72.7877095,19.1296425],[72.7878571,19.1296957],[72.7880985,19.1296907],[72.7882996,19.1296831],[72.7883828,19.1295994],[72.7884793,19.1295842],[72.7885839,19.1296451],[72.7885973,19.1298554],[72.7886768,19.1299305],[72.7888163,19.1299609],[72.7889451,19.1299989],[72.7890265,19.1299086],[72.7891489,19.1299609],[72.7890989,19.1301544],[72.7891633,19.1304788],[72.7892491,19.1307296],[72.7895308,19.1309932],[72.7897131,19.1310489],[72.7898875,19.1310641],[72.7901101,19.1310363],[72.7902754,19.1310759],[72.7904471,19.1310354],[72.7905651,19.1310075],[72.7907555,19.1310024],[72.790845,19.1309755],[72.7909111,19.1309061],[72.7911123,19.1309163],[72.7913831,19.1310151],[72.7915612,19.1309602],[72.7917087,19.1307702],[72.7917345,19.1306502],[72.7917221,19.1305066],[72.7915719,19.1302836],[72.7915773,19.1301975],[72.791639,19.1301291],[72.7918509,19.1300759],[72.7919984,19.1302026],[72.79217,19.1302938],[72.79228,19.1301899],[72.7923729,19.1301713],[72.7925526,19.1304297],[72.7925965,19.1304129],[72.7925955,19.1302625],[72.7927253,19.1302178],[72.7928718,19.1302448],[72.7929603,19.1303385],[72.7930166,19.1303436],[72.7931186,19.1302853],[72.7933127,19.1302862],[72.7934253,19.1303267],[72.793479,19.1304509],[72.7934709,19.1307322],[72.7936479,19.1308817],[72.7938706,19.1309222],[72.7940771,19.1308361],[72.7941442,19.1308614],[72.7942316,19.1310227],[72.7943051,19.1310667],[72.7943846,19.1310557],[72.7944355,19.1310505],[72.7944757,19.1309949],[72.7944919,19.130896],[72.7945991,19.1308783],[72.7948003,19.1313091],[72.794989,19.1315279],[72.795208,19.1319299],[72.7952304,19.1322729],[72.7952224,19.1327087],[72.7952465,19.1328798],[72.7952854,19.1329507],[72.7953753,19.1330255],[72.7956194,19.1331079],[72.7957991,19.133156],[72.795842,19.1329824],[72.7963355,19.1330103],[72.7963006,19.1333853],[72.7965045,19.133621],[72.7966064,19.1337148],[72.7967342,19.1340256],[72.7967342,19.1342993],[72.7966162,19.134725],[72.7964981,19.1348263],[72.7965089,19.1350899],[72.7965196,19.1353534],[72.7966698,19.1356372],[72.7965732,19.1359413],[72.7963265,19.1362454],[72.7961119,19.1364278],[72.7958973,19.1366508],[72.7958437,19.1368434],[72.7958651,19.1371069],[72.7958115,19.1373299],[72.7957042,19.1374718],[72.7956291,19.1376239],[72.7956828,19.1377759],[72.795833,19.1379989],[72.7958544,19.1383334],[72.7957686,19.1384854],[72.7956291,19.1388807],[72.7953072,19.1391949],[72.7948352,19.1396308],[72.7944704,19.1401578],[72.7941269,19.1405704],[72.7941076,19.1409411],[72.7943024,19.1410988],[72.7946569,19.1412093],[72.7947275,19.1411486],[72.7953726,19.1411343],[72.7954933,19.1410329],[72.7956757,19.1409619],[72.7958742,19.1409467],[72.79596,19.1409974],[72.7959681,19.1412305],[72.7962126,19.1412647],[72.7962001,19.1415429],[72.7964615,19.1415675],[72.7964991,19.1413142],[72.7965662,19.1411773],[72.7965072,19.1410076],[72.7965069,19.1408712],[72.7970642,19.1400075],[72.7971724,19.1400979],[72.7972046,19.1404095],[72.7973792,19.1408153],[72.7975308,19.1409145],[72.7979986,19.1407697],[72.798261,19.1405165],[72.7981626,19.140927],[72.7981334,19.1414405],[72.7980958,19.1423896],[72.798078,19.1424082],[72.7980667,19.1424847],[72.7980734,19.1425136],[72.7980768,19.1425285],[72.7980736,19.1425423],[72.7980579,19.1426091],[72.7980504,19.1426408],[72.7980456,19.1426611],[72.7980654,19.1426677],[72.7980756,19.142671],[72.7981314,19.1427072],[72.7981362,19.1427903],[72.7981417,19.1428474],[72.7980852,19.1428272],[72.798066,19.1428203],[72.798006,19.1427988],[72.797964,19.1427838],[72.7978813,19.1427494],[72.7977789,19.1427068],[72.7975302,19.1426315],[72.7973349,19.1425259],[72.7972957,19.1424953],[72.7971711,19.1423979],[72.7971677,19.1423953],[72.7969291,19.1422448],[72.7968109,19.1421704],[72.796772,19.1421458],[72.7966309,19.1420939],[72.796376,19.142048],[72.7963441,19.1420422],[72.7962685,19.1420286],[72.7961865,19.1420138],[72.7961184,19.1420098],[72.7960761,19.1420073],[72.7960695,19.1420069],[72.7960655,19.1420079],[72.7960423,19.1420137],[72.7960114,19.1420214],[72.7960094,19.1420219],[72.7958855,19.1420528],[72.7958485,19.142062],[72.7955565,19.1421345],[72.795444,19.1422476],[72.7953191,19.142371],[72.7953066,19.142373],[72.79516,19.1423971],[72.7950515,19.1424431],[72.7950949,19.1425621],[72.795116,19.1426201],[72.7951184,19.1426268],[72.7950349,19.1427463],[72.7950218,19.1427664],[72.7950173,19.1427668],[72.7950099,19.1427676],[72.7949974,19.1427689],[72.7949496,19.1427741],[72.7948414,19.1427859],[72.7948052,19.1427896],[72.7947994,19.1427898],[72.7947418,19.1427917],[72.7946153,19.1427958],[72.7946087,19.142796],[72.7945441,19.1429408],[72.7945355,19.1429602],[72.7945283,19.1429764],[72.7945262,19.1429809],[72.7943004,19.1431294],[72.7940653,19.1432867],[72.7940534,19.1432946],[72.7939718,19.1433586],[72.7939504,19.1433753],[72.793941,19.143397],[72.7939375,19.143405],[72.7939319,19.1434178],[72.7939138,19.1434596],[72.7938884,19.1434928],[72.7938782,19.143506],[72.7938477,19.1435415],[72.7937379,19.1436688],[72.7937279,19.1436803],[72.7937246,19.1436842],[72.7936862,19.1437327],[72.7936466,19.1437827],[72.7935282,19.1438645],[72.7930863,19.1441551],[72.7929583,19.1442209],[72.7929531,19.144223],[72.7922585,19.1445359],[72.7921953,19.1445643],[72.7921887,19.1445664],[72.7920187,19.1446326],[72.7919326,19.1446661],[72.7918141,19.1447123],[72.7917744,19.1447313],[72.7917669,19.1447356],[72.7916651,19.1447797],[72.791654,19.1447839],[72.7915661,19.144828],[72.7915422,19.14484],[72.791498,19.1448622],[72.791446,19.1448832],[72.7914451,19.1448836],[72.7913368,19.1448919],[72.7912804,19.1448989],[72.7912646,19.1449009],[72.7912611,19.1449014],[72.7910395,19.1449183],[72.7909803,19.1449228],[72.7909206,19.1449283],[72.7908484,19.144935],[72.7908416,19.1449356],[72.7908098,19.1449385],[72.7907623,19.1449429],[72.7907237,19.1449465],[72.7906191,19.1449578],[72.7904774,19.1449732],[72.7902983,19.1449908],[72.790187,19.1449841],[72.7901869,19.1449841],[72.7901856,19.144984],[72.7901631,19.1449824],[72.7901193,19.144967],[72.790047,19.1449417],[72.7899794,19.1449178],[72.7898752,19.1448808],[72.7897525,19.1448404],[72.7897399,19.1448363],[72.7896399,19.1448033],[72.7895084,19.1447638],[72.7894675,19.1447515],[72.7893909,19.1447249],[72.7893538,19.1447085],[72.7893117,19.14469],[72.7893094,19.144689],[72.7888177,19.1448706]]],[[[72.8042561,19.1454495],[72.8039373,19.1447399],[72.8037518,19.144327],[72.8035989,19.1439849],[72.8035131,19.1437847],[72.8034782,19.1436175],[72.8035873,19.1434956],[72.8036543,19.1434208],[72.8037637,19.1433295],[72.8036989,19.1432475],[72.8034581,19.1434274],[72.8033572,19.1434715],[72.8032535,19.143318],[72.8033366,19.1431687],[72.8033095,19.1430953],[72.8032842,19.1429884],[72.8032538,19.1429165],[72.8032318,19.1428463],[72.8031811,19.1427441],[72.8031372,19.1426005],[72.8030358,19.1423578],[72.8028297,19.1420897],[72.8026979,19.1419779],[72.8024343,19.1418502],[72.8021741,19.1416331],[72.8020526,19.1414269],[72.8020352,19.1412153],[72.802022,19.1411223],[72.8020186,19.1409755],[72.8020152,19.1407967],[72.8019983,19.1405221],[72.8021639,19.1403242],[72.8027012,19.1401103],[72.8031372,19.1399251],[72.8036137,19.1396793],[72.8039212,19.1395133],[72.8040826,19.1394371],[72.8041848,19.1393888],[72.8044551,19.1392132],[72.804837,19.1390089],[72.8052433,19.138593],[72.8058871,19.1381038],[72.8063152,19.1378372],[72.8064716,19.137716],[72.806721,19.1374879],[72.8070375,19.1372472],[72.8071574,19.1371291],[72.8072807,19.1369349],[72.8075259,19.1368279],[72.8077456,19.1365757],[72.8080018,19.1363868],[72.8082061,19.1361456],[72.8084443,19.135951],[72.8089419,19.1355139],[72.809296,19.1351845],[72.8094649,19.1349995],[72.8096608,19.1347715],[72.8102856,19.1338998],[72.81057,19.1335678],[72.8108195,19.1331016],[72.8111279,19.1327189],[72.8117555,19.1319511],[72.8119218,19.1316901],[72.812115,19.1314493],[72.8122196,19.1312947],[72.8124019,19.1310591],[72.8126943,19.1306916],[72.813094,19.1301721],[72.8133082,19.1298559],[72.8138638,19.1289786],[72.8144807,19.1281246],[72.8150734,19.1269336],[72.8152531,19.1265813],[72.8156635,19.1260137],[72.8159881,19.1255195],[72.8164789,19.1247263],[72.8170099,19.123776],[72.8172702,19.1233452],[72.8175933,19.1229512],[72.8180301,19.1223236],[72.8181674,19.1218509],[72.8184868,19.1213396],[72.8187074,19.121061],[72.8190133,19.1208703],[72.8191439,19.1208515],[72.819177,19.1208298],[72.8191973,19.1207875],[72.8192804,19.1206122],[72.8195373,19.1197246],[72.819713,19.1192967],[72.8199158,19.1186453],[72.8201857,19.1179016],[72.820808,19.1166244],[72.8213337,19.1153623],[72.8217173,19.1143536],[72.8221518,19.1132841],[72.822479,19.112245],[72.8227338,19.1112769],[72.822994,19.1104634],[72.823222,19.1090162],[72.8234902,19.1077668],[72.8237236,19.1063221],[72.8238174,19.1058],[72.8240131,19.1046217],[72.8242729,19.1031371],[72.8247284,19.1016042],[72.8248334,19.101269],[72.8249586,19.1009013],[72.8252394,19.0999144],[72.8255033,19.099154],[72.825844,19.0981401],[72.825993,19.097436],[72.8261606,19.0968298],[72.8262448,19.096478],[72.8265532,19.093994],[72.8265479,19.0921869],[72.8265318,19.0901363],[72.8264567,19.0890414],[72.8262797,19.0884837],[72.8260196,19.087305],[72.8257352,19.0865725],[72.8254965,19.0857816],[72.8251666,19.0851632],[72.8249225,19.0848666],[72.8247213,19.0845953],[72.8245416,19.0843774],[72.8242888,19.0841796],[72.8241152,19.0840529],[72.8238533,19.083906],[72.8234768,19.0839642],[72.8231058,19.0840779],[72.8229351,19.0841904],[72.8227198,19.0845201],[72.8226138,19.085674],[72.8225876,19.0856853],[72.8225521,19.0856821],[72.822521,19.0856711],[72.8226213,19.0844435],[72.8228666,19.0841069],[72.8240561,19.0835155],[72.8241317,19.0833768],[72.8241888,19.083174],[72.824209,19.0830111],[72.8242288,19.0828631],[72.8242618,19.0826072],[72.8242269,19.0823093],[72.824217,19.0822252],[72.8242116,19.0821799],[72.824206,19.0821331],[72.824089,19.0817959],[72.8240394,19.0816771],[72.8241968,19.0816052],[72.8244377,19.0815056],[72.8246368,19.0814233],[72.8249779,19.0812828],[72.8251222,19.0812405],[72.8254503,19.0811442],[72.8257629,19.0810652],[72.8260076,19.0810033],[72.8263796,19.0809338],[72.8264981,19.0809117],[72.8266735,19.0808789],[72.8267462,19.0808479],[72.8268413,19.0808558],[72.8270185,19.0808655],[72.8272159,19.0808348],[72.8273439,19.0807538],[72.8274989,19.0807812],[72.8275057,19.0807882],[72.8275112,19.0807939],[72.8275771,19.0808601],[72.8276004,19.0808835],[72.8276546,19.0809385],[72.8276792,19.0809636],[72.8278048,19.0810799],[72.8279039,19.0813356],[72.8279321,19.0814084],[72.8280876,19.0817991],[72.8280967,19.081822],[72.8282182,19.0821253],[72.8282575,19.0821879],[72.8283522,19.082348],[72.8283522,19.0823575],[72.828524,19.0824715],[72.8286004,19.0826813],[72.8297939,19.0837103],[72.8298431,19.0838555],[72.829865,19.0839056],[72.8298752,19.0839289],[72.8299309,19.0840772],[72.8299749,19.0841958],[72.8300008,19.0842367],[72.8300149,19.0842729],[72.830098,19.0844881],[72.8302055,19.0847907],[72.8302601,19.0849465],[72.8303145,19.0851035],[72.8303467,19.0851955],[72.8303726,19.0852678],[72.8303752,19.0852748],[72.830407,19.085355],[72.832196,19.0848334],[72.8322104,19.0848643],[72.8324762,19.08615],[72.8325217,19.0863697],[72.8326661,19.0863772],[72.8326871,19.0863814],[72.8326927,19.0863825],[72.8327033,19.0863846],[72.8328047,19.086405],[72.8329731,19.0864231],[72.833312,19.0864428],[72.8333301,19.0864445],[72.8337833,19.0864853],[72.8339661,19.0865018],[72.8339852,19.0865035],[72.8339909,19.086504],[72.8340357,19.0865355],[72.8340424,19.0865403],[72.8340465,19.0865432],[72.8340702,19.0865599],[72.834298,19.0864953],[72.8343079,19.0864925],[72.8343141,19.0864907],[72.8343599,19.0864777],[72.8345177,19.0864901],[72.8345177,19.0864904],[72.8348632,19.0864826],[72.8355623,19.0865306],[72.8366676,19.0866022],[72.8378739,19.0866772],[72.8381247,19.0866802],[72.8381441,19.0872269],[72.8381518,19.0874448],[72.8381528,19.087472],[72.8381621,19.0877016],[72.8381707,19.0879118],[72.8381782,19.0880963],[72.8381803,19.0881489],[72.8381828,19.0882097],[72.8381849,19.0882609],[72.8381897,19.0883797],[72.8381929,19.0884305],[72.8381998,19.0885385],[72.8382104,19.0887066],[72.8382146,19.0887728],[72.8382264,19.0889589],[72.8382346,19.0890884],[72.8382411,19.089192],[72.838251,19.0893489],[72.8382591,19.0894759],[72.8382669,19.0895994],[72.8382687,19.0896285],[72.8382695,19.0896405],[72.838271,19.089665],[72.8382745,19.0897198],[72.8383403,19.0897187],[72.8383931,19.08972],[72.838459,19.0897225],[72.8385214,19.0897283],[72.8385834,19.0897346],[72.8386453,19.0897414],[72.8387071,19.0897488],[72.8387689,19.0897568],[72.8388305,19.0897653],[72.8388921,19.0897744],[72.8389536,19.0897841],[72.839015,19.0897942],[72.8390763,19.089805],[72.8391374,19.0898163],[72.8391985,19.0898281],[72.8392594,19.0898405],[72.8393202,19.0898534],[72.8393809,19.0898669],[72.8394409,19.0898808],[72.8395424,19.0899066],[72.8395771,19.0899169],[72.8413777,19.0905301],[72.8414944,19.0905573],[72.8415514,19.0905683],[72.8416276,19.0905666],[72.8417528,19.0905629],[72.8426997,19.0904379],[72.8428127,19.0904229],[72.8428208,19.0904714],[72.8428406,19.0905904],[72.842874,19.0907833],[72.8431939,19.0926327],[72.8432418,19.0932276],[72.8432653,19.0934202],[72.8434719,19.0946979],[72.8434745,19.0947173],[72.8435287,19.0949717],[72.8436982,19.0966209],[72.843945,19.0983935],[72.8439457,19.0983998],[72.8439482,19.0984231],[72.8439719,19.0986843],[72.8439763,19.0987372],[72.8439905,19.0988656],[72.8441994,19.1007649],[72.8442084,19.101123],[72.8443058,19.1019393],[72.8444134,19.1024588],[72.8446335,19.1038599],[72.8446889,19.104223],[72.8449582,19.105994],[72.8450108,19.1066374],[72.8451516,19.1078849],[72.8455314,19.1102126],[72.845899,19.1125304],[72.8459708,19.1129836],[72.8462113,19.1147772],[72.8463137,19.1155412],[72.8463159,19.1155553],[72.8463265,19.115623],[72.8463538,19.1158133],[72.8465249,19.1171183],[72.8467037,19.118286],[72.8470801,19.1213868],[72.8470869,19.1214368],[72.847116,19.1216516],[72.8471799,19.122217],[72.8471967,19.1223648],[72.8472737,19.123046],[72.8473201,19.1234568],[72.8473892,19.1240676],[72.8474013,19.1241746],[72.8475893,19.1259985],[72.847621,19.1263458],[72.8478048,19.1278084],[72.8478213,19.127927],[72.8478595,19.1282006],[72.8478622,19.1282201],[72.8483497,19.1320124],[72.848596,19.1338639],[72.84873,19.1348709],[72.8487326,19.1348881],[72.8487406,19.1349405],[72.8487439,19.1349694],[72.848953,19.1362378],[72.8491274,19.1373205],[72.8491735,19.137701],[72.8493145,19.1388635],[72.849324,19.1389735],[72.8493341,19.1390967],[72.8493471,19.1392044],[72.8495003,19.1404792],[72.8496351,19.1413231],[72.8498378,19.1426772],[72.8498907,19.1430126],[72.8499689,19.1435094],[72.8499765,19.1435575],[72.8494172,19.1435852],[72.8492469,19.1436185],[72.8492039,19.1436268],[72.8490542,19.143676],[72.8490539,19.143676],[72.8490538,19.1436761],[72.8490536,19.1436761],[72.8490534,19.1436762],[72.8488359,19.1437321],[72.8488056,19.1437387],[72.8487537,19.14375],[72.8483575,19.1438419],[72.8483752,19.1441619],[72.8483801,19.1442465],[72.8483935,19.1444793],[72.8484738,19.1446414],[72.8484595,19.144699],[72.8484361,19.1448014],[72.8483889,19.1449753],[72.848368,19.145073],[72.8483401,19.1452032],[72.8483179,19.1452733],[72.8483179,19.1452734],[72.8483013,19.1453815],[72.8482991,19.1453869],[72.8482697,19.1454293],[72.8481935,19.1455377],[72.8481718,19.1455685],[72.8480118,19.1457764],[72.8479635,19.1458251],[72.8477411,19.1460915],[72.8475581,19.1461896],[72.8474727,19.1462354],[72.8474673,19.146237],[72.8474643,19.1462379],[72.8474578,19.1462398],[72.8473769,19.146264],[72.8471677,19.1462992],[72.8471589,19.1462984],[72.847057,19.1462896],[72.8470511,19.1462867],[72.8470148,19.1462691],[72.8469933,19.1462586],[72.8469786,19.1462514],[72.8469215,19.1462255],[72.8468191,19.1461791],[72.8467661,19.146155],[72.8466734,19.1461265],[72.8465353,19.1461208],[72.8464601,19.1462084],[72.84646,19.1462085],[72.8464599,19.1462085],[72.8464599,19.1462086],[72.8463158,19.1463721],[72.8461406,19.1464684],[72.8460769,19.1465035],[72.8459313,19.1465828],[72.8460237,19.1467065],[72.8460744,19.1467744],[72.8461252,19.1468423],[72.8462936,19.1470678],[72.8460936,19.1472063],[72.8460766,19.1472224],[72.8459537,19.1473021],[72.8459356,19.1473243],[72.8458771,19.1473697],[72.8458005,19.1473506],[72.8456597,19.1475324],[72.8456112,19.1475612],[72.8455601,19.1475916],[72.8455002,19.1476271],[72.845491,19.1476326],[72.8454776,19.1476873],[72.8454489,19.147817],[72.8454016,19.1480308],[72.8453963,19.1480551],[72.8453693,19.1481388],[72.8453265,19.1482514],[72.8452862,19.1483596],[72.8452484,19.148461],[72.845229,19.1484888],[72.8451938,19.1485395],[72.845088,19.1486991],[72.8450716,19.1487238],[72.844991,19.1488219],[72.8449452,19.1488673],[72.8449065,19.1489058],[72.8448826,19.1489338],[72.8448819,19.1489346],[72.844881,19.1489356],[72.8448394,19.1489843],[72.8448153,19.1490125],[72.8446819,19.149177],[72.8445317,19.1493612],[72.8444506,19.1494545],[72.8444117,19.1495071],[72.8441522,19.1497452],[72.8438835,19.1499516],[72.8438349,19.1499733],[72.8436755,19.1500053],[72.8435888,19.1500642],[72.8434407,19.1501695],[72.8433968,19.1502007],[72.8433515,19.1502173],[72.8433172,19.1502299],[72.8432472,19.1502484],[72.8432233,19.1502486],[72.8431183,19.1502493],[72.8431129,19.1502486],[72.8430437,19.1502392],[72.8430105,19.1502346],[72.8429263,19.1502232],[72.842839,19.1502114],[72.8427335,19.1501971],[72.8426437,19.150185],[72.8425643,19.1501742],[72.8425227,19.1501684],[72.8425039,19.1501657],[72.8424635,19.1501604],[72.8424025,19.1501524],[72.8423612,19.150147],[72.8421933,19.1501174],[72.8421618,19.1501118],[72.8420859,19.1500985],[72.8420372,19.1500916],[72.8416848,19.1500418],[72.8416456,19.1500363],[72.8415986,19.1500297],[72.8414426,19.1500079],[72.8412472,19.1499805],[72.8410214,19.1499471],[72.8406225,19.1498926],[72.8403835,19.1498591],[72.8403555,19.1498551],[72.8400855,19.1500711],[72.839949,19.1501811],[72.8399421,19.1501861],[72.8398246,19.150271],[72.8396803,19.1505949],[72.8396208,19.1507295],[72.839581,19.1507989],[72.8395526,19.1508309],[72.839517,19.1508556],[72.8394543,19.1508747],[72.8392658,19.1508778],[72.8390316,19.1509028],[72.8386104,19.1509477],[72.8385114,19.1509622],[72.8380491,19.1510056],[72.8368026,19.1510992],[72.8362025,19.1511249],[72.8361899,19.1511253],[72.8358988,19.1511353],[72.8357155,19.1511327],[72.8356654,19.151132],[72.8356285,19.1511315],[72.8356278,19.1511315],[72.8355343,19.1511301],[72.8350648,19.1511312],[72.8340732,19.1511614],[72.8336541,19.1511899],[72.8331604,19.1512369],[72.8330014,19.1512705],[72.8329049,19.1512909],[72.8325966,19.1513798],[72.832313,19.1515053],[72.8321137,19.1516375],[72.8318778,19.1517821],[72.831704,19.1519206],[72.8315845,19.152003],[72.8314721,19.1520806],[72.8312445,19.1522466],[72.8311909,19.1522857],[72.8311034,19.1523571],[72.8303131,19.1528766],[72.8301133,19.1530079],[72.8301036,19.1530143],[72.8300727,19.1530332],[72.8300392,19.1530523],[72.8299413,19.1531027],[72.8295513,19.1533107],[72.8291283,19.1535364],[72.8287565,19.1537346],[72.8284322,19.1538961],[72.8284128,19.1539058],[72.8283495,19.1539202],[72.8282445,19.153926],[72.8279937,19.1539567],[72.8237456,19.1515165],[72.8228456,19.1510069],[72.8220061,19.1505123],[72.821876,19.1509964],[72.8213686,19.1528841],[72.8213265,19.1530407],[72.8209655,19.1543838],[72.8206764,19.1550054],[72.8205542,19.1552727],[72.820445,19.1555073],[72.8203546,19.1557028],[72.8200267,19.1559062],[72.8198473,19.156003],[72.8197459,19.1560376],[72.8196604,19.1560661],[72.8192757,19.1561924],[72.8188764,19.1563207],[72.8182253,19.1565348],[72.8178729,19.1562087],[72.8158464,19.1546999],[72.8141851,19.1535697],[72.8137486,19.153264],[72.8110411,19.1559953],[72.810907,19.1558638],[72.8101609,19.155],[72.8094625,19.1540324],[72.8091046,19.1534747],[72.8086141,19.152913],[72.8081672,19.1523737],[72.8078714,19.1519739],[72.8077687,19.1518444],[72.8067854,19.1508503],[72.8060217,19.1499456],[72.8052187,19.1482529],[72.8048483,19.1473602],[72.8047293,19.1470734],[72.8044773,19.146182],[72.8042561,19.1454495]]]]}}]}