{"type":"FeatureCollection","features":[{"type":"Feature","properties":{"ward": "ME"},"geometry":{"type":"MultiPolygon","coordinates":[[[[72.9043803,18.9952683],[72.904847,18.995565],[72.9051916,18.9956614],[72.9052775,18.9958021],[72.9052842,18.995934],[72.9053204,18.9959961],[72.9053646,18.9959873],[72.9054089,18.9959023],[72.9055319,18.9959663],[72.9053441,18.9962176],[72.9054537,18.9962754],[72.9056374,18.9960165],[72.9056557,18.9960069],[72.9056852,18.9960139],[72.9057093,18.9960266],[72.9057183,18.996044],[72.90572,18.9960652],[72.9055525,18.9964483],[72.9046296,18.9978102],[72.904749,18.9979243],[72.9048683,18.9980376],[72.9050159,18.9980821],[72.9055367,18.9981438],[72.9059011,18.9976002],[72.905826,18.9975381],[72.9059789,18.9973593],[72.9060553,18.9974151],[72.9062431,18.9971349],[72.9063183,18.9970859],[72.9064174,18.9971469],[72.9058534,18.9979216],[72.9059413,18.9979718],[72.9058461,18.9981265],[72.9061103,18.9981785],[72.9067813,18.9981656],[72.9068989,18.9982431],[72.9069525,18.9987706],[72.907607,18.9990699],[72.907961,18.9989735],[72.9082319,18.9988569],[72.9083794,18.9985982],[72.908543,18.998441],[72.9088408,18.998517],[72.9093611,18.9988797],[72.9098064,18.9989761],[72.9100317,18.9988746],[72.9102355,18.9987174],[72.913143,18.9987225],[72.9135454,18.9983776],[72.9140013,18.9982],[72.91457,18.9981848],[72.9152191,18.9983776],[72.9171556,18.9989558],[72.9194731,18.9978449],[72.9215544,18.9992906],[72.9225844,19.0000666],[72.9235591,19.0010123],[72.926647,19.0024473],[72.9292416,19.0039265],[72.9421323,19.0134718],[72.949444,19.0185789],[72.9518473,19.0203337],[72.9533069,19.0214969],[72.9538857,19.0221493],[72.9551625,19.0232346],[72.9561549,19.024368],[72.9576221,19.0262926],[72.9582417,19.0272156],[72.9587406,19.0279459],[72.9591483,19.0286153],[72.9598242,19.0297564],[72.9602319,19.0304396],[72.9608864,19.0315516],[72.9619968,19.0337524],[72.9626942,19.0356389],[72.963118,19.037576],[72.9635953,19.0395638],[72.9637402,19.0414806],[72.9638636,19.0434127],[72.9635954,19.0451722],[72.9634612,19.046947],[72.9631019,19.0495533],[72.9629624,19.052195],[72.9628283,19.0528542],[72.9627479,19.0539799],[72.9626834,19.0546898],[72.9626901,19.0549091],[72.9625909,19.0555481],[72.9625748,19.0564126],[72.9625091,19.0570476],[72.9624045,19.0578107],[72.9627039,19.060747],[72.9621416,19.0624677],[72.9618037,19.0636796],[72.9615086,19.0660777],[72.9615247,19.0672997],[72.9563368,19.0635002],[72.9562029,19.0635246],[72.955904,19.0635564],[72.9558392,19.0635574],[72.9557879,19.0635581],[72.9557791,19.0635583],[72.9556579,19.0635536],[72.9555339,19.0635488],[72.9554091,19.0635456],[72.9553705,19.0635452],[72.9552843,19.0635441],[72.9551595,19.0635427],[72.9551551,19.0635424],[72.9550384,19.0635363],[72.9549084,19.0635346],[72.9547855,19.0635282],[72.954659,19.063525],[72.954569,19.0635215],[72.9545351,19.0635202],[72.9544262,19.0635177],[72.9543423,19.0635004],[72.9543059,19.063493],[72.9541818,19.0634748],[72.9541388,19.0634661],[72.9540597,19.06345],[72.9539634,19.0634333],[72.9539358,19.0634286],[72.9538724,19.0634161],[72.9538189,19.0634057],[72.9537346,19.0633905],[72.9537124,19.0633865],[72.953608,19.063319],[72.9535433,19.0632782],[72.9535036,19.0632531],[72.9534615,19.0632243],[72.9534028,19.0631841],[72.9533289,19.0631382],[72.9532965,19.0631181],[72.9532102,19.0630605],[72.953189,19.0630464],[72.9531652,19.0630288],[72.9530885,19.0629722],[72.9528614,19.0627945],[72.9526855,19.0626652],[72.9525554,19.0625696],[72.9523437,19.0624055],[72.9520844,19.0622178],[72.9520785,19.0622134],[72.9519215,19.0621013],[72.9518912,19.0620633],[72.9518474,19.0620094],[72.9518065,19.061959],[72.9517631,19.0619075],[72.9516898,19.0618116],[72.9515878,19.0616907],[72.9514514,19.0615253],[72.9513367,19.0613823],[72.9512176,19.0612392],[72.9511427,19.0611464],[72.9511366,19.0611388],[72.9510448,19.0610218],[72.9509372,19.060895],[72.9508482,19.0607838],[72.9507357,19.0606449],[72.9507192,19.0606243],[72.9505832,19.0604543],[72.9505288,19.060388],[72.9504386,19.060278],[72.9503369,19.0601547],[72.9502778,19.060083],[72.9500907,19.0598461],[72.950038,19.0597853],[72.949897,19.059617],[72.9497404,19.0594237],[72.9496848,19.059357],[72.9495798,19.0592313],[72.9494446,19.0590695],[72.9493312,19.0589282],[72.9492501,19.0588296],[72.9491291,19.0587799],[72.9490249,19.0587327],[72.9489038,19.0586848],[72.9487903,19.0586354],[72.9486638,19.0585801],[72.9485577,19.0585373],[72.9485361,19.0585281],[72.9484588,19.0584996],[72.9484451,19.0584945],[72.9482516,19.0584145],[72.9480341,19.0583196],[72.9473071,19.0580035],[72.9469468,19.0578528],[72.9466344,19.0577229],[72.945921,19.0574126],[72.9453108,19.0571493],[72.9451938,19.0570995],[72.9446134,19.0568524],[72.9441461,19.0566511],[72.9437755,19.0564926],[72.943712,19.0564712],[72.9436304,19.0564356],[72.9427147,19.0564754],[72.942676,19.056499],[72.9426736,19.0565005],[72.9425148,19.0565974],[72.942425,19.0566525],[72.9422952,19.0567322],[72.9418649,19.0588311],[72.9418133,19.0591007],[72.9382099,19.0603489],[72.9374816,19.0613339],[72.9373467,19.0615587],[72.9371343,19.0619128],[72.936972,19.0621832],[72.9367368,19.0625945],[72.9365556,19.062957],[72.9363567,19.0633548],[72.9362182,19.0636684],[72.9360818,19.0640062],[72.935875,19.0648012],[72.9354956,19.0662212],[72.9349184,19.0677643],[72.9346945,19.0685459],[72.9342415,19.0699363],[72.9332766,19.0712987],[72.9330996,19.0718206],[72.9328251,19.0727803],[72.9324137,19.0732875],[72.9316451,19.0738486],[72.9305926,19.0745932],[72.9299929,19.0749973],[72.9291495,19.0754871],[72.9281021,19.0758225],[72.9271651,19.075796],[72.9256367,19.0755823],[72.9243184,19.0753508],[72.9231057,19.0753348],[72.9220986,19.0746323],[72.9217992,19.0740225],[72.9216283,19.073826],[72.9214474,19.0736114],[72.9213161,19.0734887],[72.921211,19.0732946],[72.9209692,19.0729585],[72.9208352,19.0728523],[72.9207535,19.0727386],[72.9206845,19.0725398],[72.920576,19.0724371],[72.9204627,19.0723178],[72.9203314,19.0720624],[72.920222,19.0718903],[72.9201291,19.0717221],[72.920089,19.0715364],[72.9201381,19.0713547],[72.9201425,19.071259],[72.9200411,19.0711875],[72.9199403,19.0710442],[72.9199142,19.0708171],[72.9199678,19.0704693],[72.9198472,19.0700621],[72.9197107,19.0698219],[72.9196914,19.069536],[72.9195917,19.0694761],[72.9195327,19.0693218],[72.9195937,19.069206],[72.9195587,19.0690294],[72.9195316,19.0688925],[72.9195133,19.0688004],[72.9195195,19.0687198],[72.9195019,19.068626],[72.9195089,19.0684807],[72.9194242,19.0682473],[72.9194149,19.0682352],[72.9191759,19.067926],[72.9184317,19.0674776],[72.9181771,19.067323],[72.9179355,19.0672156],[72.91785,19.0671804],[72.917648,19.0670895],[72.9175006,19.0670247],[72.9173689,19.0669668],[72.9171188,19.0668552],[72.9169135,19.0667646],[72.9169005,19.0667589],[72.916706,19.0666738],[72.9165823,19.0666197],[72.9164085,19.0665437],[72.9151848,19.066093],[72.9147921,19.0659502],[72.9146748,19.0659022],[72.9146125,19.065878],[72.9143224,19.0657742],[72.9138164,19.0655874],[72.9135683,19.0655076],[72.9132135,19.0653999],[72.9130905,19.0653367],[72.9130288,19.0653226],[72.9129706,19.0653159],[72.9126674,19.0653197],[72.912536,19.0653114],[72.9121249,19.0652371],[72.911953,19.0651996],[72.9117388,19.0651001],[72.9117246,19.0650935],[72.9115638,19.0650188],[72.911773,19.0649469],[72.9117862,19.0649423],[72.9116668,19.0648131],[72.9114658,19.0645956],[72.911402,19.0645266],[72.9110195,19.0641126],[72.9107736,19.0638465],[72.9104675,19.0635153],[72.9104402,19.0634858],[72.9102776,19.0633276],[72.9101686,19.0632216],[72.9101166,19.0631658],[72.9099417,19.06297],[72.909892,19.0629144],[72.9097749,19.0627773],[72.9097637,19.0627643],[72.9094283,19.0623768],[72.9091577,19.0620723],[72.9088944,19.0617855],[72.9087832,19.0616517],[72.908599,19.0614299],[72.9084522,19.0612631],[72.9084497,19.0612603],[72.9083349,19.0611479],[72.908264,19.0610785],[72.9082599,19.0610745],[72.9082138,19.0610232],[72.9080217,19.0608092],[72.9079677,19.0607486],[72.9079,19.0606727],[72.9076594,19.0604029],[72.9075684,19.0603009],[72.9076322,19.0602456],[72.9076774,19.0602064],[72.9077722,19.0601242],[72.908,19.0600156],[72.9078965,19.0599015],[72.9078016,19.0598045],[72.9077258,19.0597309],[72.9078409,19.0596777],[72.9080908,19.0595621],[72.9083609,19.0594371],[72.9086282,19.0593148],[72.9087771,19.0592492],[72.9089001,19.059195],[72.9091594,19.0590697],[72.9096051,19.0588363],[72.9099573,19.0586429],[72.9103467,19.058429],[72.9106997,19.0582351],[72.910928,19.0581097],[72.9111383,19.0579942],[72.9113492,19.057865],[72.9114801,19.0577848],[72.9116379,19.0576881],[72.9117752,19.057603],[72.9121532,19.0573661],[72.9123733,19.0572267],[72.9123541,19.0571993],[72.912273,19.0570833],[72.9121958,19.056974],[72.9120893,19.0568245],[72.9119829,19.0566748],[72.9118974,19.0565491],[72.9118281,19.0564473],[72.9117483,19.0563334],[72.9116995,19.0562633],[72.9116311,19.0561647],[72.9115897,19.0561054],[72.911548,19.0560458],[72.9114913,19.0559652],[72.9114475,19.0559023],[72.9114081,19.0558453],[72.9113387,19.0557431],[72.9113057,19.0556932],[72.9112591,19.0556146],[72.9112153,19.0555345],[72.9111734,19.0554412],[72.9111612,19.0554116],[72.911143,19.0553675],[72.911115,19.0552813],[72.9110841,19.055172],[72.9108832,19.0540237],[72.9107997,19.0534659],[72.9105364,19.0511716],[72.910517,19.05094],[72.9105138,19.0509015],[72.9105031,19.0507907],[72.910495,19.050709],[72.9103638,19.0501282],[72.910344,19.0500372],[72.9103004,19.0498371],[72.910271,19.0497133],[72.9102438,19.0495732],[72.9102111,19.049421],[72.9101992,19.0493656],[72.9101783,19.0492693],[72.9101197,19.0490079],[72.9101128,19.048976],[72.9096178,19.0471902],[72.909611,19.0466988],[72.9094798,19.0463112],[72.9093917,19.0460875],[72.9093143,19.0458795],[72.9092827,19.0457831],[72.9091365,19.0457328],[72.9087618,19.0457354],[72.9085831,19.0457422],[72.9084346,19.0457468],[72.908164,19.045755],[72.9078161,19.0457656],[72.907589,19.0457726],[72.9071094,19.0457872],[72.9066109,19.0457956],[72.90606,19.0458049],[72.9057233,19.0458051],[72.9054578,19.0458053],[72.9050825,19.0458058],[72.9037124,19.0457699],[72.9035864,19.0457799],[72.9030425,19.0458257],[72.9029517,19.0458334],[72.9027226,19.0458527],[72.9021822,19.0458997],[72.9019397,19.0459284],[72.9017837,19.045947],[72.9011164,19.0460266],[72.900977,19.0460432],[72.9007402,19.0460715],[72.9006635,19.0460806],[72.9006336,19.0460842],[72.9006005,19.0460891],[72.9004038,19.0461179],[72.9002371,19.0461423],[72.9001623,19.0461533],[72.8996524,19.0461537],[72.8993678,19.0461472],[72.8991788,19.0461303],[72.8989067,19.0460955],[72.8988542,19.0460899],[72.8988282,19.0460867],[72.8989498,19.0452343],[72.8989567,19.0451237],[72.8989553,19.0450943],[72.8989509,19.0450298],[72.8988094,19.0447617],[72.8987481,19.0446594],[72.898671,19.044584],[72.8985396,19.0445283],[72.8982521,19.0444194],[72.8972902,19.0440573],[72.896564,19.0437922],[72.896504,19.0437215],[72.8963606,19.0432728],[72.8962623,19.04305],[72.8961718,19.0428574],[72.8961468,19.042785],[72.8960784,19.0424284],[72.8960475,19.0423984],[72.8960208,19.0423792],[72.8959842,19.0423585],[72.8959119,19.0423536],[72.8958508,19.0423556],[72.8956744,19.04239],[72.8956189,19.0424043],[72.8955517,19.0424413],[72.8952845,19.0426469],[72.8952864,19.0422102],[72.8952581,19.0415215],[72.8952429,19.0414903],[72.8952263,19.0414577],[72.8951927,19.0414196],[72.8951127,19.0413539],[72.8950479,19.041314],[72.8950026,19.0413],[72.8948927,19.0412821],[72.8946995,19.0412506],[72.8943867,19.0411904],[72.8943357,19.041179],[72.8942891,19.0411623],[72.8938865,19.0409417],[72.8941125,19.0405589],[72.8942049,19.0404075],[72.8943031,19.0402541],[72.8945339,19.0398888],[72.8946072,19.0397216],[72.8946318,19.0396501],[72.8947129,19.0393699],[72.8947374,19.0392784],[72.894766,19.0391627],[72.8947762,19.0391067],[72.8947822,19.0390738],[72.8948097,19.0389058],[72.8948219,19.0388055],[72.8948407,19.0386258],[72.8948565,19.0384458],[72.8948718,19.0382775],[72.8948837,19.0381588],[72.8948891,19.0381134],[72.8949026,19.0379964],[72.8949127,19.0379066],[72.8949223,19.0378167],[72.8949303,19.0377267],[72.894943,19.0375954],[72.8949521,19.0375075],[72.8949641,19.0373938],[72.8949767,19.0372773],[72.894995,19.037123],[72.8950003,19.0370835],[72.8950106,19.0370083],[72.8950232,19.0369188],[72.8950376,19.0368295],[72.8950536,19.0367181],[72.8950629,19.0366505],[72.8950756,19.036561],[72.8950914,19.036472],[72.8951254,19.036318],[72.8951478,19.0362296],[72.8951806,19.0361211],[72.8952073,19.0360344],[72.8952469,19.0359141],[72.8955624,19.0350425],[72.8958052,19.0343362],[72.8960403,19.0336928],[72.8964254,19.0326598],[72.8964857,19.0324541],[72.8965036,19.0323819],[72.8965158,19.0323016],[72.8965583,19.0319549],[72.896588,19.0318306],[72.8965998,19.0317919],[72.8966375,19.0317052],[72.8966752,19.0316185],[72.8967156,19.0315452],[72.8967517,19.03148],[72.8967676,19.0314466],[72.8968222,19.0312502],[72.8968341,19.0312048],[72.8968403,19.031162],[72.8968584,19.0308833],[72.8968705,19.0306958],[72.8968843,19.0304973],[72.8968919,19.0303877],[72.8968982,19.0302963],[72.8969039,19.0302136],[72.896909,19.0301409],[72.8969126,19.0300889],[72.8969167,19.0300041],[72.8969204,19.0299036],[72.8969232,19.0298441],[72.8969265,19.0297842],[72.8969175,19.0294877],[72.8969613,19.0293957],[72.8971561,19.029038],[72.8973477,19.0286832],[72.8974126,19.0284741],[72.8974302,19.0284252],[72.8975092,19.0282052],[72.8975607,19.0280578],[72.8975849,19.0279885],[72.8976056,19.0279385],[72.8976067,19.0279114],[72.8976099,19.0278715],[72.8976115,19.0278561],[72.8976137,19.0278186],[72.897616,19.027802],[72.8976264,19.0277511],[72.8976794,19.0274917],[72.8976826,19.0274652],[72.8976831,19.02746],[72.8976914,19.0273311],[72.8976964,19.0272522],[72.8977036,19.0271081],[72.8977106,19.0270121],[72.8977202,19.0267986],[72.8977294,19.026594],[72.8977304,19.0265697],[72.8977423,19.0263334],[72.8977474,19.0262323],[72.8977441,19.0259922],[72.897737,19.0258218],[72.8977371,19.0256453],[72.8977392,19.025622],[72.8977406,19.0254365],[72.8977453,19.0253341],[72.8977688,19.0248287],[72.8977894,19.0243851],[72.8978136,19.0238622],[72.8978148,19.0238368],[72.8978209,19.0237065],[72.8978322,19.0234616],[72.897833,19.0234452],[72.8978442,19.0232402],[72.8978487,19.0231231],[72.8978638,19.0227302],[72.8978669,19.02265],[72.8978872,19.0221342],[72.8978992,19.0217948],[72.8979002,19.0217643],[72.8979099,19.0214646],[72.8979122,19.0213305],[72.8979147,19.02128],[72.8979334,19.0209073],[72.8979335,19.0209044],[72.897944,19.0206212],[72.8979469,19.0205402],[72.8979587,19.0202176],[72.8979711,19.0198765],[72.8979895,19.0198026],[72.8980383,19.0191385],[72.8980381,19.0190844],[72.8980352,19.0186884],[72.8980626,19.018629],[72.8980784,19.0181944],[72.8981041,19.0174309],[72.8981053,19.0172936],[72.8981093,19.0168252],[72.8981463,19.0158588],[72.8981521,19.0157295],[72.8981693,19.0153441],[72.898193,19.014798],[72.898211,19.0143969],[72.8982456,19.0136287],[72.8983078,19.0125177],[72.8983302,19.0121167],[72.8983411,19.0120631],[72.8983689,19.0113131],[72.8983789,19.0111012],[72.8983842,19.0110062],[72.898389,19.0108809],[72.8983857,19.0107804],[72.8984,19.010509],[72.8984501,19.0095556],[72.8984677,19.0093342],[72.8989244,19.0090891],[72.8989837,19.0090669],[72.8998561,19.0088482],[72.8999373,19.0088138],[72.8999835,19.0087893],[72.9003587,19.0084922],[72.9009816,19.0079631],[72.9010146,19.0079406],[72.9010455,19.0079202],[72.9010893,19.0079061],[72.901874,19.0077155],[72.9038334,19.0072389],[72.9052031,19.0069115],[72.905291,19.0068751],[72.9053417,19.0068383],[72.905364,19.0068074],[72.9053863,19.0067702],[72.9053956,19.0067246],[72.9052776,19.0058503],[72.9050749,19.0044181],[72.9049106,19.0031314],[72.9047987,19.0031013],[72.9047596,19.0030898],[72.9043222,19.0029681],[72.9043305,19.0027108],[72.9043548,19.0019586],[72.9043722,19.0014155],[72.9043999,19.0005547],[72.9044282,18.9996764],[72.9044418,18.9992533],[72.9044238,18.9989378],[72.9044164,18.9988077],[72.9043966,18.9985198],[72.9043763,18.9982254],[72.9043148,18.9973348],[72.9042996,18.9971142],[72.9042989,18.9971141],[72.9043803,18.9952683]]]]}}]}