{"type":"FeatureCollection","features":[{"type":"Feature","properties":{"ward": "MW"},"geometry":{"type":"MultiPolygon","coordinates":[[[[72.8782318,19.0478237],[72.8782318,19.0478236],[72.8782957,19.0478038],[72.8783289,19.0477935],[72.8783289,19.0477934],[72.878348,19.0477899],[72.8783641,19.0477916],[72.8783822,19.0477987],[72.8784204,19.0478274],[72.8784605,19.047852],[72.878526,19.047879],[72.8786326,19.047894],[72.8787121,19.047898],[72.8787874,19.0479004],[72.8788416,19.0478983],[72.8788745,19.0478942],[72.8789175,19.0478888],[72.8789486,19.0478836],[72.8789487,19.0478836],[72.8789562,19.0478823],[72.8790015,19.04787],[72.8790408,19.0478592],[72.8791157,19.0478344],[72.879182,19.0478124],[72.8792177,19.0478004],[72.8792885,19.0477728],[72.8793204,19.0477582],[72.8793523,19.0477388],[72.8793969,19.0477064],[72.8793969,19.0477063],[72.8794102,19.0476964],[72.8794792,19.0476392],[72.8795182,19.0476037],[72.8795182,19.0476036],[72.8795318,19.0475912],[72.879548,19.0475754],[72.8795718,19.0475519],[72.8796019,19.0475084],[72.8797657,19.0472673],[72.8799872,19.046915],[72.8800185,19.0467832],[72.8798701,19.0460927],[72.8797872,19.0456416],[72.8797868,19.0456349],[72.8797886,19.045624],[72.8797911,19.0456096],[72.879793,19.0455975],[72.8798018,19.0455768],[72.8798121,19.0455441],[72.8798234,19.0455073],[72.8798329,19.0454707],[72.8798329,19.0454706],[72.8798345,19.0454643],[72.8798362,19.0454566],[72.8798362,19.0454565],[72.8798425,19.0454256],[72.8798427,19.0454243],[72.8798493,19.045392],[72.8798626,19.0453191],[72.8798717,19.045272],[72.8798766,19.045257],[72.8798883,19.0452291],[72.8798883,19.045229],[72.8798889,19.0452276],[72.8798897,19.0452255],[72.8799098,19.0451892],[72.87991,19.0451888],[72.8799148,19.0451801],[72.8799197,19.0451683],[72.8799228,19.045129],[72.8799305,19.0451008],[72.8799322,19.0450941],[72.8799429,19.045069],[72.8799479,19.0450501],[72.879951,19.045032],[72.8799512,19.0450131],[72.8799503,19.0450018],[72.8799493,19.0449928],[72.8799479,19.0449894],[72.8799422,19.0449768],[72.8799357,19.044965],[72.8799357,19.0449599],[72.8799356,19.0449564],[72.8799374,19.0449487],[72.8799462,19.0449309],[72.8799824,19.0448768],[72.8799872,19.0448683],[72.8799873,19.0448682],[72.8800115,19.0448249],[72.8800215,19.0448054],[72.8800276,19.0447929],[72.8800329,19.0447763],[72.8800413,19.0447528],[72.8800444,19.0447475],[72.8800475,19.0447423],[72.880069,19.0446998],[72.8800795,19.0446783],[72.8800857,19.0446585],[72.8800887,19.0446488],[72.8800918,19.0446253],[72.8800931,19.0446139],[72.8800913,19.0445845],[72.8800913,19.0445844],[72.8800919,19.0445775],[72.8800917,19.0445531],[72.8800889,19.0445424],[72.88008,19.0445226],[72.8800761,19.0445142],[72.8800635,19.0444875],[72.8800628,19.0444783],[72.8800618,19.0444694],[72.8800623,19.0444597],[72.8800625,19.0444529],[72.8800692,19.0444321],[72.8800802,19.0444094],[72.8800925,19.0443926],[72.8800946,19.0443899],[72.8800946,19.0443898],[72.8801097,19.0443698],[72.8801208,19.0443583],[72.8801231,19.0443558],[72.8801376,19.0443407],[72.8801534,19.0443312],[72.8801718,19.0443216],[72.8801751,19.0443199],[72.8801806,19.044317],[72.8801936,19.044308],[72.8802082,19.0442875],[72.8802083,19.0442874],[72.8802098,19.0442852],[72.8802248,19.0442508],[72.8802507,19.0441685],[72.8802645,19.0441247],[72.8802645,19.0441246],[72.8802824,19.0440671],[72.8802933,19.0440347],[72.8802933,19.0440346],[72.880304,19.044002],[72.8803247,19.0439516],[72.8803331,19.043931],[72.8803562,19.0438744],[72.8803795,19.0438244],[72.8803871,19.0437975],[72.8804202,19.0436538],[72.8804202,19.0436535],[72.880433,19.0435096],[72.880433,19.0435095],[72.8804375,19.0434566],[72.8804367,19.0434553],[72.8804367,19.0434552],[72.8804189,19.0434257],[72.8804204,19.0433995],[72.8804209,19.0433872],[72.8804211,19.043387],[72.8804316,19.0433804],[72.8804436,19.0433724],[72.8804474,19.0433699],[72.8804597,19.0433544],[72.8804638,19.0433446],[72.8804697,19.0433296],[72.8804782,19.0432989],[72.8804873,19.0432553],[72.8804894,19.0432384],[72.8804912,19.0432233],[72.8804951,19.0432102],[72.8804993,19.0431951],[72.8805038,19.0431774],[72.8805097,19.0431527],[72.8805227,19.0431039],[72.8805384,19.0430306],[72.8805459,19.0429956],[72.8805459,19.0429955],[72.8805657,19.0428993],[72.8805684,19.0428862],[72.8805863,19.0427811],[72.8806018,19.0427127],[72.880602,19.0427119],[72.8806031,19.0427041],[72.8806068,19.0426768],[72.8806087,19.042666],[72.8806124,19.0426445],[72.880613,19.04264],[72.8806138,19.0426365],[72.8806144,19.0426329],[72.880617,19.0426226],[72.880645,19.0425003],[72.8806489,19.0424632],[72.8806495,19.0424598],[72.8806552,19.0424273],[72.8806637,19.0424057],[72.8806657,19.042392],[72.8806684,19.0423719],[72.8806695,19.042359],[72.8806689,19.0423542],[72.8806683,19.0423489],[72.8806683,19.0423399],[72.8806688,19.0423363],[72.8806693,19.0423331],[72.8806706,19.0423297],[72.8806753,19.0423173],[72.8806888,19.0422856],[72.8806991,19.0422615],[72.8807051,19.0422467],[72.8807087,19.0422348],[72.8807088,19.0422347],[72.8807093,19.0422276],[72.8807094,19.0422267],[72.8807095,19.0422215],[72.8807101,19.0422165],[72.8807106,19.04221],[72.880711,19.0422042],[72.8807119,19.0421992],[72.8807121,19.0421978],[72.8807165,19.0421725],[72.8807277,19.0421336],[72.8807322,19.042123],[72.8807338,19.042118],[72.8807311,19.0419256],[72.8807312,19.0419154],[72.8807311,19.0419096],[72.8807314,19.0418999],[72.8807323,19.0418038],[72.8807323,19.0417947],[72.8807324,19.0417669],[72.8807321,19.0417624],[72.8807263,19.0417488],[72.8807177,19.041738],[72.8807082,19.0417282],[72.8807079,19.0417277],[72.8807069,19.0417267],[72.8807049,19.0417217],[72.8807045,19.041717],[72.8807053,19.0417136],[72.8807052,19.0417132],[72.8807052,19.0417128],[72.8807092,19.0416945],[72.8807169,19.0416591],[72.8806984,19.0415669],[72.8806859,19.0415051],[72.8806859,19.0415049],[72.8806872,19.0415033],[72.8806868,19.0415016],[72.8807443,19.0414326],[72.8807773,19.041376],[72.8807796,19.0413714],[72.8807821,19.0413663],[72.8807865,19.041339],[72.8808072,19.0412117],[72.8808215,19.0411277],[72.8808357,19.0410437],[72.880845,19.0409935],[72.8808489,19.0409711],[72.8808556,19.0409328],[72.8808748,19.0408109],[72.88088,19.040772],[72.8808873,19.0407359],[72.8808873,19.0407356],[72.8808879,19.0407295],[72.880889,19.0407182],[72.8808932,19.0406747],[72.880899,19.0406143],[72.8808999,19.0406047],[72.8809273,19.0404339],[72.8809421,19.0403116],[72.8809773,19.040028],[72.8809873,19.0399573],[72.8809973,19.0398871],[72.8810061,19.0398256],[72.8810109,19.0397923],[72.8810179,19.0397429],[72.8810202,19.0397033],[72.8810202,19.0397032],[72.8810206,19.0396964],[72.8810206,19.0396963],[72.8810205,19.0396948],[72.8810191,19.0396822],[72.88102,19.0396741],[72.8810245,19.0396595],[72.8810574,19.0395773],[72.8810833,19.0394937],[72.8810879,19.0394721],[72.8810886,19.0394686],[72.8810896,19.0394607],[72.8811125,19.0392794],[72.8811205,19.0392101],[72.881118,19.0392019],[72.8811149,19.0391921],[72.8811513,19.0390238],[72.8811553,19.0390057],[72.8811757,19.0389236],[72.8811839,19.03888],[72.8811853,19.0388652],[72.8811927,19.0387893],[72.8811933,19.0387828],[72.8812085,19.0387013],[72.8812158,19.0386619],[72.8812453,19.0385176],[72.8812593,19.038449],[72.8812997,19.0382547],[72.8812997,19.0382545],[72.8812998,19.0382544],[72.8813351,19.0380789],[72.8813589,19.0378427],[72.8813724,19.0376963],[72.8813816,19.037515],[72.8813594,19.0372057],[72.8813559,19.0371569],[72.881353,19.037113],[72.8813484,19.037069],[72.8813443,19.0370303],[72.8813405,19.0369958],[72.8813363,19.036959],[72.8813283,19.0368808],[72.8813269,19.0368678],[72.8813265,19.0368645],[72.8813124,19.0367667],[72.8813025,19.0367077],[72.8812912,19.0366401],[72.881281,19.0365863],[72.8812796,19.0365482],[72.8812796,19.0365477],[72.8812789,19.0365332],[72.8812782,19.0365202],[72.8812782,19.0365194],[72.8812782,19.0365063],[72.8812782,19.0365024],[72.8812783,19.0364933],[72.8812214,19.0362056],[72.8812213,19.0362056],[72.8812161,19.0361789],[72.8812153,19.036175],[72.8811953,19.0361022],[72.881187,19.0360722],[72.8811821,19.0360544],[72.8811773,19.0360366],[72.8811735,19.0360201],[72.8811596,19.0359503],[72.8811565,19.035929],[72.8811501,19.0358863],[72.8811351,19.0358109],[72.8811261,19.0357758],[72.8811184,19.0357459],[72.8810985,19.0356684],[72.8810717,19.0355739],[72.8810605,19.0355326],[72.8810453,19.0354767],[72.8810431,19.0354664],[72.8810416,19.0354594],[72.8810378,19.0354421],[72.8810373,19.0354413],[72.8810257,19.0354228],[72.8810135,19.0354035],[72.8810135,19.0354033],[72.8810135,19.0354032],[72.881006,19.0353637],[72.8809986,19.0353209],[72.8809938,19.0352929],[72.8809852,19.0352365],[72.8809804,19.0352046],[72.8809798,19.0352022],[72.8809791,19.0351994],[72.8809788,19.0351984],[72.8809756,19.0351953],[72.8809555,19.0351952],[72.8809437,19.0351527],[72.8809322,19.0351107],[72.8808988,19.034973],[72.8808917,19.0349473],[72.8808719,19.0348752],[72.8808523,19.0347941],[72.8808495,19.0347849],[72.8808439,19.0347669],[72.8808429,19.0347634],[72.8808401,19.0347488],[72.8808385,19.034741],[72.880783,19.0345992],[72.880755,19.0345331],[72.8806021,19.0341826],[72.8800896,19.0331588],[72.880073,19.0331312],[72.8800723,19.0331301],[72.8800569,19.0331073],[72.8800404,19.0330827],[72.8799753,19.0329834],[72.8799708,19.0329616],[72.8799279,19.0328904],[72.8799276,19.03289],[72.8799083,19.0328715],[72.8799049,19.0328644],[72.8799002,19.0328549],[72.8798314,19.0327349],[72.8798287,19.0327302],[72.8797804,19.0326457],[72.8797774,19.0326407],[72.8797726,19.0326328],[72.8796286,19.0323445],[72.879533,19.0321564],[72.8795317,19.0321539],[72.8795079,19.0321115],[72.8794444,19.0319951],[72.8794096,19.031933],[72.8793602,19.0318447],[72.8792952,19.0317215],[72.8792676,19.0316667],[72.8791965,19.0315258],[72.8791088,19.0313409],[72.8790969,19.0313166],[72.8790912,19.031305],[72.879081,19.0312811],[72.8790708,19.0312571],[72.8790484,19.0312045],[72.8790261,19.0311518],[72.878978,19.0310366],[72.878964,19.0310031],[72.87894,19.0309463],[72.8789219,19.0309035],[72.8788785,19.030802],[72.8788762,19.0307991],[72.878819,19.0307293],[72.8788189,19.0307292],[72.8787844,19.0306872],[72.8787837,19.0306475],[72.8787835,19.0306385],[72.8787785,19.0305771],[72.8787716,19.0304963],[72.8787699,19.0304797],[72.8787688,19.0304692],[72.8787476,19.0303953],[72.8787397,19.0303713],[72.8787397,19.0303712],[72.8787198,19.030311],[72.8787053,19.0302723],[72.8786889,19.0302423],[72.8786888,19.030242],[72.8786619,19.030193],[72.8786124,19.0300472],[72.8785741,19.0299358],[72.8785444,19.0298496],[72.8785354,19.0298228],[72.8784658,19.0296165],[72.8784291,19.0295035],[72.878412,19.029451],[72.8783863,19.0293717],[72.8783747,19.0293383],[72.8783546,19.0292806],[72.8782793,19.0290492],[72.8782571,19.0289881],[72.8782228,19.0288932],[72.8781899,19.0288005],[72.8781473,19.0287075],[72.8781304,19.0286644],[72.8781107,19.0285863],[72.8780776,19.0284658],[72.8780407,19.0283248],[72.8779958,19.028156],[72.877978,19.0280889],[72.8778847,19.0277327],[72.8778682,19.0276595],[72.8778334,19.027505],[72.8778182,19.0274393],[72.8778167,19.0274335],[72.8777787,19.0272765],[72.8777237,19.0270414],[72.8776787,19.0268345],[72.8776647,19.0267744],[72.8776417,19.0266901],[72.8775991,19.0265341],[72.8775132,19.0261373],[72.8774708,19.0259849],[72.8774202,19.0257777],[72.877393,19.0256549],[72.8773778,19.0255767],[72.8773689,19.0255165],[72.8773687,19.0255025],[72.8773685,19.0254875],[72.8773685,19.0254867],[72.8773683,19.0254711],[72.8773649,19.0254357],[72.8773638,19.0254235],[72.8773627,19.0254102],[72.8773615,19.0253977],[72.8773437,19.0252594],[72.8773332,19.0251893],[72.8773285,19.0251579],[72.8773154,19.0250757],[72.8773137,19.0250032],[72.8773137,19.0250015],[72.8773136,19.0249997],[72.8772987,19.0248949],[72.8772947,19.0247859],[72.8772912,19.0247518],[72.8772824,19.0246889],[72.8772822,19.0246876],[72.8772802,19.0246449],[72.8772828,19.0246125],[72.8772853,19.0245802],[72.8772867,19.0245727],[72.8772856,19.0245417],[72.8773,19.0241395],[72.8773,19.0241379],[72.8772985,19.0241186],[72.8772974,19.0239284],[72.8772976,19.0238713],[72.8772976,19.0238692],[72.8772991,19.023862],[72.8773043,19.0238383],[72.8773242,19.0237469],[72.8773306,19.0237173],[72.8773515,19.0236459],[72.87741,19.023428],[72.8774139,19.0234052],[72.8774223,19.0232925],[72.8774259,19.0232438],[72.8774511,19.0231318],[72.8775569,19.0228648],[72.8775652,19.0228439],[72.877593,19.0227737],[72.8776269,19.0226795],[72.8776813,19.0225601],[72.8777253,19.022466],[72.8777808,19.0223408],[72.8778247,19.0222387],[72.8778657,19.0221529],[72.8778683,19.0221484],[72.8779136,19.0220676],[72.878004,19.0219112],[72.878004,19.0219111],[72.8780772,19.0217672],[72.8781196,19.0216971],[72.8782277,19.0215298],[72.8782527,19.0214747],[72.878297,19.0214119],[72.878365,19.0213156],[72.8784339,19.021235],[72.8785943,19.0210403],[72.8788012,19.0207693],[72.8789875,19.0205235],[72.8792525,19.0201914],[72.879424,19.0199596],[72.8795474,19.019793],[72.8796194,19.0197064],[72.879646,19.0196742],[72.8796759,19.019638],[72.8796967,19.0196128],[72.8797074,19.0195997],[72.8797217,19.0195846],[72.8797335,19.0195703],[72.879764,19.0195283],[72.87978,19.0195051],[72.879791,19.0194896],[72.8798074,19.0194703],[72.8798319,19.0194397],[72.879843,19.0194281],[72.8798503,19.0194185],[72.8798561,19.0194057],[72.8798635,19.0193952],[72.8798745,19.0193837],[72.8798888,19.0193674],[72.8799097,19.0193442],[72.8799248,19.019328],[72.8799354,19.0193149],[72.8799465,19.0193002],[72.8799661,19.0192805],[72.8800548,19.0191869],[72.8805119,19.0187762],[72.8805303,19.0187563],[72.8806404,19.0186372],[72.8807077,19.0185711],[72.8807711,19.0185088],[72.8808629,19.018417],[72.8809359,19.0183427],[72.8810089,19.0182685],[72.8812004,19.018092],[72.8812874,19.0180171],[72.8813777,19.0179395],[72.8814802,19.0178483],[72.8816529,19.0177159],[72.8817632,19.0176294],[72.8818078,19.0175882],[72.8819479,19.0174704],[72.8820391,19.0173971],[72.8820438,19.0173944],[72.8820886,19.0173683],[72.8821212,19.0173493],[72.8822458,19.0172614],[72.8825022,19.017082],[72.8825287,19.0170597],[72.8825486,19.0170431],[72.8825512,19.0170407],[72.8828063,19.0168102],[72.8833055,19.0164254],[72.8835751,19.0161705],[72.8837499,19.0159641],[72.8838643,19.0157966],[72.8839504,19.015618],[72.884048,19.0153609],[72.8842963,19.0145194],[72.8843253,19.014219],[72.8843581,19.0138364],[72.8843627,19.0137715],[72.8843728,19.0136564],[72.8843872,19.0134689],[72.8843886,19.0134533],[72.884546,19.0116949],[72.8848346,19.0102534],[72.884369,19.0094658],[72.8839541,19.0085518],[72.8842216,19.0084409],[72.8840502,19.0069901],[72.8837943,19.0051387],[72.8836441,19.0039417],[72.8838479,19.0034801],[72.8835033,19.0029155],[72.883691,19.0025296],[72.8840464,19.0024708],[72.8842771,19.0026179],[72.8844058,19.0025367],[72.884404,19.0023481],[72.8846526,19.0018114],[72.8853446,19.0010379],[72.8855927,19.0010671],[72.8857094,19.0008743],[72.8855109,19.0004204],[72.8855689,18.9995036],[72.8856128,18.9993603],[72.8857027,18.9992703],[72.8860621,18.9992259],[72.8862802,18.9992947],[72.88651,18.9994148],[72.8868657,18.9994904],[72.8871568,18.9996303],[72.8876138,18.999463],[72.888397,18.9996431],[72.888751,18.9997394],[72.8891078,18.9997546],[72.8898427,18.999605],[72.8906098,18.9996405],[72.8908324,18.9997394],[72.891098,18.9999144],[72.891275,19.0003329],[72.891452,19.000485],[72.891672,19.0005205],[72.8918436,19.000485],[72.8919858,19.0003709],[72.8928199,18.9997597],[72.8930292,18.9997293],[72.8933054,18.9997775],[72.8933778,18.9998028],[72.8934824,19.0003658],[72.8935012,19.0008097],[72.8935066,19.0009567],[72.8935531,19.0010921],[72.8944566,19.0012114],[72.8948099,19.0012161],[72.8953045,19.0012305],[72.895371,19.001423],[72.8955165,19.0014285],[72.8953575,19.0009489],[72.8953575,19.0005767],[72.8954256,19.000486],[72.8954256,18.9998227],[72.8954534,18.9997129],[72.89536,18.9992023],[72.8943708,18.999188],[72.8928226,18.9992043],[72.8924417,18.9992652],[72.8919643,18.9993108],[72.8917361,18.9992387],[72.8915942,18.9992081],[72.8916129,18.9986603],[72.8916639,18.9974798],[72.8916788,18.9972463],[72.8917336,18.9963842],[72.8917774,18.9955702],[72.8936139,18.9959627],[72.8945139,18.9961551],[72.8946412,18.9963461],[72.8947954,18.996459],[72.8949778,18.99653],[72.8951401,18.9965401],[72.8953318,18.9965122],[72.895377,18.9963263],[72.9011911,18.9973783],[72.9028487,18.997708],[72.9029587,18.9975001],[72.9032108,18.9973225],[72.9036346,18.9972693],[72.9037468,18.9968928],[72.9038465,18.9964704],[72.9038385,18.9957755],[72.9038504,18.9939484],[72.9039025,18.9938247],[72.9040262,18.9937466],[72.9041737,18.9937085],[72.904458,18.9924937],[72.9050723,18.992831],[72.9051138,18.9929362],[72.9051009,18.993027],[72.9050562,18.9930643],[72.9048825,18.993122],[72.9047665,18.9932672],[72.9046196,18.9936072],[72.9044031,18.9944123],[72.9043736,18.9948891],[72.9043803,18.9952683],[72.9042989,18.9971141],[72.9042996,18.9971142],[72.9043148,18.9973348],[72.9043763,18.9982254],[72.9043966,18.9985198],[72.9044164,18.9988077],[72.9044238,18.9989378],[72.9044418,18.9992533],[72.9044282,18.9996764],[72.9043999,19.0005547],[72.9043722,19.0014155],[72.9043548,19.0019586],[72.9043305,19.0027108],[72.9043222,19.0029681],[72.9047596,19.0030898],[72.9047987,19.0031013],[72.9049106,19.0031314],[72.9050749,19.0044181],[72.9052776,19.0058503],[72.9053956,19.0067246],[72.9053863,19.0067702],[72.905364,19.0068074],[72.9053417,19.0068383],[72.905291,19.0068751],[72.9052031,19.0069115],[72.9038334,19.0072389],[72.901874,19.0077155],[72.9010893,19.0079061],[72.9010455,19.0079202],[72.9010146,19.0079406],[72.9009816,19.0079631],[72.9003587,19.0084922],[72.8999835,19.0087893],[72.8999373,19.0088138],[72.8998561,19.0088482],[72.8989837,19.0090669],[72.8989244,19.0090891],[72.8984677,19.0093342],[72.8984501,19.0095556],[72.8984,19.010509],[72.8983857,19.0107804],[72.898389,19.0108809],[72.8983842,19.0110062],[72.8983789,19.0111012],[72.8983689,19.0113131],[72.8983411,19.0120631],[72.8983302,19.0121167],[72.8983078,19.0125177],[72.8982456,19.0136287],[72.898211,19.0143969],[72.898193,19.014798],[72.8981693,19.0153441],[72.8981521,19.0157295],[72.8981463,19.0158588],[72.8981093,19.0168252],[72.8981053,19.0172936],[72.8981041,19.0174309],[72.8980784,19.0181944],[72.8980626,19.018629],[72.8980352,19.0186884],[72.8980381,19.0190844],[72.8980383,19.0191385],[72.8979895,19.0198026],[72.8979711,19.0198765],[72.8979587,19.0202176],[72.8979469,19.0205402],[72.897944,19.0206212],[72.8979335,19.0209044],[72.8979334,19.0209073],[72.8979147,19.02128],[72.8979122,19.0213305],[72.8979099,19.0214646],[72.8979002,19.0217643],[72.8978992,19.0217948],[72.8978872,19.0221342],[72.8978669,19.02265],[72.8978638,19.0227302],[72.8978487,19.0231231],[72.8978442,19.0232402],[72.897833,19.0234452],[72.8978322,19.0234616],[72.8978209,19.0237065],[72.8978148,19.0238368],[72.8978136,19.0238622],[72.8977894,19.0243851],[72.8977688,19.0248287],[72.8977453,19.0253341],[72.8977406,19.0254365],[72.8977392,19.025622],[72.8977371,19.0256453],[72.897737,19.0258218],[72.8977441,19.0259922],[72.8977474,19.0262323],[72.8977423,19.0263334],[72.8977304,19.0265697],[72.8977294,19.026594],[72.8977202,19.0267986],[72.8977106,19.0270121],[72.8977036,19.0271081],[72.8976964,19.0272522],[72.8976914,19.0273311],[72.8976831,19.02746],[72.8976826,19.0274652],[72.8976794,19.0274917],[72.8976264,19.0277511],[72.897616,19.027802],[72.8976137,19.0278186],[72.8976115,19.0278561],[72.8976099,19.0278715],[72.8976067,19.0279114],[72.8976056,19.0279385],[72.8975849,19.0279885],[72.8975607,19.0280578],[72.8975092,19.0282052],[72.8974302,19.0284252],[72.8974126,19.0284741],[72.8973477,19.0286832],[72.8971561,19.029038],[72.8969613,19.0293957],[72.8969175,19.0294877],[72.8969265,19.0297842],[72.8969232,19.0298441],[72.8969204,19.0299036],[72.8969167,19.0300041],[72.8969126,19.0300889],[72.896909,19.0301409],[72.8969039,19.0302136],[72.8968982,19.0302963],[72.8968919,19.0303877],[72.8968843,19.0304973],[72.8968705,19.0306958],[72.8968584,19.0308833],[72.8968403,19.031162],[72.8968341,19.0312048],[72.8968222,19.0312502],[72.8967676,19.0314466],[72.8967517,19.03148],[72.8967156,19.0315452],[72.8966752,19.0316185],[72.8966375,19.0317052],[72.8965998,19.0317919],[72.896588,19.0318306],[72.8965583,19.0319549],[72.8965158,19.0323016],[72.8965036,19.0323819],[72.8964857,19.0324541],[72.8964254,19.0326598],[72.8960403,19.0336928],[72.8958052,19.0343362],[72.8955624,19.0350425],[72.8952469,19.0359141],[72.8952073,19.0360344],[72.8951806,19.0361211],[72.8951478,19.0362296],[72.8951254,19.036318],[72.8950914,19.036472],[72.8950756,19.036561],[72.8950629,19.0366505],[72.8950536,19.0367181],[72.8950376,19.0368295],[72.8950232,19.0369188],[72.8950106,19.0370083],[72.8950003,19.0370835],[72.894995,19.037123],[72.8949767,19.0372773],[72.8949641,19.0373938],[72.8949521,19.0375075],[72.894943,19.0375954],[72.8949303,19.0377267],[72.8949223,19.0378167],[72.8949127,19.0379066],[72.8949026,19.0379964],[72.8948891,19.0381134],[72.8948837,19.0381588],[72.8948718,19.0382775],[72.8948565,19.0384458],[72.8948407,19.0386258],[72.8948219,19.0388055],[72.8948097,19.0389058],[72.8947822,19.0390738],[72.8947762,19.0391067],[72.894766,19.0391627],[72.8947374,19.0392784],[72.8947129,19.0393699],[72.8946318,19.0396501],[72.8946072,19.0397216],[72.8945339,19.0398888],[72.8943031,19.0402541],[72.8942049,19.0404075],[72.8941125,19.0405589],[72.8938865,19.0409417],[72.8942891,19.0411623],[72.8943357,19.041179],[72.8943867,19.0411904],[72.8946995,19.0412506],[72.8948927,19.0412821],[72.8950026,19.0413],[72.8950479,19.041314],[72.8951127,19.0413539],[72.8951927,19.0414196],[72.8952263,19.0414577],[72.8952429,19.0414903],[72.8952581,19.0415215],[72.8952864,19.0422102],[72.8952845,19.0426469],[72.8955517,19.0424413],[72.8956189,19.0424043],[72.8956744,19.04239],[72.8958508,19.0423556],[72.8959119,19.0423536],[72.8959842,19.0423585],[72.8960208,19.0423792],[72.8960475,19.0423984],[72.8960784,19.0424284],[72.8961468,19.042785],[72.8961718,19.0428574],[72.8962623,19.04305],[72.8963606,19.0432728],[72.896504,19.0437215],[72.896564,19.0437922],[72.8972902,19.0440573],[72.8982521,19.0444194],[72.8985396,19.0445283],[72.898671,19.044584],[72.8987481,19.0446594],[72.8988094,19.0447617],[72.8989509,19.0450298],[72.8989553,19.0450943],[72.8989567,19.0451237],[72.8989498,19.0452343],[72.8988282,19.0460867],[72.8988542,19.0460899],[72.8989067,19.0460955],[72.8991788,19.0461303],[72.8993678,19.0461472],[72.8996524,19.0461537],[72.9001623,19.0461533],[72.9002371,19.0461423],[72.9004038,19.0461179],[72.9006005,19.0460891],[72.9006336,19.0460842],[72.9006635,19.0460806],[72.9007402,19.0460715],[72.900977,19.0460432],[72.9011164,19.0460266],[72.9017837,19.045947],[72.9019397,19.0459284],[72.9021822,19.0458997],[72.9027226,19.0458527],[72.9029517,19.0458334],[72.9030425,19.0458257],[72.9035864,19.0457799],[72.9037124,19.0457699],[72.9050825,19.0458058],[72.9054578,19.0458053],[72.9057233,19.0458051],[72.90606,19.0458049],[72.9066109,19.0457956],[72.9071094,19.0457872],[72.907589,19.0457726],[72.9078161,19.0457656],[72.908164,19.045755],[72.9084346,19.0457468],[72.9085831,19.0457422],[72.9087618,19.0457354],[72.9091365,19.0457328],[72.9092827,19.0457831],[72.9093143,19.0458795],[72.9093917,19.0460875],[72.9094798,19.0463112],[72.909611,19.0466988],[72.9096178,19.0471902],[72.9101128,19.048976],[72.9101197,19.0490079],[72.9101783,19.0492693],[72.9101992,19.0493656],[72.9102111,19.049421],[72.9102438,19.0495732],[72.910271,19.0497133],[72.9103004,19.0498371],[72.910344,19.0500372],[72.9103638,19.0501282],[72.910495,19.050709],[72.9105031,19.0507907],[72.9105138,19.0509015],[72.910517,19.05094],[72.9105364,19.0511716],[72.9107997,19.0534659],[72.9108832,19.0540237],[72.9110841,19.055172],[72.911115,19.0552813],[72.911143,19.0553675],[72.9111612,19.0554116],[72.9111734,19.0554412],[72.9112153,19.0555345],[72.9112591,19.0556146],[72.9113057,19.0556932],[72.9113387,19.0557431],[72.9114081,19.0558453],[72.9114475,19.0559023],[72.9114913,19.0559652],[72.911548,19.0560458],[72.9115897,19.0561054],[72.9116311,19.0561647],[72.9116995,19.0562633],[72.9117483,19.0563334],[72.9118281,19.0564473],[72.9118974,19.0565491],[72.9119829,19.0566748],[72.9120893,19.0568245],[72.9121958,19.056974],[72.912273,19.0570833],[72.9123541,19.0571993],[72.9123733,19.0572267],[72.9121532,19.0573661],[72.9117752,19.057603],[72.9116379,19.0576881],[72.9114801,19.0577848],[72.9113492,19.057865],[72.9111383,19.0579942],[72.910928,19.0581097],[72.9106997,19.0582351],[72.9103467,19.058429],[72.9099573,19.0586429],[72.9096051,19.0588363],[72.9091594,19.0590697],[72.9089001,19.059195],[72.9087771,19.0592492],[72.9086282,19.0593148],[72.9083609,19.0594371],[72.9080908,19.0595621],[72.9078409,19.0596777],[72.9077258,19.0597309],[72.9078016,19.0598045],[72.9078965,19.0599015],[72.908,19.0600156],[72.9077722,19.0601242],[72.9076774,19.0602064],[72.9076322,19.0602456],[72.9075684,19.0603009],[72.9076594,19.0604029],[72.9079,19.0606727],[72.9079677,19.0607486],[72.9080217,19.0608092],[72.9082138,19.0610232],[72.9082599,19.0610745],[72.908264,19.0610785],[72.9083349,19.0611479],[72.9084497,19.0612603],[72.9084522,19.0612631],[72.908599,19.0614299],[72.9087832,19.0616517],[72.9088944,19.0617855],[72.9091577,19.0620723],[72.9094283,19.0623768],[72.9097637,19.0627643],[72.9097749,19.0627773],[72.909892,19.0629144],[72.9099417,19.06297],[72.9101166,19.0631658],[72.9101686,19.0632216],[72.9102776,19.0633276],[72.9104402,19.0634858],[72.9104675,19.0635153],[72.9107736,19.0638465],[72.9110195,19.0641126],[72.911402,19.0645266],[72.9114658,19.0645956],[72.9116668,19.0648131],[72.9117862,19.0649423],[72.911773,19.0649469],[72.9115638,19.0650188],[72.9117246,19.0650935],[72.9117388,19.0651001],[72.9106555,19.0671586],[72.9106081,19.0675459],[72.9102662,19.0679157],[72.9101128,19.0680816],[72.909942,19.0691],[72.9098709,19.0695244],[72.9098669,19.0695638],[72.9095076,19.0695128],[72.9092505,19.0704007],[72.9084808,19.0703994],[72.9082453,19.070399],[72.9076862,19.070382],[72.9074337,19.0714879],[72.9073587,19.0718514],[72.907348,19.0718719],[72.9073021,19.0719593],[72.9070697,19.0719101],[72.9069493,19.0718846],[72.9067213,19.0718392],[72.9066742,19.071831],[72.9063758,19.0717796],[72.9063425,19.0717738],[72.9061961,19.0717517],[72.9060814,19.0717343],[72.9059545,19.0717151],[72.9058985,19.0717067],[72.9056765,19.071666],[72.9055121,19.0716359],[72.9053546,19.0716071],[72.9052151,19.0715815],[72.904769,19.0721566],[72.9046807,19.0723003],[72.9046565,19.0723174],[72.9044485,19.0724657],[72.9041618,19.07267],[72.9039132,19.0728472],[72.9037438,19.072973],[72.9035623,19.0731078],[72.9032174,19.073364],[72.9031736,19.0733965],[72.9030051,19.0735341],[72.9029487,19.0735802],[72.9029325,19.0735934],[72.9028992,19.0736206],[72.902857,19.0736437],[72.902771,19.0736338],[72.9026804,19.0735395],[72.9022696,19.072771],[72.9022251,19.0727982],[72.9022146,19.0728047],[72.9019344,19.0729761],[72.9016361,19.0728532],[72.9016017,19.072839],[72.9015682,19.0728262],[72.9015019,19.0728008],[72.9013839,19.0727556],[72.9011286,19.0726579],[72.9010926,19.0726441],[72.9009787,19.0726005],[72.900641,19.0724197],[72.9005968,19.072396],[72.9004087,19.0722952],[72.8999166,19.0721115],[72.8998142,19.0720733],[72.8997654,19.072055],[72.8997351,19.0720437],[72.8994081,19.0719216],[72.8992282,19.0718535],[72.8987367,19.0718496],[72.898507,19.0720545],[72.8983605,19.0720449],[72.8982925,19.0720405],[72.898088,19.0720366],[72.8980877,19.0720366],[72.8979036,19.0720275],[72.8977698,19.0720126],[72.8976989,19.0720032],[72.8975453,19.0719662],[72.897432,19.0719389],[72.8969339,19.0718676],[72.8968645,19.0718576],[72.8967033,19.0718217],[72.896416,19.0717577],[72.8962615,19.0717023],[72.8956446,19.0716027],[72.8956142,19.0715978],[72.8955823,19.0715959],[72.8952549,19.0715769],[72.8951813,19.0715392],[72.8945718,19.0707057],[72.8937023,19.0695165],[72.8927723,19.0682448],[72.892713,19.0681683],[72.8914729,19.0662897],[72.8912063,19.0659137],[72.8911847,19.0658832],[72.8910176,19.0656475],[72.8908378,19.0653939],[72.8907545,19.0652764],[72.8907059,19.0652079],[72.8896831,19.0637655],[72.8867341,19.059707],[72.8861158,19.0588427],[72.8860709,19.05878],[72.8858815,19.0585151],[72.8858549,19.058478],[72.8851698,19.0575202],[72.8840117,19.0558985],[72.8830048,19.0545736],[72.8826461,19.0541016],[72.8824744,19.0538757],[72.8824374,19.053827],[72.8823686,19.0537364],[72.8821737,19.0534799],[72.8821558,19.0534564],[72.882155,19.0534553],[72.8819956,19.0532222],[72.881947,19.0531511],[72.8819289,19.0531158],[72.8819287,19.0531154],[72.8818997,19.0530587],[72.8818758,19.0530218],[72.8818074,19.0529161],[72.8817888,19.0528874],[72.8815374,19.0525557],[72.881476,19.0524746],[72.8812539,19.0521596],[72.8810074,19.0518101],[72.8804721,19.0510567],[72.8803494,19.0508591],[72.8802273,19.0507018],[72.8801184,19.0505747],[72.8798607,19.0502013],[72.8783787,19.0480536],[72.8783544,19.0479694],[72.8783394,19.047954],[72.8782318,19.0478237]]]]}}]}