{"type":"FeatureCollection","features":[{"type":"Feature","properties":{"ward": "N"},"geometry":{"type":"MultiPolygon","coordinates":[[[[72.892713,19.0681683],[72.8927723,19.0682448],[72.8937023,19.0695165],[72.8945718,19.0707057],[72.8951813,19.0715392],[72.8952549,19.0715769],[72.8955823,19.0715959],[72.8956142,19.0715978],[72.8956446,19.0716027],[72.8962615,19.0717023],[72.896416,19.0717577],[72.8967033,19.0718217],[72.8968645,19.0718576],[72.8969339,19.0718676],[72.897432,19.0719389],[72.8975453,19.0719662],[72.8976989,19.0720032],[72.8977698,19.0720126],[72.8979036,19.0720275],[72.8980877,19.0720366],[72.898088,19.0720366],[72.8982925,19.0720405],[72.8983605,19.0720449],[72.898507,19.0720545],[72.8987367,19.0718496],[72.8992282,19.0718535],[72.8994081,19.0719216],[72.8997351,19.0720437],[72.8997654,19.072055],[72.8998142,19.0720733],[72.8999166,19.0721115],[72.9004087,19.0722952],[72.9005968,19.072396],[72.900641,19.0724197],[72.9009787,19.0726005],[72.9010926,19.0726441],[72.9011286,19.0726579],[72.9013839,19.0727556],[72.9015019,19.0728008],[72.9015682,19.0728262],[72.9016017,19.072839],[72.9016361,19.0728532],[72.9019344,19.0729761],[72.9022146,19.0728047],[72.9022251,19.0727982],[72.9022696,19.072771],[72.9026804,19.0735395],[72.902771,19.0736338],[72.902857,19.0736437],[72.9028992,19.0736206],[72.9029325,19.0735934],[72.9029487,19.0735802],[72.9030051,19.0735341],[72.9031736,19.0733965],[72.9032174,19.073364],[72.9035623,19.0731078],[72.9037438,19.072973],[72.9039132,19.0728472],[72.9041618,19.07267],[72.9044485,19.0724657],[72.9046565,19.0723174],[72.9046807,19.0723003],[72.904769,19.0721566],[72.9052151,19.0715815],[72.9053546,19.0716071],[72.9055121,19.0716359],[72.9056765,19.071666],[72.9058985,19.0717067],[72.9059545,19.0717151],[72.9060814,19.0717343],[72.9061961,19.0717517],[72.9063425,19.0717738],[72.9063758,19.0717796],[72.9066742,19.071831],[72.9067213,19.0718392],[72.9069493,19.0718846],[72.9070697,19.0719101],[72.9073021,19.0719593],[72.907348,19.0718719],[72.9073587,19.0718514],[72.9074337,19.0714879],[72.9076862,19.070382],[72.9082453,19.070399],[72.9084808,19.0703994],[72.9092505,19.0704007],[72.9095076,19.0695128],[72.9098669,19.0695638],[72.9098709,19.0695244],[72.909942,19.0691],[72.9101128,19.0680816],[72.9102662,19.0679157],[72.9106081,19.0675459],[72.9106555,19.0671586],[72.9117388,19.0651001],[72.911953,19.0651996],[72.9121249,19.0652371],[72.912536,19.0653114],[72.9126674,19.0653197],[72.9129706,19.0653159],[72.9130288,19.0653226],[72.9130905,19.0653367],[72.9132135,19.0653999],[72.9135683,19.0655076],[72.9138164,19.0655874],[72.9143224,19.0657742],[72.9146125,19.065878],[72.9146748,19.0659022],[72.9147921,19.0659502],[72.9151848,19.066093],[72.9164085,19.0665437],[72.9165823,19.0666197],[72.916706,19.0666738],[72.9169005,19.0667589],[72.9169135,19.0667646],[72.9171188,19.0668552],[72.9173689,19.0669668],[72.9175006,19.0670247],[72.917648,19.0670895],[72.91785,19.0671804],[72.9179355,19.0672156],[72.9181771,19.067323],[72.9184317,19.0674776],[72.9191759,19.067926],[72.9194149,19.0682352],[72.9194242,19.0682473],[72.9195089,19.0684807],[72.9195019,19.068626],[72.9195195,19.0687198],[72.9195133,19.0688004],[72.9195316,19.0688925],[72.9195587,19.0690294],[72.9195937,19.069206],[72.9195327,19.0693218],[72.9195917,19.0694761],[72.9196914,19.069536],[72.9197107,19.0698219],[72.9198472,19.0700621],[72.9199678,19.0704693],[72.9199142,19.0708171],[72.9199403,19.0710442],[72.9200411,19.0711875],[72.9201425,19.071259],[72.9201381,19.0713547],[72.920089,19.0715364],[72.9201291,19.0717221],[72.920222,19.0718903],[72.9203314,19.0720624],[72.9204627,19.0723178],[72.920576,19.0724371],[72.9206845,19.0725398],[72.9207535,19.0727386],[72.9208352,19.0728523],[72.9209692,19.0729585],[72.921211,19.0732946],[72.9213161,19.0734887],[72.9214474,19.0736114],[72.9216283,19.073826],[72.9217992,19.0740225],[72.9220986,19.0746323],[72.9231057,19.0753348],[72.9243184,19.0753508],[72.9256367,19.0755823],[72.9271651,19.075796],[72.9281021,19.0758225],[72.9291495,19.0754871],[72.9299929,19.0749973],[72.9305926,19.0745932],[72.9316451,19.0738486],[72.9324137,19.0732875],[72.9328251,19.0727803],[72.9330996,19.0718206],[72.9332766,19.0712987],[72.9342415,19.0699363],[72.9346945,19.0685459],[72.9349184,19.0677643],[72.9354956,19.0662212],[72.935875,19.0648012],[72.9360818,19.0640062],[72.9362182,19.0636684],[72.9363567,19.0633548],[72.9365556,19.062957],[72.9367368,19.0625945],[72.936972,19.0621832],[72.9371343,19.0619128],[72.9373467,19.0615587],[72.9374816,19.0613339],[72.9382099,19.0603489],[72.9418133,19.0591007],[72.9418649,19.0588311],[72.9422952,19.0567322],[72.942425,19.0566525],[72.9425148,19.0565974],[72.9426736,19.0565005],[72.942676,19.056499],[72.9427147,19.0564754],[72.9436304,19.0564356],[72.943712,19.0564712],[72.9437755,19.0564926],[72.9441461,19.0566511],[72.9446134,19.0568524],[72.9451938,19.0570995],[72.9453108,19.0571493],[72.945921,19.0574126],[72.9466344,19.0577229],[72.9469468,19.0578528],[72.9473071,19.0580035],[72.9480341,19.0583196],[72.9482516,19.0584145],[72.9484451,19.0584945],[72.9484588,19.0584996],[72.9485361,19.0585281],[72.9485577,19.0585373],[72.9486638,19.0585801],[72.9487903,19.0586354],[72.9489038,19.0586848],[72.9490249,19.0587327],[72.9491291,19.0587799],[72.9492501,19.0588296],[72.9493312,19.0589282],[72.9494446,19.0590695],[72.9495798,19.0592313],[72.9496848,19.059357],[72.9497404,19.0594237],[72.949897,19.059617],[72.950038,19.0597853],[72.9500907,19.0598461],[72.9502778,19.060083],[72.9503369,19.0601547],[72.9504386,19.060278],[72.9505288,19.060388],[72.9505832,19.0604543],[72.9507192,19.0606243],[72.9507357,19.0606449],[72.9508482,19.0607838],[72.9509372,19.060895],[72.9510448,19.0610218],[72.9511366,19.0611388],[72.9511427,19.0611464],[72.9512176,19.0612392],[72.9513367,19.0613823],[72.9514514,19.0615253],[72.9515878,19.0616907],[72.9516898,19.0618116],[72.9517631,19.0619075],[72.9518065,19.061959],[72.9518474,19.0620094],[72.9518912,19.0620633],[72.9519215,19.0621013],[72.9520785,19.0622134],[72.9520844,19.0622178],[72.9523437,19.0624055],[72.9525554,19.0625696],[72.9526855,19.0626652],[72.9528614,19.0627945],[72.9530885,19.0629722],[72.9531652,19.0630288],[72.953189,19.0630464],[72.9532102,19.0630605],[72.9532965,19.0631181],[72.9533289,19.0631382],[72.9534028,19.0631841],[72.9534615,19.0632243],[72.9535036,19.0632531],[72.9535433,19.0632782],[72.953608,19.063319],[72.9537124,19.0633865],[72.9537346,19.0633905],[72.9538189,19.0634057],[72.9538724,19.0634161],[72.9539358,19.0634286],[72.9539634,19.0634333],[72.9540597,19.06345],[72.9541388,19.0634661],[72.9541818,19.0634748],[72.9543059,19.063493],[72.9543423,19.0635004],[72.9544262,19.0635177],[72.9545351,19.0635202],[72.954569,19.0635215],[72.954659,19.063525],[72.9547855,19.0635282],[72.9549084,19.0635346],[72.9550384,19.0635363],[72.9551551,19.0635424],[72.9551595,19.0635427],[72.9552843,19.0635441],[72.9553705,19.0635452],[72.9554091,19.0635456],[72.9555339,19.0635488],[72.9556579,19.0635536],[72.9557791,19.0635583],[72.9557879,19.0635581],[72.9558392,19.0635574],[72.955904,19.0635564],[72.9562029,19.0635246],[72.9563368,19.0635002],[72.9615247,19.0672997],[72.9614067,19.0684252],[72.9608058,19.0703721],[72.9604975,19.0726181],[72.9605323,19.0739616],[72.9602681,19.0751809],[72.9603016,19.0754774],[72.9603874,19.0778147],[72.960307,19.0795232],[72.9602694,19.0812773],[72.9603982,19.083949],[72.960315,19.0867632],[72.9603568,19.0876111],[72.9604091,19.0885498],[72.960366,19.089708],[72.9607952,19.0925367],[72.9610195,19.0964513],[72.9611106,19.096614],[72.9612388,19.096851],[72.9615239,19.0986927],[72.9615829,19.0990121],[72.9429259,19.1147585],[72.9422484,19.114499],[72.9418039,19.1143174],[72.9412824,19.114109],[72.941031,19.1140553],[72.9405327,19.1139501],[72.9400673,19.1138939],[72.9395627,19.1138202],[72.9393829,19.1137908],[72.9390874,19.1137298],[72.9386947,19.1136575],[72.9385932,19.1136441],[72.9381719,19.1135558],[72.9379092,19.1135167],[72.9375033,19.1134391],[72.9373919,19.1134188],[72.937185,19.1133689],[72.9370079,19.1133356],[72.9365719,19.113177],[72.9364564,19.1131389],[72.9363387,19.1130826],[72.9361508,19.1128284],[72.9359317,19.1125321],[72.9358989,19.1124877],[72.9358562,19.11243],[72.9358429,19.112412],[72.9346173,19.1108665],[72.93407,19.1107757],[72.934021,19.1106551],[72.9333213,19.1088964],[72.9332972,19.1088696],[72.933269,19.1088467],[72.9332373,19.1088284],[72.9332055,19.1088158],[72.9331721,19.1088077],[72.9331378,19.1088044],[72.9331034,19.1088059],[72.9329597,19.1088469],[72.9313121,19.1094685],[72.931133,19.1095364],[72.9305047,19.1097743],[72.9298389,19.1100216],[72.9297676,19.1100481],[72.9287485,19.1104268],[72.9287458,19.1104279],[72.9286912,19.1104508],[72.9286751,19.1104575],[72.9286585,19.1104645],[72.9285699,19.110499],[72.9285468,19.110508],[72.928545,19.1105086],[72.9285426,19.1105095],[72.9285251,19.1105158],[72.9284713,19.1105368],[72.928418,19.1105577],[72.9282336,19.1106298],[72.9282222,19.1105575],[72.9282204,19.1105458],[72.9280331,19.1105725],[72.9277251,19.1106356],[72.9272997,19.1107491],[72.9271846,19.1107809],[72.9271043,19.1108076],[72.9269589,19.1107943],[72.9269155,19.1107988],[72.926889,19.1108066],[72.9268603,19.1108243],[72.9268368,19.1108421],[72.9268152,19.110881],[72.9268005,19.1109371],[72.9267665,19.1110671],[72.9266525,19.1110394],[72.9261155,19.1109077],[72.9254978,19.1107522],[72.9254555,19.1106599],[72.9253172,19.1103626],[72.9251168,19.1100059],[72.9245947,19.1091146],[72.9245922,19.1091103],[72.9244418,19.1088628],[72.9244132,19.108812],[72.92378,19.1077721],[72.923217,19.1069361],[72.9223947,19.105739],[72.9215371,19.1046336],[72.9212412,19.1042139],[72.9205016,19.1031463],[72.9199467,19.1024244],[72.9187398,19.1032696],[72.9176017,19.1040739],[72.917168,19.1043891],[72.9170581,19.1044864],[72.9167451,19.1047253],[72.9165573,19.1048612],[72.9161482,19.1049888],[72.9160002,19.1050208],[72.915912,19.1050287],[72.9161014,19.1063138],[72.9160956,19.1063283],[72.9160687,19.1063539],[72.9160058,19.1064204],[72.9159517,19.1064754],[72.9158883,19.1065522],[72.9158267,19.1066366],[72.9157732,19.1067209],[72.9157308,19.1067896],[72.9156901,19.1068644],[72.9156636,19.1069174],[72.9156412,19.1069614],[72.915545,19.1072245],[72.9155449,19.1072245],[72.9155297,19.1072718],[72.9155187,19.1073126],[72.9155093,19.107359],[72.9155036,19.1074003],[72.9154998,19.1074617],[72.9155005,19.1075084],[72.9155049,19.10756],[72.9155132,19.1076114],[72.915524,19.1076572],[72.9155383,19.1077038],[72.9155532,19.107743],[72.9155701,19.1077807],[72.9155725,19.1077846],[72.9155998,19.1078281],[72.9156813,19.1079575],[72.9159028,19.1083096],[72.9161024,19.1086407],[72.9163019,19.1089713],[72.9163956,19.1089658],[72.916524,19.1089582],[72.9165916,19.1089268],[72.916699,19.1091103],[72.9167769,19.1092422],[72.91692,19.1094772],[72.9171565,19.1098645],[72.9172849,19.1100736],[72.917392,19.1102483],[72.9175144,19.1104481],[72.9176207,19.1105779],[72.9179189,19.110661],[72.9181943,19.1107377],[72.9184593,19.110812],[72.9184767,19.1109948],[72.9184755,19.1110699],[72.9184675,19.111346],[72.9184601,19.111561],[72.9184526,19.1116414],[72.9184308,19.1118259],[72.9184222,19.1119014],[72.9184053,19.1120504],[72.9183829,19.1122483],[72.9183734,19.1122826],[72.9183734,19.1122834],[72.9183716,19.1123331],[72.9183584,19.1126355],[72.9183578,19.1127423],[72.9183514,19.1130184],[72.9183489,19.1132528],[72.9183374,19.1133247],[72.918336,19.1133358],[72.9183121,19.1135363],[72.9183079,19.1136038],[72.9183005,19.1137847],[72.9182909,19.114038],[72.9182821,19.1142108],[72.9182704,19.1145039],[72.9182954,19.1146601],[72.9183165,19.1147916],[72.9183687,19.1151474],[72.9183981,19.115351],[72.9183977,19.1153545],[72.9183719,19.1156041],[72.9183398,19.1158884],[72.9183334,19.1159458],[72.9183143,19.1161173],[72.9183003,19.1163774],[72.9182826,19.1166507],[72.9183035,19.1170473],[72.9180989,19.1169193],[72.9180252,19.1168732],[72.9176433,19.1166344],[72.9173742,19.116422],[72.9170961,19.116156],[72.9168878,19.1159598],[72.9167269,19.115811],[72.9165974,19.1156878],[72.9163548,19.1155005],[72.9162918,19.1154812],[72.9161941,19.1154461],[72.916103,19.1154199],[72.9160294,19.1153987],[72.9158629,19.1153507],[72.9156721,19.1152899],[72.9155689,19.1152595],[72.9153827,19.1152093],[72.9152124,19.1151554],[72.9151455,19.1149242],[72.9150726,19.1146741],[72.914675,19.1136093],[72.9145427,19.1132473],[72.9140893,19.1118121],[72.9138785,19.1113732],[72.9136892,19.11114],[72.9134158,19.1107898],[72.9133025,19.1106526],[72.9128676,19.1103834],[72.9122133,19.1099597],[72.9120977,19.109883],[72.9118844,19.109739],[72.9116965,19.1096121],[72.9116919,19.1096098],[72.9115644,19.1095472],[72.9114342,19.1094803],[72.9112912,19.1093974],[72.9111862,19.1093459],[72.9111234,19.109315],[72.9109517,19.1092292],[72.9107209,19.1091038],[72.9103942,19.1089359],[72.9101199,19.1087941],[72.9099621,19.1087194],[72.9097807,19.1086312],[72.9090458,19.1082984],[72.9083549,19.1084087],[72.90801,19.1081368],[72.9073275,19.1076088],[72.9069808,19.1073215],[72.9067946,19.1071683],[72.906722,19.1070711],[72.9063012,19.1063996],[72.9061371,19.1061727],[72.9059993,19.1059822],[72.9057524,19.1056379],[72.9055954,19.1054179],[72.9052086,19.1048768],[72.9050077,19.1045958],[72.9045984,19.1032762],[72.9045905,19.1032709],[72.9039789,19.10287],[72.9038889,19.1027921],[72.9038104,19.1026529],[72.9037307,19.1025116],[72.9036657,19.1023771],[72.9036596,19.1023644],[72.9036421,19.102328],[72.9035969,19.1023125],[72.9034828,19.1022732],[72.9033045,19.1022119],[72.903026,19.102116],[72.9023973,19.1016315],[72.9019859,19.1013962],[72.9017564,19.1011534],[72.9017081,19.1010934],[72.9016469,19.1010176],[72.9015608,19.1009429],[72.9013374,19.1007161],[72.9011871,19.1006087],[72.9010921,19.1005023],[72.9009877,19.1003854],[72.9009474,19.1002452],[72.9009327,19.1001943],[72.9009191,19.1001472],[72.9007729,19.0997872],[72.9007048,19.099575],[72.9006987,19.0995686],[72.9005851,19.0994487],[72.9005534,19.0994301],[72.9003844,19.0993311],[72.9003265,19.0993151],[72.8999906,19.099222],[72.89996,19.099199],[72.8998616,19.099125],[72.8997816,19.0990647],[72.8996872,19.0989937],[72.8995867,19.0988059],[72.899535,19.0986509],[72.8995016,19.0984658],[72.8993829,19.0977898],[72.8993777,19.0977601],[72.8993068,19.0975412],[72.8992339,19.0972987],[72.8991712,19.0971079],[72.8991026,19.0968896],[72.8990395,19.0966902],[72.8989364,19.0964482],[72.8988956,19.0963535],[72.8988672,19.0962818],[72.8988411,19.0962134],[72.8987936,19.0960975],[72.8987912,19.0960916],[72.8987632,19.0960177],[72.8989662,19.0959289],[72.8990095,19.09591],[72.8993404,19.0957653],[72.8993797,19.0955681],[72.8993877,19.0955345],[72.8993951,19.0954949],[72.8994277,19.0953267],[72.8995163,19.0951172],[72.8995381,19.094864],[72.899554,19.0948075],[72.8995932,19.0946694],[72.899684,19.0946643],[72.8997015,19.0945518],[72.8996948,19.0943912],[72.8996927,19.094342],[72.8996796,19.094209],[72.8996696,19.0941615],[72.899646,19.0940554],[72.8996148,19.0939517],[72.8995759,19.0938235],[72.8994968,19.0938231],[72.8994408,19.0937526],[72.8992449,19.0934909],[72.8991687,19.0933494],[72.8990386,19.0932552],[72.8990331,19.0932513],[72.8989354,19.0931805],[72.8988232,19.0930993],[72.898737,19.0930369],[72.8986918,19.0929939],[72.8986917,19.0929938],[72.8984348,19.0927493],[72.8983874,19.0925892],[72.898023,19.0925168],[72.8978284,19.0923726],[72.8977371,19.092305],[72.8972834,19.0920914],[72.89721,19.0920284],[72.8967409,19.0916259],[72.8965015,19.0915982],[72.8962338,19.0915892],[72.8959438,19.0915794],[72.8958566,19.0919778],[72.8957036,19.0921339],[72.8954566,19.0921713],[72.8953389,19.0921891],[72.8949741,19.0922847],[72.894826,19.091943],[72.8948848,19.0913369],[72.8948928,19.0912162],[72.8947941,19.0911977],[72.8947869,19.0911959],[72.8946848,19.0911707],[72.8946148,19.0911478],[72.8945714,19.0911309],[72.8945564,19.091125],[72.8944082,19.0910555],[72.8943428,19.0910307],[72.8943491,19.0909733],[72.8943929,19.0905759],[72.8944047,19.0904738],[72.8944094,19.0904325],[72.894433,19.0902258],[72.8944425,19.0901419],[72.8946169,19.0886106],[72.8946223,19.0885274],[72.8946233,19.0884768],[72.8946223,19.0884172],[72.8946196,19.0883665],[72.8946179,19.0883457],[72.8946163,19.0883278],[72.8946059,19.088272],[72.8946006,19.0882439],[72.8945777,19.0881213],[72.8944877,19.0877806],[72.8943454,19.0874209],[72.8942322,19.0870439],[72.8942033,19.0868862],[72.8941824,19.0867375],[72.8941766,19.0866968],[72.8941745,19.0866788],[72.8941736,19.0866672],[72.8941721,19.0866405],[72.8941809,19.086595],[72.8941865,19.0865675],[72.8941948,19.086529],[72.8942048,19.0864856],[72.8942188,19.0864303],[72.8942351,19.0863683],[72.8943202,19.0860611],[72.8943393,19.0859921],[72.8943728,19.0858755],[72.8943851,19.085833],[72.8944185,19.0857168],[72.8926714,19.0850838],[72.8927256,19.0849993],[72.8927504,19.0849692],[72.8927699,19.0849455],[72.8928241,19.0848812],[72.892973,19.084708],[72.8930235,19.0846096],[72.8931076,19.0844241],[72.8931482,19.0843633],[72.8932894,19.0841262],[72.8934994,19.0834847],[72.893751,19.0833506],[72.8936948,19.0825242],[72.8936817,19.0824031],[72.8937143,19.0822089],[72.893729,19.0821221],[72.8938187,19.081983],[72.8938208,19.0819798],[72.8938479,19.081922],[72.8939355,19.0817876],[72.8939402,19.0817804],[72.8939212,19.0817252],[72.8939092,19.081689],[72.8938425,19.0814724],[72.893833,19.0814507],[72.8938484,19.0812168],[72.8938534,19.0811744],[72.8938571,19.0811414],[72.8938607,19.0811137],[72.8938646,19.0810727],[72.8938674,19.0810487],[72.8938686,19.0810394],[72.8938703,19.0810267],[72.8938723,19.0810023],[72.893873,19.0809934],[72.8938748,19.0809847],[72.893864,19.0809157],[72.8938559,19.0808818],[72.8938493,19.0808547],[72.8938451,19.0808416],[72.8938431,19.0808356],[72.8938386,19.0808217],[72.8937737,19.0806253],[72.8937657,19.0806011],[72.8937567,19.0805738],[72.8937514,19.0805588],[72.8937477,19.0805482],[72.893745,19.080541],[72.8937371,19.0805167],[72.8937351,19.0805121],[72.8937283,19.0804925],[72.8937266,19.0804878],[72.8937162,19.0804598],[72.8937125,19.0804529],[72.8937073,19.080439],[72.8937027,19.080427],[72.8936937,19.0804045],[72.8936854,19.0803829],[72.8936758,19.0803596],[72.8936647,19.0803304],[72.893645,19.0802812],[72.8936337,19.0802492],[72.8933614,19.079476],[72.8933413,19.0794198],[72.8933336,19.0793935],[72.8932906,19.0792438],[72.8932709,19.0791807],[72.8932605,19.0791453],[72.8932535,19.0791212],[72.8931754,19.078854],[72.8931008,19.0785908],[72.8930497,19.0779795],[72.8928562,19.0773166],[72.8927653,19.0770053],[72.8927245,19.0768653],[72.8926367,19.0765568],[72.8925722,19.076327],[72.8924115,19.0757405],[72.8923319,19.0754499],[72.8922925,19.0753182],[72.8921835,19.0748105],[72.8920649,19.0742584],[72.8918519,19.0735147],[72.8917438,19.0731375],[72.8917269,19.0730786],[72.8917241,19.0730687],[72.8917072,19.0730095],[72.8915395,19.0727539],[72.8914916,19.0725728],[72.8914494,19.0724125],[72.891424,19.072134],[72.891389,19.0717736],[72.8913459,19.0713628],[72.8912482,19.0705874],[72.8912454,19.070565],[72.8912194,19.0704062],[72.8912056,19.0702609],[72.8911712,19.0697792],[72.8911635,19.0696683],[72.8911515,19.0694946],[72.891062,19.0684299],[72.8910617,19.0684278],[72.8923339,19.0682365],[72.8923962,19.0682253],[72.8924138,19.0682221],[72.8924736,19.0682114],[72.8925304,19.0682011],[72.8925442,19.0681987],[72.892713,19.0681683]]]]}}]}