{"type":"FeatureCollection","features":[{"type":"Feature","properties":{"ward": "PN"},"geometry":{"type":"MultiPolygon","coordinates":[[[[72.7803791,19.2176333],[72.7806687,19.2174889],[72.7809906,19.2168608],[72.7816424,19.2152727],[72.7817282,19.2147991],[72.7817067,19.2142216],[72.7816558,19.2134567],[72.781586,19.2126791],[72.7814788,19.2120763],[72.7813339,19.2114761],[72.7808619,19.2104199],[72.7806835,19.2102818],[72.7805051,19.2102147],[72.7801651,19.2100939],[72.7801122,19.2099918],[72.7803375,19.2099411],[72.7804863,19.2098044],[72.7805279,19.2096207],[72.7804971,19.2092066],[72.7802128,19.2088925],[72.7799016,19.2088115],[72.7795851,19.2088014],[72.7793491,19.2086696],[72.7791989,19.2084316],[72.7793169,19.208001],[72.7792939,19.207298],[72.7793974,19.2063951],[72.7796227,19.2060202],[72.779811,19.205834],[72.7804011,19.2056374],[72.7809423,19.2056783],[72.7813661,19.2058911],[72.7822539,19.2057897],[72.7825275,19.2059012],[72.7825999,19.2060506],[72.7827689,19.2061291],[72.7830371,19.2061317],[72.7833503,19.2060842],[72.7837694,19.2059443],[72.7841315,19.2058049],[72.7845204,19.2054883],[72.7849143,19.2051012],[72.7852308,19.2046972],[72.7855343,19.2041611],[72.7857927,19.2036029],[72.7859071,19.203082],[72.7859285,19.2027553],[72.7859044,19.2024285],[72.7858588,19.2021828],[72.7858132,19.201932],[72.7856764,19.2015217],[72.7854779,19.2011316],[72.7853327,19.2009382],[72.7850341,19.2008226],[72.7849039,19.2008099],[72.7847108,19.2007998],[72.7838337,19.2009644],[72.7832571,19.2010708],[72.7828252,19.2010607],[72.7825516,19.2008631],[72.7823853,19.2005592],[72.7822995,19.2002045],[72.7819991,19.1980464],[72.782042,19.1971345],[72.7819133,19.1962682],[72.7818274,19.1956197],[72.7817899,19.1950878],[72.7819616,19.1947635],[72.7820796,19.1943937],[72.7823478,19.1936642],[72.7824819,19.1934869],[72.7826321,19.1934261],[72.7828842,19.1935578],[72.7830827,19.1936084],[72.7832544,19.1935831],[72.7834958,19.1934514],[72.7837801,19.1930816],[72.784,19.1929853],[72.7850246,19.1930056],[72.7852714,19.1932943],[72.7855182,19.193421],[72.7859527,19.1934413],[72.7862048,19.1934261],[72.7864569,19.1935679],[72.7866983,19.1937655],[72.7869076,19.1938238],[72.7870819,19.1939378],[72.7874011,19.1940796],[72.787621,19.19411],[72.7878705,19.1940695],[72.7884793,19.1936768],[72.7889299,19.193421],[72.7895361,19.1932639],[72.7901208,19.1932639],[72.7907243,19.1934134],[72.7910703,19.1935679],[72.7913949,19.193801],[72.7916819,19.1940036],[72.7919072,19.1943228],[72.7922291,19.1948041],[72.7922881,19.1951435],[72.7925134,19.1953867],[72.7928299,19.1955285],[72.7929532,19.195873],[72.7930123,19.1962074],[72.7932537,19.1965114],[72.7936774,19.1966988],[72.7937472,19.1969268],[72.7938193,19.1970985],[72.7949735,19.1971114],[72.796595,19.1971296],[72.7967566,19.1965266],[72.7966922,19.1955336],[72.7965903,19.1943126],[72.796534,19.1936338],[72.796247,19.1928941],[72.7957106,19.1912653],[72.7956516,19.1910221],[72.7956086,19.1907156],[72.7956274,19.1901532],[72.7957079,19.1895326],[72.7958473,19.1880229],[72.7958313,19.1869143],[72.7961236,19.1857708],[72.7961468,19.1847964],[72.7961918,19.1828478],[72.7960485,19.1813883],[72.7956676,19.1801773],[72.7955118,19.1793887],[72.7953032,19.1783672],[72.7950818,19.1772895],[72.7949157,19.1762439],[72.7948008,19.1752546],[72.7942686,19.1731031],[72.7940637,19.172187],[72.7939832,19.1720806],[72.7936238,19.172035],[72.7930713,19.1718932],[72.7926582,19.1715892],[72.7922022,19.1714219],[72.7916819,19.1712877],[72.7912071,19.1714498],[72.7908517,19.1716069],[72.790617,19.1716272],[72.7904266,19.1714954],[72.7904212,19.1713231],[72.7905124,19.1712167],[72.7909309,19.1710014],[72.790955,19.1708468],[72.7908678,19.170672],[72.7906036,19.1703579],[72.7901423,19.1699272],[72.7898401,19.1697622],[72.7894878,19.1697043],[72.7891606,19.1698867],[72.7888951,19.1699069],[72.7886644,19.1698183],[72.7884693,19.1695801],[72.7883077,19.1693141],[72.7882808,19.1689442],[72.7881896,19.1686757],[72.7879925,19.1686263],[72.7877082,19.1685439],[72.7876478,19.1684147],[72.7877176,19.1681284],[72.7877068,19.1680676],[72.7876371,19.1676927],[72.7872723,19.1672012],[72.7867198,19.1668262],[72.7861297,19.166507],[72.7854538,19.166355],[72.7849092,19.166442],[72.7847242,19.1664715],[72.7844775,19.1668262],[72.7843273,19.1669883],[72.7842061,19.1673441],[72.7837363,19.1674705],[72.7828655,19.1675913],[72.7821225,19.1680068],[72.7819347,19.1680321],[72.7817738,19.1679663],[72.7816987,19.1678953],[72.7817255,19.167718],[72.7816611,19.1675812],[72.7814251,19.1674697],[72.7812749,19.1674545],[72.7811285,19.1672472],[72.7811301,19.1667983],[72.7810013,19.1665171],[72.7810174,19.1663448],[72.7811032,19.1660205],[72.7810684,19.1657013],[72.7809396,19.1652275],[72.7807277,19.1646423],[72.7807143,19.1642926],[72.780819,19.1640251],[72.7811972,19.1636394],[72.7820125,19.163183],[72.7821976,19.163112],[72.7823639,19.1630563],[72.7826053,19.1629347],[72.7829754,19.1626762],[72.7832115,19.1624482],[72.7834207,19.1621644],[72.7836621,19.1616881],[72.7838176,19.1612371],[72.7838713,19.1606392],[72.7838391,19.160249],[72.7837318,19.1598994],[72.783528,19.1596511],[72.7833241,19.1595751],[72.7830613,19.1596004],[72.7828655,19.1595573],[72.7823693,19.1592001],[72.7819803,19.1588454],[72.781696,19.158549],[72.7815951,19.1583364],[72.7815109,19.1581334],[72.7815565,19.1579231],[72.7816933,19.1578015],[72.7820393,19.1576647],[72.782506,19.1576115],[72.7827662,19.1575507],[72.7827904,19.1574722],[72.7828909,19.1574164],[72.7832034,19.1578674],[72.7832745,19.1578877],[72.7834073,19.157837],[72.7836648,19.1576318],[72.7839453,19.1572389],[72.7841526,19.1566268],[72.784306,19.155891],[72.7842953,19.1551968],[72.7842629,19.154789],[72.7843487,19.1545432],[72.784684,19.1542721],[72.7852013,19.1539981],[72.7853197,19.1539376],[72.7854836,19.1538397],[72.7859044,19.1535804],[72.7865736,19.1530394],[72.7869639,19.1527329],[72.7873823,19.1523237],[72.7878597,19.1516826],[72.7884029,19.1507616],[72.788651,19.1502206],[72.7888548,19.1496429],[72.7889873,19.1491042],[72.7891445,19.1481277],[72.7892144,19.1471343],[72.78904,19.146097],[72.7889568,19.1454672],[72.7889192,19.1451676],[72.7888177,19.1448706],[72.7893094,19.144689],[72.7893117,19.14469],[72.7893538,19.1447085],[72.7893909,19.1447249],[72.7894675,19.1447515],[72.7895084,19.1447638],[72.7896399,19.1448033],[72.7897399,19.1448363],[72.7897525,19.1448404],[72.7898752,19.1448808],[72.7899794,19.1449178],[72.790047,19.1449417],[72.7901193,19.144967],[72.7901631,19.1449824],[72.7901856,19.144984],[72.7901869,19.1449841],[72.790187,19.1449841],[72.7902983,19.1449908],[72.7904774,19.1449732],[72.7906191,19.1449578],[72.7907237,19.1449465],[72.7907623,19.1449429],[72.7908098,19.1449385],[72.7908416,19.1449356],[72.7908484,19.144935],[72.7909206,19.1449283],[72.7909803,19.1449228],[72.7910395,19.1449183],[72.7912611,19.1449014],[72.7912646,19.1449009],[72.7912804,19.1448989],[72.7913368,19.1448919],[72.7914451,19.1448836],[72.791446,19.1448832],[72.791498,19.1448622],[72.7915422,19.14484],[72.7915661,19.144828],[72.791654,19.1447839],[72.7916651,19.1447797],[72.7917669,19.1447356],[72.7917744,19.1447313],[72.7918141,19.1447123],[72.7919326,19.1446661],[72.7920187,19.1446326],[72.7921887,19.1445664],[72.7921953,19.1445643],[72.7922585,19.1445359],[72.7929531,19.144223],[72.7929583,19.1442209],[72.7930863,19.1441551],[72.7935282,19.1438645],[72.7936466,19.1437827],[72.7936862,19.1437327],[72.7937246,19.1436842],[72.7937279,19.1436803],[72.7937379,19.1436688],[72.7938477,19.1435415],[72.7938782,19.143506],[72.7938884,19.1434928],[72.7939138,19.1434596],[72.7939319,19.1434178],[72.7939375,19.143405],[72.793941,19.143397],[72.7939504,19.1433753],[72.7939718,19.1433586],[72.7940534,19.1432946],[72.7940653,19.1432867],[72.7943004,19.1431294],[72.7945262,19.1429809],[72.7945283,19.1429764],[72.7945355,19.1429602],[72.7945441,19.1429408],[72.7946087,19.142796],[72.7946153,19.1427958],[72.7947418,19.1427917],[72.7947994,19.1427898],[72.7948052,19.1427896],[72.7948414,19.1427859],[72.7949496,19.1427741],[72.7949974,19.1427689],[72.7950099,19.1427676],[72.7950173,19.1427668],[72.7950218,19.1427664],[72.7950349,19.1427463],[72.7951184,19.1426268],[72.795116,19.1426201],[72.7950949,19.1425621],[72.7950515,19.1424431],[72.79516,19.1423971],[72.7953066,19.142373],[72.7953191,19.142371],[72.795444,19.1422476],[72.7955565,19.1421345],[72.7958485,19.142062],[72.7958855,19.1420528],[72.7960094,19.1420219],[72.7960114,19.1420214],[72.7960423,19.1420137],[72.7960655,19.1420079],[72.7960695,19.1420069],[72.7960761,19.1420073],[72.7961184,19.1420098],[72.7961865,19.1420138],[72.7962685,19.1420286],[72.7963441,19.1420422],[72.796376,19.142048],[72.7966309,19.1420939],[72.796772,19.1421458],[72.7968109,19.1421704],[72.7969291,19.1422448],[72.7971677,19.1423953],[72.7971711,19.1423979],[72.7972957,19.1424953],[72.7973349,19.1425259],[72.7975302,19.1426315],[72.7977789,19.1427068],[72.7978813,19.1427494],[72.797964,19.1427838],[72.798006,19.1427988],[72.798066,19.1428203],[72.7980852,19.1428272],[72.7981417,19.1428474],[72.7981362,19.1427903],[72.7981314,19.1427072],[72.7980756,19.142671],[72.7980654,19.1426677],[72.7980456,19.1426611],[72.7980504,19.1426408],[72.7980579,19.1426091],[72.7980736,19.1425423],[72.7980768,19.1425285],[72.7980734,19.1425136],[72.7980667,19.1424847],[72.798078,19.1424082],[72.7980958,19.1423896],[72.7981334,19.1414405],[72.7981626,19.140927],[72.798261,19.1405165],[72.7982935,19.1404197],[72.7983767,19.140293],[72.7984364,19.1400306],[72.7983505,19.1397678],[72.7983995,19.1397203],[72.7984766,19.1397171],[72.7985383,19.139745],[72.7985772,19.1399047],[72.7985537,19.1400599],[72.7984437,19.1404184],[72.7985108,19.1405514],[72.7986352,19.14057],[72.7989136,19.1406884],[72.7989795,19.1408447],[72.7990187,19.1408616],[72.799074,19.1408649],[72.7991347,19.1408673],[72.7991545,19.1407795],[72.7992377,19.140782],[72.7993771,19.1409087],[72.7995129,19.1411612],[72.7995773,19.1413437],[72.7997097,19.1412027],[72.7999136,19.1411165],[72.7999806,19.1410988],[72.8000638,19.1412229],[72.7999592,19.1414485],[72.8000423,19.1418057],[72.8003374,19.142049],[72.8003696,19.1422973],[72.8005966,19.1424257],[72.8007859,19.1427067],[72.8006861,19.142837],[72.8005359,19.1428548],[72.8002804,19.1428859],[72.7999619,19.1427788],[72.7998831,19.1429907],[72.8000601,19.143158],[72.8000708,19.1432897],[72.8001674,19.1434316],[72.8003605,19.1435431],[72.8004678,19.1436546],[72.801766,19.1442729],[72.8019457,19.144347],[72.802053,19.1443977],[72.8021371,19.1444308],[72.8023115,19.1445208],[72.8023115,19.1445841],[72.8023933,19.1446627],[72.8024872,19.1446703],[72.8025824,19.1447096],[72.8026897,19.1449363],[72.8026615,19.145044],[72.8025877,19.145082],[72.8025515,19.1451606],[72.8025556,19.1452936],[72.802581,19.1454026],[72.802577,19.1456091],[72.8026162,19.1458698],[72.8041413,19.1454789],[72.8042561,19.1454495],[72.8044773,19.146182],[72.8047293,19.1470734],[72.8048483,19.1473602],[72.8052187,19.1482529],[72.8060217,19.1499456],[72.8067854,19.1508503],[72.8077687,19.1518444],[72.8078714,19.1519739],[72.8081672,19.1523737],[72.8086141,19.152913],[72.8091046,19.1534747],[72.8094625,19.1540324],[72.8101609,19.155],[72.810907,19.1558638],[72.8110411,19.1559953],[72.816175,19.1610322],[72.8215874,19.1663419],[72.8223083,19.1670221],[72.8235101,19.1682696],[72.8250317,19.1696298],[72.8252264,19.1701808],[72.8253588,19.1708524],[72.8255459,19.1718572],[72.8255502,19.1718804],[72.8257551,19.1726615],[72.8272337,19.1744087],[72.8279593,19.174723],[72.8287017,19.1754121],[72.8293039,19.1764199],[72.8295446,19.1774629],[72.8296384,19.1784885],[72.8297625,19.1784969],[72.8307701,19.1785721],[72.8310123,19.1785611],[72.8310223,19.1785607],[72.8310968,19.1785573],[72.8311598,19.1785545],[72.8312981,19.1785482],[72.8313073,19.1785478],[72.8314339,19.1785423],[72.8315141,19.1785388],[72.8316859,19.1785313],[72.8318568,19.1785345],[72.8319436,19.1785371],[72.8323016,19.1785481],[72.8326624,19.1785634],[72.8330253,19.1785824],[72.8335286,19.1786057],[72.8336831,19.1786163],[72.8340596,19.178639],[72.8340676,19.1786395],[72.8343987,19.1786664],[72.834401,19.1786666],[72.8346698,19.1786884],[72.8347985,19.1787078],[72.8349142,19.1787252],[72.8349408,19.1787291],[72.8349537,19.1787329],[72.8349739,19.1787388],[72.835057,19.1787629],[72.8350905,19.1787789],[72.8351508,19.1788076],[72.8352156,19.1788512],[72.8352774,19.1788932],[72.8353669,19.1789471],[72.8354172,19.1789831],[72.8355416,19.1790785],[72.8356232,19.1791445],[72.8357065,19.1792195],[72.8358118,19.1793206],[72.8359393,19.1794405],[72.836095,19.1795863],[72.8362857,19.1797325],[72.8363007,19.1797394],[72.8363117,19.1797445],[72.83632,19.1797488],[72.8363317,19.1797549],[72.8364723,19.1797624],[72.8365366,19.1797659],[72.8366498,19.1797622],[72.8366507,19.1797621],[72.8367727,19.1797581],[72.8367814,19.1797579],[72.8368969,19.1797043],[72.8370136,19.1796183],[72.8371671,19.179501],[72.8371985,19.1794835],[72.8372109,19.1794786],[72.8373106,19.179439],[72.8374492,19.1793769],[72.8375297,19.1793455],[72.8376288,19.1793319],[72.8377029,19.1793293],[72.8378891,19.1793229],[72.8379492,19.1793255],[72.838166,19.1793351],[72.8382525,19.1793305],[72.8383618,19.179329],[72.8385143,19.179324],[72.8387524,19.1793244],[72.8388845,19.1793241],[72.8390227,19.1793225],[72.8391761,19.17932],[72.8393205,19.1793172],[72.8394768,19.1793176],[72.8396392,19.1793211],[72.8397732,19.1793189],[72.8398975,19.1793178],[72.8400184,19.1793141],[72.8401455,19.1793056],[72.8402657,19.1792995],[72.8403527,19.1792971],[72.8403806,19.1792964],[72.8403878,19.1792954],[72.8403926,19.1792953],[72.840618,19.1792639],[72.8407099,19.1792563],[72.8407115,19.1792561],[72.8407219,19.1792553],[72.8408595,19.1792377],[72.8408628,19.1792372],[72.8410061,19.1792189],[72.8410143,19.1792178],[72.8412706,19.1792205],[72.8412746,19.1792205],[72.8416371,19.1792369],[72.8416957,19.1792377],[72.84174,19.1792357],[72.8417439,19.1792352],[72.8417521,19.1792348],[72.8417633,19.1792335],[72.8417842,19.179231],[72.841877,19.1792201],[72.8418773,19.17922],[72.8421206,19.1791936],[72.8423704,19.1791531],[72.8424072,19.1791472],[72.8424083,19.179147],[72.8424267,19.179144],[72.8424268,19.179144],[72.8424464,19.1791393],[72.8424844,19.1791303],[72.8424967,19.1791286],[72.8425147,19.179124],[72.8425724,19.1791093],[72.8427243,19.1790732],[72.8427338,19.1790709],[72.8428553,19.1790596],[72.8428662,19.1790534],[72.842916,19.1790249],[72.8430748,19.1790226],[72.8433226,19.1790229],[72.843405,19.1790223],[72.8434593,19.1790195],[72.8435119,19.179015],[72.84356,19.1790112],[72.8436557,19.1789867],[72.8437255,19.1789625],[72.8437309,19.1789606],[72.8437522,19.1789528],[72.8437807,19.1789424],[72.8438475,19.1789232],[72.843936,19.178904],[72.8440212,19.1788822],[72.8440725,19.178869],[72.8442335,19.178852],[72.8443481,19.1788461],[72.8444317,19.1788492],[72.8445094,19.1788495],[72.8445984,19.178851],[72.8446202,19.1788544],[72.8446253,19.1788552],[72.8446871,19.178865],[72.8447079,19.1788728],[72.8447209,19.1788777],[72.8447334,19.1788796],[72.8447694,19.1788851],[72.8447758,19.1788852],[72.8447821,19.1788849],[72.8448023,19.178881],[72.8448457,19.1788652],[72.8449622,19.1787999],[72.8449964,19.1787803],[72.8450319,19.17876],[72.8451616,19.1786548],[72.8452023,19.1786278],[72.8452347,19.1786063],[72.845411,19.1784924],[72.8455009,19.1784544],[72.8455332,19.1784403],[72.8455655,19.1784262],[72.8456495,19.1783909],[72.8456554,19.1783884],[72.8457154,19.1783667],[72.8457571,19.1783517],[72.8458474,19.178319],[72.8460166,19.1782262],[72.8461842,19.178154],[72.8462205,19.1781384],[72.8462499,19.1781257],[72.8462578,19.1781223],[72.8462825,19.1781117],[72.8463228,19.1781127],[72.8463261,19.1781128],[72.8465512,19.1781188],[72.8469361,19.1780926],[72.8472196,19.1780723],[72.8477749,19.1779736],[72.8477976,19.1779696],[72.8480452,19.1779166],[72.8482414,19.177853],[72.8482739,19.1778429],[72.8482749,19.1778426],[72.8484628,19.1777841],[72.8485476,19.1777522],[72.848549,19.1777517],[72.848558,19.1777483],[72.8486212,19.177713],[72.8486915,19.1776619],[72.8487349,19.1776356],[72.8488245,19.1775812],[72.8488842,19.1775334],[72.8490467,19.1773723],[72.8490898,19.1772917],[72.8491057,19.1772619],[72.8492491,19.1771047],[72.8494325,19.1769853],[72.8494326,19.1769852],[72.8494662,19.1769633],[72.8496322,19.1768818],[72.8496694,19.1768636],[72.8497475,19.1768505],[72.8498853,19.1768275],[72.8500451,19.1768213],[72.8501026,19.176819],[72.8501138,19.1768016],[72.8501756,19.1767047],[72.8503537,19.176538],[72.850497,19.1764209],[72.851088,19.1763325],[72.851419,19.1762799],[72.8514632,19.1762787],[72.8514916,19.1762802],[72.8516318,19.1762745],[72.8517271,19.1762955],[72.8518061,19.1763172],[72.852016,19.1763901],[72.8525632,19.1765917],[72.8527527,19.1766706],[72.8528798,19.1767146],[72.8530418,19.1767244],[72.8533305,19.1767137],[72.8538168,19.1767609],[72.8540934,19.1768238],[72.8543824,19.1768819],[72.8551372,19.1770814],[72.8554862,19.1771655],[72.855857,19.1772474],[72.85594,19.1772699],[72.856119,19.1773159],[72.8562008,19.1773677],[72.8562767,19.1774294],[72.8565247,19.1774768],[72.85657,19.1774856],[72.8566231,19.1774908],[72.8566985,19.1774843],[72.8567645,19.1774726],[72.8567676,19.1774699],[72.8567812,19.1774598],[72.8567984,19.1774472],[72.8568743,19.1773996],[72.85695,19.177345],[72.8569987,19.1773087],[72.8570458,19.1772496],[72.8570534,19.1772306],[72.8570589,19.1771783],[72.8570663,19.1770254],[72.8570694,19.176961],[72.8570665,19.1767524],[72.8570619,19.1764167],[72.8570605,19.1761],[72.8570809,19.1760064],[72.8570985,19.1759633],[72.8571507,19.1758656],[72.857182,19.1758294],[72.8572081,19.1757992],[72.8574348,19.1755986],[72.8575676,19.1755032],[72.857702,19.1754291],[72.8577618,19.1753963],[72.857866,19.1753641],[72.8579779,19.1753649],[72.8583944,19.175378],[72.859378,19.1754004],[72.8594129,19.1750416],[72.85943,19.1748903],[72.8594343,19.1748522],[72.8594419,19.1747855],[72.8594423,19.1747823],[72.8594453,19.1747559],[72.8594455,19.1747539],[72.859471,19.1744125],[72.8594736,19.174357],[72.86104,19.174634],[72.8634288,19.1751147],[72.8654418,19.1755796],[72.8661515,19.1757107],[72.8664669,19.1757864],[72.8665799,19.175812],[72.8666892,19.1758369],[72.8667711,19.1758439],[72.8668658,19.175845],[72.8669479,19.1758339],[72.8672137,19.1757751],[72.8676759,19.1756525],[72.8678384,19.1756104],[72.868019,19.1755864],[72.8680542,19.1755817],[72.8680725,19.1755794],[72.8681483,19.1755724],[72.8688361,19.1755632],[72.869004,19.1755609],[72.8704869,19.1756009],[72.8705769,19.1756036],[72.8708855,19.1756127],[72.8710174,19.1756331],[72.8710483,19.1756379],[72.8711721,19.1756613],[72.8712958,19.1756846],[72.871308,19.1756873],[72.8714457,19.1757178],[72.8714842,19.1757215],[72.8717071,19.1757428],[72.8718516,19.1757566],[72.8720937,19.1757798],[72.8722308,19.1757929],[72.8722511,19.1757949],[72.8730815,19.1758744],[72.8734281,19.1759075],[72.8734282,19.1759075],[72.8735802,19.1759221],[72.8737863,19.1759418],[72.8738412,19.1759471],[72.8740327,19.1759654],[72.8740586,19.1756365],[72.8740596,19.1756233],[72.8740834,19.1753216],[72.8741269,19.1747685],[72.8742142,19.1736611],[72.8742472,19.1732423],[72.8742619,19.1730863],[72.87433,19.172363],[72.8743393,19.1722639],[72.8743447,19.1722061],[72.8743851,19.1717776],[72.874408,19.1716442],[72.8745534,19.1707983],[72.8746099,19.1704697],[72.8747611,19.1701834],[72.8749441,19.1698589],[72.8749749,19.1698044],[72.8750569,19.169659],[72.8750584,19.1696563],[72.8750976,19.1695868],[72.8753552,19.1691302],[72.8758214,19.1683579],[72.8758918,19.1682435],[72.8759362,19.1681713],[72.8759678,19.16812],[72.8760439,19.167996],[72.8761262,19.1678714],[72.8762129,19.1677495],[72.8763038,19.1676304],[72.8763988,19.1675143],[72.8764269,19.1674821],[72.8764978,19.1674012],[72.8766007,19.1672912],[72.8767074,19.1671846],[72.8768177,19.1670815],[72.8769316,19.1669818],[72.8770489,19.1668858],[72.8771265,19.1668265],[72.8771478,19.1668103],[72.8771696,19.1667936],[72.8772933,19.1667052],[72.8772968,19.1667029],[72.8774201,19.1666208],[72.8775498,19.1665405],[72.8776745,19.1664687],[72.8778264,19.1663908],[72.8784404,19.1660808],[72.8799056,19.165416],[72.8805825,19.1651176],[72.8809691,19.1649622],[72.8812757,19.164839],[72.882046,19.1645423],[72.882067,19.1646271],[72.8836821,19.1639681],[72.8843909,19.1637435],[72.8855467,19.1634095],[72.8856072,19.163392],[72.8856658,19.1633751],[72.886001,19.1632782],[72.8861386,19.1632402],[72.8862022,19.1632226],[72.88739,19.1629364],[72.8878445,19.1628269],[72.8879305,19.1627986],[72.8880742,19.1627512],[72.8881997,19.1627099],[72.8887,19.1626024],[72.8890115,19.162584],[72.8892931,19.1625683],[72.8895877,19.1625885],[72.8896028,19.162617],[72.8900652,19.1627376],[72.8903718,19.1628408],[72.8905668,19.1629096],[72.8907058,19.162991],[72.8908724,19.1630926],[72.8909759,19.1632069],[72.891218,19.1634291],[72.8914465,19.1636179],[72.8920876,19.1638067],[72.8923431,19.1638819],[72.8923204,19.1639705],[72.8924754,19.1642937],[72.8936133,19.1666655],[72.8947412,19.1690164],[72.8950228,19.1696034],[72.8962673,19.172058],[72.8970485,19.1735987],[72.8970752,19.1736279],[72.8983906,19.1750713],[72.898523,19.1752166],[72.8988899,19.1756192],[72.8993289,19.1760885],[72.8994875,19.1767108],[72.8995717,19.1770529],[72.8995846,19.177114],[72.8996825,19.1774783],[72.8997767,19.1778533],[72.8999247,19.1784978],[72.9002433,19.1798349],[72.9002653,19.1799275],[72.900057,19.1810951],[72.9000176,19.1813019],[72.9000048,19.1825169],[72.8999919,19.1832632],[72.9001882,19.1851018],[72.8973907,19.1892042],[72.8973904,19.1892044],[72.8973668,19.1892231],[72.8973648,19.1892246],[72.8973646,19.1892248],[72.8973646,19.1892249],[72.8973373,19.1892456],[72.8973362,19.1892464],[72.8970505,19.1894636],[72.8970381,19.1894731],[72.8961793,19.1901424],[72.896104,19.1902011],[72.8956751,19.1905407],[72.8956748,19.1905407],[72.8956745,19.1905408],[72.8956676,19.1905413],[72.8944969,19.1906301],[72.8943005,19.1906452],[72.8941652,19.1906646],[72.8940371,19.190683],[72.894037,19.190683],[72.8924341,19.1910663],[72.8920067,19.1911061],[72.891081,19.1911927],[72.8878406,19.1922339],[72.8878214,19.1922401],[72.8877289,19.1922698],[72.8876686,19.1922892],[72.887576,19.1923189],[72.8872545,19.1924222],[72.8871415,19.1924585],[72.8871129,19.1924677],[72.887081,19.192478],[72.8870364,19.1924777],[72.8858588,19.19247],[72.8856478,19.1924686],[72.8855747,19.1924682],[72.8847443,19.192463],[72.8827839,19.1924557],[72.88275,19.1924601],[72.8807251,19.1927249],[72.8788411,19.1929713],[72.8788389,19.1929716],[72.8784562,19.1929286],[72.8784166,19.1929242],[72.8774167,19.1928117],[72.8769661,19.1928422],[72.8768011,19.1928534],[72.87672,19.1928589],[72.8767068,19.1928603],[72.8767006,19.1928626],[72.8765601,19.1929154],[72.8765417,19.1929223],[72.8765152,19.1929282],[72.8763809,19.1929581],[72.87629,19.1929784],[72.876195,19.1929995],[72.8761089,19.1930187],[72.8760613,19.1930293],[72.8760162,19.1930428],[72.8759056,19.1930757],[72.8758272,19.1930991],[72.8757589,19.1931194],[72.8757171,19.1931319],[72.8754445,19.1932131],[72.8754269,19.1932186],[72.8752775,19.1932656],[72.8752639,19.1932699],[72.875154,19.1933048],[72.8750971,19.1933229],[72.8750617,19.1933339],[72.8749535,19.1933678],[72.8749269,19.1933761],[72.8748948,19.1933862],[72.8748585,19.1933977],[72.8747708,19.1934253],[72.8747606,19.1934286],[72.8746762,19.1934539],[72.8746067,19.1934751],[72.8745928,19.1934793],[72.8745672,19.1935166],[72.874543,19.1935519],[72.8744263,19.193725],[72.874425,19.193727],[72.8743452,19.193846],[72.8743127,19.1938935],[72.8743126,19.1938935],[72.8742973,19.1939163],[72.8742964,19.1939175],[72.8742943,19.1939213],[72.8742892,19.1939219],[72.8742808,19.193923],[72.8742654,19.1939256],[72.8742143,19.1939345],[72.8741795,19.1939406],[72.8741518,19.1939451],[72.8740511,19.1939618],[72.8740191,19.1939585],[72.8739926,19.1939561],[72.8738675,19.1939444],[72.8738553,19.1939412],[72.8738411,19.1939376],[72.8737863,19.1939387],[72.8737514,19.1939361],[72.8737422,19.1939354],[72.873709,19.1939378],[72.8735971,19.1939461],[72.8734546,19.1939583],[72.873418,19.1939615],[72.8733624,19.1939654],[72.8732383,19.1939745],[72.8732205,19.1939773],[72.8732156,19.1939782],[72.8731738,19.1939852],[72.8731519,19.1939886],[72.8730954,19.1939975],[72.8730953,19.1939975],[72.8730951,19.1939975],[72.8730915,19.1939978],[72.8730914,19.1939978],[72.8729877,19.194007],[72.8729516,19.1940005],[72.8729107,19.1939935],[72.8728882,19.1939856],[72.8728639,19.1939771],[72.8728149,19.1939599],[72.8727902,19.1939352],[72.8727835,19.1939284],[72.8727142,19.1939272],[72.8726995,19.1939288],[72.872654,19.1939337],[72.8726489,19.1939341],[72.8725895,19.1939388],[72.8725857,19.1939384],[72.872525,19.1939315],[72.8725168,19.1939292],[72.872476,19.1939119],[72.8724746,19.1939113],[72.8724047,19.1938817],[72.8723898,19.1938753],[72.872356,19.1938723],[72.872253,19.193863],[72.8722454,19.1938623],[72.8721932,19.1938575],[72.8721793,19.1938564],[72.8719846,19.1938608],[72.8718515,19.1938638],[72.8715429,19.1938708],[72.8713393,19.1938515],[72.8713173,19.1938501],[72.8712567,19.1938462],[72.8710675,19.1938411],[72.8710044,19.1938394],[72.8710031,19.1938391],[72.8710015,19.1938388],[72.8709847,19.1938356],[72.8709594,19.1938354],[72.8708481,19.1938343],[72.8707993,19.1938338],[72.8707251,19.193833],[72.8705302,19.1938311],[72.8704964,19.1938308],[72.8704914,19.1938307],[72.8702972,19.1938288],[72.8700695,19.1937519],[72.8697048,19.1937124],[72.8696514,19.1937066],[72.8695787,19.1936987],[72.8695396,19.1937092],[72.869529,19.193712],[72.8694159,19.1937392],[72.8693395,19.1937576],[72.869263,19.19377],[72.8692282,19.1937756],[72.8692073,19.193779],[72.8689113,19.1937818],[72.8688985,19.1937841],[72.8688079,19.1938006],[72.8687599,19.1938093],[72.8687552,19.1938104],[72.8686837,19.1938276],[72.8684297,19.193887],[72.86842,19.1938892],[72.8683506,19.1938989],[72.8682901,19.1939073],[72.8681854,19.1939184],[72.8681501,19.1939233],[72.868102,19.19393],[72.8680434,19.1939381],[72.8680444,19.1939293],[72.8680549,19.193839],[72.8680869,19.1938018],[72.8681245,19.1937582],[72.8680856,19.1937065],[72.8680638,19.1937072],[72.8678425,19.1937147],[72.8677062,19.1937193],[72.8676852,19.1937201],[72.8676746,19.1937205],[72.8676133,19.1937096],[72.8675734,19.1937025],[72.8674486,19.1936813],[72.8674253,19.1936739],[72.8674236,19.1936734],[72.8672067,19.1936052],[72.8670002,19.1935454],[72.8669598,19.1935338],[72.8668269,19.1935279],[72.8667272,19.1935235],[72.8666956,19.1935221],[72.8664068,19.1934977],[72.8663428,19.1934895],[72.8661256,19.1934865],[72.8660959,19.193482],[72.8660229,19.1934733],[72.8658489,19.1934541],[72.8658345,19.1934524],[72.8658343,19.1934524],[72.8656704,19.1934335],[72.8653269,19.1934288],[72.8653062,19.1934269],[72.8652932,19.1934257],[72.865291,19.1934255],[72.8652768,19.1934242],[72.8652628,19.1934229],[72.8652428,19.193424],[72.8651451,19.1934229],[72.8651228,19.1934227],[72.865103,19.1934221],[72.8651004,19.193422],[72.8649833,19.1934201],[72.8648878,19.1934182],[72.8647611,19.19343],[72.8647368,19.1932928],[72.8646397,19.1927434],[72.8646073,19.1925058],[72.8645925,19.1923974],[72.8645856,19.1923468],[72.8645757,19.1922741],[72.8645723,19.1922493],[72.8645685,19.1922213],[72.8645619,19.1921728],[72.8645435,19.1921521],[72.8645386,19.1921466],[72.8645321,19.1921393],[72.8644935,19.1920959],[72.8644564,19.1920542],[72.8644503,19.1920473],[72.8644313,19.1920259],[72.8643644,19.1919508],[72.8643548,19.1918616],[72.8643525,19.1918399],[72.8643475,19.1917939],[72.8643395,19.1917202],[72.8643391,19.1917161],[72.8643384,19.1917091],[72.864337,19.1916961],[72.8643313,19.1916436],[72.864323,19.19162],[72.8643161,19.1916006],[72.8643159,19.1915998],[72.8643001,19.191555],[72.8642927,19.1915339],[72.8642572,19.1914331],[72.8642541,19.1914244],[72.8642583,19.1913373],[72.8642621,19.19126],[72.8642662,19.1911756],[72.86427,19.1910969],[72.8641846,19.1911015],[72.8641347,19.1911041],[72.8641144,19.1910772],[72.8641014,19.19106],[72.8640833,19.191036],[72.864044,19.190984],[72.86384,19.1910262],[72.8637829,19.1910389],[72.8637693,19.1910414],[72.8637448,19.1910459],[72.8637115,19.1910528],[72.8637054,19.191054],[72.8636615,19.1910631],[72.8636547,19.1910645],[72.8635504,19.1910861],[72.8634779,19.1911011],[72.863453,19.1911062],[72.8634296,19.191111],[72.8633645,19.1911245],[72.8633135,19.191135],[72.86331,19.1911361],[72.8633076,19.1911368],[72.8632888,19.1911423],[72.8632686,19.1911483],[72.8632505,19.1911536],[72.8632098,19.1911637],[72.8630607,19.1912007],[72.8629631,19.1912249],[72.8629538,19.1912272],[72.8628916,19.1912426],[72.862886,19.191244],[72.8628164,19.1912612],[72.8627897,19.1912679],[72.8627491,19.1912779],[72.8627208,19.1912821],[72.8626674,19.1912901],[72.8626207,19.1912971],[72.8625113,19.1913134],[72.8623106,19.191374],[72.8621881,19.1914109],[72.8621187,19.1914103],[72.8620873,19.19141],[72.8618573,19.1914704],[72.8617148,19.1915078],[72.8616166,19.1915336],[72.8615278,19.1915569],[72.8614672,19.1915729],[72.8614562,19.1915757],[72.8613062,19.1916752],[72.8612808,19.191692],[72.8612161,19.1917626],[72.8611329,19.1918533],[72.8610906,19.191898],[72.8610567,19.1919351],[72.8610467,19.1919461],[72.8609902,19.1920082],[72.8608948,19.1921176],[72.8607946,19.1922301],[72.8607236,19.1923097],[72.8607138,19.1923206],[72.8607115,19.1923233],[72.8606984,19.1923389],[72.8606472,19.1924001],[72.8605941,19.1924635],[72.860567,19.1924959],[72.8604726,19.192603],[72.8603711,19.1927207],[72.8603312,19.1927669],[72.8603257,19.1927746],[72.860289,19.1928062],[72.8602611,19.1928339],[72.8602185,19.1928762],[72.8601317,19.1929887],[72.8601154,19.1930069],[72.8600788,19.1930443],[72.8600088,19.1931159],[72.859967,19.1931587],[72.8598406,19.1933714],[72.8598177,19.19341],[72.8597998,19.1934884],[72.8598083,19.1935109],[72.8598086,19.1935116],[72.86001,19.1938986],[72.8600543,19.1940045],[72.860193,19.1943361],[72.8603449,19.1946788],[72.8600647,19.1947243],[72.8599215,19.1947041],[72.8597513,19.194658],[72.8596179,19.1946282],[72.8596128,19.1946271],[72.859543,19.1946115],[72.8595244,19.1946242],[72.8595108,19.1946335],[72.8594977,19.1946425],[72.8594892,19.1946482],[72.8594708,19.1946608],[72.8594564,19.1946707],[72.8594493,19.1946755],[72.8593948,19.1947127],[72.8593911,19.1947152],[72.8593865,19.1947153],[72.8593521,19.1947157],[72.8593346,19.1947111],[72.8593345,19.1947111],[72.8593265,19.1947107],[72.8593056,19.1946995],[72.8592885,19.1946906],[72.8592668,19.1946831],[72.8592647,19.1946824],[72.8592255,19.1946689],[72.8591858,19.1946603],[72.8591137,19.1946448],[72.8590904,19.1946397],[72.8590819,19.1946341],[72.8590578,19.194618],[72.8590492,19.1946157],[72.8590276,19.1946097],[72.8588888,19.1945713],[72.8588711,19.1945664],[72.8588428,19.1945586],[72.8588391,19.1945579],[72.8587114,19.194534],[72.8585054,19.1944975],[72.8583354,19.1945642],[72.8583364,19.1945649],[72.8583111,19.1945752],[72.8583058,19.1945776],[72.8582272,19.1946149],[72.858189,19.1946331],[72.8581664,19.1946531],[72.8578577,19.1945721],[72.8576242,19.1944974],[72.8574392,19.1944382],[72.8573893,19.1944367],[72.8573721,19.1944362],[72.857372,19.1944362],[72.857249,19.1944327],[72.8571635,19.1944302],[72.856818,19.1943779],[72.8567338,19.1943658],[72.8567255,19.1943646],[72.8566377,19.1943521],[72.8564271,19.1943471],[72.8564262,19.1943471],[72.8564252,19.194347],[72.8562979,19.1943441],[72.8562978,19.194344],[72.8562975,19.194344],[72.8560491,19.1942004],[72.8560137,19.1941775],[72.8560136,19.1941774],[72.8560087,19.1941742],[72.8557801,19.1940266],[72.8557493,19.1940086],[72.8556572,19.1939716],[72.8555608,19.1939484],[72.8555607,19.1939484],[72.8555405,19.1939436],[72.8555251,19.19394],[72.8554946,19.1939189],[72.8554928,19.1939177],[72.8554927,19.1939176],[72.8554357,19.1938785],[72.8554136,19.1938665],[72.8552754,19.1937915],[72.8552753,19.1937915],[72.855255,19.1937805],[72.8552394,19.193772],[72.8551003,19.1936967],[72.8547786,19.1936858],[72.8545645,19.1937184],[72.8543247,19.1937548],[72.8542714,19.1937654],[72.8542542,19.1937688],[72.8541937,19.1937808],[72.8541936,19.1937808],[72.8541176,19.1937959],[72.8538546,19.1938483],[72.8537309,19.1938729],[72.8537134,19.1938763],[72.8536793,19.1938933],[72.8536501,19.1939078],[72.8536416,19.1941999],[72.8536256,19.1947564],[72.8536224,19.1948648],[72.8536179,19.1950227],[72.8536175,19.1950366],[72.8536125,19.1952081],[72.8536058,19.1954572],[72.8535982,19.1957376],[72.8537067,19.1957378],[72.8537088,19.1957378],[72.8538482,19.195738],[72.8538822,19.1957559],[72.8540438,19.1958411],[72.8541049,19.1958947],[72.8540043,19.1964027],[72.8539957,19.1964755],[72.85394,19.1969453],[72.8539468,19.19698],[72.8539478,19.1969849],[72.8538594,19.1976993],[72.8538461,19.1977997],[72.8538041,19.1981168],[72.8538029,19.1981263],[72.8537426,19.1985816],[72.8537329,19.1986549],[72.8537119,19.1988141],[72.8537092,19.1988229],[72.8536981,19.1988591],[72.8536816,19.1988945],[72.8536798,19.1988985],[72.8536797,19.1988987],[72.8536678,19.1988981],[72.8536537,19.1988975],[72.8535287,19.1988914],[72.8534357,19.1988868],[72.8530629,19.1988687],[72.8529252,19.198862],[72.8529065,19.1988611],[72.8528102,19.1988564],[72.8526616,19.1988492],[72.8524889,19.1988408],[72.8524698,19.1988398],[72.8521153,19.1988226],[72.8516284,19.1987989],[72.8515886,19.1987969],[72.8515602,19.1987956],[72.8515601,19.1987958],[72.8515242,19.1988419],[72.8515222,19.1988445],[72.851464,19.1989193],[72.8514505,19.19892],[72.8514004,19.1989225],[72.8513857,19.1989233],[72.8513363,19.1989258],[72.8512711,19.1989276],[72.8511602,19.1989305],[72.8511236,19.198782],[72.8510685,19.1985456],[72.8510229,19.1983446],[72.8509973,19.1982318],[72.8509739,19.1980911],[72.8509413,19.1978956],[72.850939,19.1978817],[72.8509079,19.1976944],[72.8508574,19.1973911],[72.8508209,19.1969644],[72.8507653,19.1963904],[72.8507372,19.1960103],[72.8507093,19.1956038],[72.8506835,19.1954117],[72.8506635,19.1953238],[72.8506274,19.195166],[72.8505937,19.1950186],[72.8505897,19.1950011],[72.8505601,19.1948714],[72.8505598,19.1948702],[72.8505598,19.1948701],[72.8505598,19.19487],[72.8505502,19.1948234],[72.8505364,19.1948255],[72.8504992,19.1948312],[72.8502542,19.1948526],[72.8502542,19.1948527],[72.8499394,19.1948814],[72.8495202,19.1949104],[72.8494635,19.1948806],[72.849075,19.194895],[72.8488237,19.1949125],[72.8483231,19.1949107],[72.8480454,19.1948866],[72.8478706,19.1948871],[72.8475272,19.1949188],[72.8473055,19.1949611],[72.8472048,19.1949764],[72.8471566,19.1949832],[72.8471922,19.1953496],[72.847083,19.1953743],[72.8469465,19.1954082],[72.8467271,19.1954632],[72.8465862,19.1954853],[72.8464323,19.1954883],[72.8462697,19.195476],[72.8459994,19.1954495],[72.8457445,19.1954268],[72.845411,19.1953994],[72.8452347,19.1953788],[72.8452191,19.1955109],[72.8451783,19.1958379],[72.8451467,19.196098],[72.8451158,19.1963128],[72.8450975,19.1964405],[72.844745,19.1964037],[72.8445055,19.1963793],[72.8444951,19.196398],[72.8444213,19.1965195],[72.8444139,19.1965316],[72.8443139,19.1966965],[72.8443022,19.1967168],[72.8441468,19.1969863],[72.8441268,19.1970217],[72.8439276,19.1972706],[72.8438861,19.1973234],[72.8437505,19.1975398],[72.8437451,19.1975482],[72.8436238,19.1976695],[72.8435892,19.197704],[72.8435215,19.1978245],[72.8434857,19.1979328],[72.8434737,19.1980174],[72.8434498,19.1980833],[72.8433806,19.1982182],[72.8433656,19.1982516],[72.8433473,19.1982937],[72.8433241,19.1983258],[72.8432625,19.1984559],[72.8431688,19.1986348],[72.843105,19.198723],[72.8429861,19.1988781],[72.8428865,19.1990122],[72.8425931,19.199394],[72.8424077,19.19947],[72.8421629,19.199552],[72.8419097,19.1996135],[72.8417416,19.1996292],[72.8416153,19.1996485],[72.8412684,19.1997037],[72.8411639,19.1998096],[72.8410112,19.199926],[72.8409896,19.1999425],[72.8409619,19.1999551],[72.8409617,19.1999551],[72.8409593,19.1999566],[72.8409115,19.1999853],[72.8408988,19.1999928],[72.8408867,19.2000017],[72.8408083,19.200059],[72.840725,19.2001232],[72.8407114,19.2001301],[72.8407045,19.2001336],[72.8406863,19.2001429],[72.8405965,19.2001885],[72.8405605,19.2002068],[72.8404947,19.2002085],[72.8404461,19.2002097],[72.8404272,19.2002124],[72.8401233,19.2002802],[72.8401153,19.2002828],[72.8400374,19.200308],[72.8400185,19.2003148],[72.8399239,19.2003491],[72.8399105,19.2003539],[72.8398863,19.2003661],[72.8398699,19.2003743],[72.8397573,19.200427],[72.8395144,19.2004077],[72.8393874,19.2003927],[72.8393688,19.2003908],[72.8393577,19.2003939],[72.8392705,19.2004063],[72.8392462,19.200412],[72.8391854,19.2004299],[72.8391664,19.2004366],[72.8391369,19.2004451],[72.8391203,19.2004506],[72.8390524,19.2004727],[72.8390367,19.2004774],[72.8390003,19.2004892],[72.8389855,19.200493],[72.8388591,19.2004974],[72.8387374,19.2005016],[72.8387076,19.2005026],[72.8386642,19.2005069],[72.8384481,19.2005281],[72.838196,19.2005883],[72.8380925,19.2006643],[72.8380256,19.2006708],[72.8379785,19.2006754],[72.8379099,19.200682],[72.8377295,19.2006569],[72.8376129,19.2006407],[72.8374535,19.2006512],[72.8373915,19.2006553],[72.8373105,19.2006606],[72.8370179,19.2006709],[72.8369899,19.2006719],[72.8369845,19.2006783],[72.8369542,19.2006835],[72.8369248,19.2006885],[72.8368521,19.2007008],[72.8368183,19.2007065],[72.8367831,19.2007125],[72.8367671,19.2007152],[72.8366888,19.2007285],[72.8365164,19.2007578],[72.8364737,19.200765],[72.8363553,19.2007852],[72.8363551,19.2007852],[72.8360925,19.2009439],[72.8360759,19.2009539],[72.8359317,19.2009966],[72.835699,19.2009343],[72.8356014,19.2009082],[72.8353976,19.2007656],[72.8352285,19.2006473],[72.8350862,19.2005478],[72.8349272,19.2004704],[72.8347981,19.2004056],[72.8345009,19.2002566],[72.8342289,19.2001191],[72.834111,19.2000932],[72.8340849,19.2000874],[72.8339245,19.2000519],[72.8339193,19.1997052],[72.8337509,19.1996211],[72.8337237,19.1996072],[72.8333392,19.1994103],[72.8332217,19.19935],[72.8329456,19.1992087],[72.8328805,19.1991753],[72.832839,19.1994227],[72.831892,19.1991932],[72.8317828,19.1990489],[72.8316892,19.1989252],[72.8316919,19.1989127],[72.8317595,19.1986024],[72.8318105,19.1983678],[72.8318578,19.1982208],[72.8318023,19.1981439],[72.8317249,19.1980296],[72.8316162,19.1978962],[72.8314312,19.1976224],[72.8314116,19.1975928],[72.8311818,19.1972461],[72.8311431,19.1971858],[72.831142,19.1971816],[72.8310595,19.1970441],[72.8309948,19.1969365],[72.8307848,19.1965867],[72.8306506,19.1962639],[72.8301681,19.1967213],[72.8297741,19.1971002],[72.8297256,19.1971437],[72.8293666,19.197466],[72.8291077,19.1977046],[72.8292139,19.1981112],[72.8292272,19.1981623],[72.8292617,19.198289],[72.8294422,19.1989518],[72.8294133,19.1991074],[72.8294121,19.1991136],[72.8294073,19.1991384],[72.8293876,19.1992402],[72.8293868,19.1992447],[72.829386,19.1992488],[72.8293855,19.1992514],[72.8293473,19.1992582],[72.8290377,19.1993127],[72.8290192,19.199316],[72.828995,19.1993203],[72.8288835,19.1993998],[72.828693,19.1995358],[72.8286718,19.199551],[72.8285745,19.1996203],[72.8285489,19.1996784],[72.828524,19.1997348],[72.8285211,19.1997414],[72.8285132,19.1997591],[72.8284729,19.1998503],[72.8284675,19.1998626],[72.8284674,19.1998628],[72.8284554,19.1998902],[72.8284293,19.1999493],[72.8283929,19.2000318],[72.8283738,19.2000515],[72.8283737,19.2000516],[72.8283523,19.2000737],[72.828294,19.2001341],[72.8282143,19.2002166],[72.8281579,19.2002751],[72.8280175,19.2004261],[72.8280071,19.2004338],[72.8280027,19.200437],[72.8280025,19.2004372],[72.8279862,19.2004538],[72.8279654,19.200475],[72.8278443,19.2005985],[72.8278423,19.2006005],[72.8277849,19.2006731],[72.8277729,19.2006846],[72.8277603,19.2006967],[72.8277598,19.2006973],[72.8277823,19.20072],[72.8278407,19.2007791],[72.8278717,19.2008109],[72.8279611,19.2009027],[72.8279602,19.2009038],[72.8278818,19.2010052],[72.8278577,19.2010362],[72.8274263,19.2015935],[72.827426,19.2015939],[72.8273962,19.2016133],[72.8267243,19.2020498],[72.8261773,19.2024052],[72.8259797,19.2025336],[72.8253762,19.2029339],[72.8251925,19.2030558],[72.8245918,19.2034542],[72.8240603,19.2038103],[72.8239724,19.2038633],[72.8238178,19.2039728],[72.8230136,19.2045115],[72.8230135,19.2045116],[72.8230053,19.2045333],[72.8229111,19.2047812],[72.822889,19.2048396],[72.8228337,19.2049853],[72.8221305,19.2049027],[72.8218297,19.2048673],[72.8216003,19.2048441],[72.8215933,19.2048425],[72.82142,19.2048286],[72.8214166,19.2048284],[72.8212466,19.204812],[72.8209132,19.2047798],[72.8207459,19.2047636],[72.8207278,19.2047619],[72.8205286,19.2047427],[72.8203937,19.2047329],[72.8202333,19.2047198],[72.8202091,19.2047159],[72.8201045,19.2046992],[72.8198735,19.2046748],[72.8191208,19.2046041],[72.819104,19.2046024],[72.8190814,19.2046002],[72.8190485,19.2045967],[72.8190231,19.204594],[72.8190154,19.2045932],[72.8189353,19.2045847],[72.8188633,19.2045775],[72.8188082,19.2045719],[72.8186842,19.2045595],[72.818625,19.2045542],[72.8186084,19.2045528],[72.8185353,19.2045462],[72.8184212,19.2045361],[72.8183714,19.2045276],[72.8183675,19.2045269],[72.8183603,19.2045257],[72.8183368,19.2045217],[72.8183364,19.2045217],[72.8181259,19.2044959],[72.8173411,19.2044427],[72.8172851,19.2044374],[72.8172787,19.2044368],[72.817229,19.2044322],[72.8166324,19.204376],[72.8166317,19.2043759],[72.8165305,19.2043895],[72.8165283,19.2043897],[72.8164377,19.2043978],[72.8164257,19.2043988],[72.816362,19.204403],[72.8163546,19.2044035],[72.8163337,19.2044048],[72.8162948,19.2044073],[72.8162661,19.2044092],[72.8162646,19.2044093],[72.8162638,19.2044093],[72.8160155,19.204429],[72.8159872,19.2044312],[72.8159859,19.2044313],[72.8150443,19.2046392],[72.8147953,19.204694],[72.814695,19.204716],[72.8145268,19.2047531],[72.8143244,19.2047976],[72.8126471,19.2056471],[72.8123739,19.2057748],[72.8121041,19.2058964],[72.811802,19.2060325],[72.8117316,19.2060642],[72.81155,19.2061622],[72.8114061,19.2062398],[72.8109207,19.2065018],[72.8110466,19.2073046],[72.8110699,19.2074532],[72.8110206,19.207601],[72.8109046,19.2079483],[72.8110665,19.2082577],[72.811061,19.208256],[72.810391,19.2080587],[72.8103915,19.2080638],[72.8104276,19.2084215],[72.8104334,19.2085241],[72.8104376,19.208597],[72.8101846,19.2086666],[72.810017,19.2087127],[72.8100153,19.2087132],[72.8095988,19.2084079],[72.809597,19.2084066],[72.8094699,19.2085484],[72.8094627,19.2085564],[72.8094613,19.208558],[72.8094083,19.208617],[72.8094066,19.2086189],[72.8093834,19.2086496],[72.8091573,19.2089484],[72.8085963,19.2096935],[72.8086634,19.2099285],[72.808678,19.2099798],[72.8087206,19.2101291],[72.8089032,19.210769],[72.8088838,19.2107898],[72.8088759,19.2107982],[72.8088313,19.2108459],[72.8087031,19.2109831],[72.8085789,19.2111159],[72.8083562,19.2113541],[72.8083219,19.2114003],[72.8082801,19.2114567],[72.8082033,19.2115603],[72.8080557,19.2117593],[72.807922,19.2119395],[72.8079197,19.2119427],[72.8079196,19.2119426],[72.807918,19.2119405],[72.8062056,19.2123729],[72.806158,19.2123959],[72.8061185,19.212415],[72.8055416,19.2126934],[72.8042385,19.2130474],[72.8033859,19.2135014],[72.8036061,19.2141438],[72.8037008,19.2144201],[72.8037106,19.214452],[72.8037343,19.2145296],[72.8041233,19.2158023],[72.8041455,19.2159419],[72.8042044,19.2163123],[72.8043943,19.2167765],[72.8045509,19.2170168],[72.8052491,19.2171178],[72.8060305,19.2172019],[72.8060564,19.2172305],[72.80614,19.2173225],[72.8062688,19.2174645],[72.8069968,19.2189735],[72.8071718,19.2193363],[72.8071805,19.2196698],[72.8069895,19.2203889],[72.8069777,19.2204095],[72.8065931,19.2210817],[72.8061035,19.2213958],[72.8060857,19.2214072],[72.8060018,19.221461],[72.8050303,19.2220844],[72.8046131,19.2223588],[72.8040716,19.222715],[72.8026966,19.2229459],[72.8023219,19.2230529],[72.8005542,19.2235578],[72.7983909,19.2244627],[72.7975271,19.2244259],[72.7968478,19.2243969],[72.7966177,19.2243864],[72.7962867,19.2243712],[72.7959599,19.2245075],[72.7952347,19.2248801],[72.79518,19.2249755],[72.7951313,19.2250604],[72.7950794,19.2251531],[72.7949969,19.225301],[72.7948247,19.2256091],[72.7948242,19.22561],[72.7948237,19.22561],[72.794409,19.2255689],[72.7923155,19.2254746],[72.7906748,19.2253501],[72.7906505,19.2253483],[72.7906147,19.2253456],[72.7879586,19.2251415],[72.7864427,19.2251135],[72.7861262,19.2250984],[72.7849879,19.2250441],[72.7843118,19.2249675],[72.7839073,19.224864],[72.7838634,19.2248509],[72.7838518,19.2248474],[72.7834882,19.2247388],[72.7831984,19.2247153],[72.7831938,19.2246825],[72.7831035,19.2246781],[72.7830482,19.2246754],[72.7829401,19.2246701],[72.7829397,19.2246701],[72.7829343,19.2246679],[72.7828842,19.2246473],[72.7828781,19.22464],[72.7828225,19.224572],[72.7828185,19.2245671],[72.7828183,19.2245669],[72.7827855,19.2245269],[72.7827814,19.2245219],[72.782729,19.224458],[72.7827053,19.2244215],[72.7826755,19.2243756],[72.7826358,19.2243146],[72.7825367,19.2242705],[72.7824929,19.2242808],[72.7823843,19.2242856],[72.7822348,19.224282],[72.7821728,19.224237],[72.7821451,19.2241229],[72.7821083,19.2240939],[72.7821124,19.2239768],[72.7821067,19.2238106],[72.7820982,19.2237951],[72.7820122,19.2235793],[72.7819036,19.2233065],[72.7811603,19.2229412],[72.7810585,19.2228912],[72.7810466,19.222873],[72.7810078,19.2228137],[72.7810086,19.2227503],[72.7809981,19.2225755],[72.7810523,19.2225005],[72.7810638,19.2224845],[72.7810641,19.2224842],[72.7810717,19.2224423],[72.7811354,19.2220957],[72.7811601,19.2219609],[72.7812256,19.2215724],[72.7812365,19.2215016],[72.7812502,19.2214118],[72.7813379,19.2208406],[72.7814248,19.2202804],[72.7814249,19.2202801],[72.781434,19.2201985],[72.781434,19.2201983],[72.7814338,19.2201983],[72.7813068,19.2201733],[72.7812255,19.2201574],[72.7811445,19.2201716],[72.7810878,19.2201668],[72.7808672,19.2201483],[72.7808085,19.2199575],[72.7807975,19.2198511],[72.78071,19.2198512],[72.7806233,19.2198515],[72.780623,19.2198515],[72.7802606,19.2198523],[72.7802152,19.2198524],[72.7802134,19.2198524],[72.7801671,19.2197719],[72.7801085,19.2196699],[72.7801351,19.2195333],[72.7801382,19.2195174],[72.7801396,19.2195098],[72.7801457,19.2194789],[72.7802007,19.2191958],[72.7802285,19.2190861],[72.7802914,19.2190096],[72.7804424,19.2189201],[72.7805003,19.2188858],[72.7805396,19.2188626],[72.7807677,19.2186667],[72.780849,19.2187018],[72.7808504,19.2186985],[72.7808833,19.2186166],[72.7809136,19.2185735],[72.7809703,19.2185681],[72.7810099,19.218579],[72.7810347,19.2185303],[72.7810366,19.2185045],[72.7810393,19.2184692],[72.7808885,19.2183748],[72.7807863,19.2182923],[72.7806732,19.218201],[72.7806339,19.2181629],[72.7806316,19.2181607],[72.7806106,19.2181404],[72.7806096,19.2181394],[72.7802918,19.217928],[72.7803791,19.2176333]]]]}}]}