{"type":"FeatureCollection","features":[{"type":"Feature","properties":{"ward": "PS"},"geometry":{"type":"MultiPolygon","coordinates":[[[[72.8110411,19.1559953],[72.816175,19.1610322],[72.8215874,19.1663419],[72.8223083,19.1670221],[72.8235101,19.1682696],[72.8250317,19.1696298],[72.8252264,19.1701808],[72.8253588,19.1708524],[72.8255459,19.1718572],[72.8255502,19.1718804],[72.8257551,19.1726615],[72.8272337,19.1744087],[72.8279593,19.174723],[72.8287017,19.1754121],[72.8293039,19.1764199],[72.8295446,19.1774629],[72.8296384,19.1784885],[72.8297625,19.1784969],[72.8307701,19.1785721],[72.8310123,19.1785611],[72.8310223,19.1785607],[72.8310968,19.1785573],[72.8311598,19.1785545],[72.8312981,19.1785482],[72.8313073,19.1785478],[72.8314339,19.1785423],[72.8315141,19.1785388],[72.8316859,19.1785313],[72.8318568,19.1785345],[72.8319436,19.1785371],[72.8323016,19.1785481],[72.8326624,19.1785634],[72.8330253,19.1785824],[72.8335286,19.1786057],[72.8336831,19.1786163],[72.8340596,19.178639],[72.8340676,19.1786395],[72.8343987,19.1786664],[72.834401,19.1786666],[72.8346698,19.1786884],[72.8347985,19.1787078],[72.8349142,19.1787252],[72.8349408,19.1787291],[72.8349537,19.1787329],[72.8349739,19.1787388],[72.835057,19.1787629],[72.8350905,19.1787789],[72.8351508,19.1788076],[72.8352156,19.1788512],[72.8352774,19.1788932],[72.8353669,19.1789471],[72.8354172,19.1789831],[72.8355416,19.1790785],[72.8356232,19.1791445],[72.8357065,19.1792195],[72.8358118,19.1793206],[72.8359393,19.1794405],[72.836095,19.1795863],[72.8362857,19.1797325],[72.8363007,19.1797394],[72.8363117,19.1797445],[72.83632,19.1797488],[72.8363317,19.1797549],[72.8364723,19.1797624],[72.8365366,19.1797659],[72.8366498,19.1797622],[72.8366507,19.1797621],[72.8367727,19.1797581],[72.8367814,19.1797579],[72.8368969,19.1797043],[72.8370136,19.1796183],[72.8371671,19.179501],[72.8371985,19.1794835],[72.8372109,19.1794786],[72.8373106,19.179439],[72.8374492,19.1793769],[72.8375297,19.1793455],[72.8376288,19.1793319],[72.8377029,19.1793293],[72.8378891,19.1793229],[72.8379492,19.1793255],[72.838166,19.1793351],[72.8382525,19.1793305],[72.8383618,19.179329],[72.8385143,19.179324],[72.8387524,19.1793244],[72.8388845,19.1793241],[72.8390227,19.1793225],[72.8391761,19.17932],[72.8393205,19.1793172],[72.8394768,19.1793176],[72.8396392,19.1793211],[72.8397732,19.1793189],[72.8398975,19.1793178],[72.8400184,19.1793141],[72.8401455,19.1793056],[72.8402657,19.1792995],[72.8403527,19.1792971],[72.8403806,19.1792964],[72.8403878,19.1792954],[72.8403926,19.1792953],[72.840618,19.1792639],[72.8407099,19.1792563],[72.8407115,19.1792561],[72.8407219,19.1792553],[72.8408595,19.1792377],[72.8408628,19.1792372],[72.8410061,19.1792189],[72.8410143,19.1792178],[72.8412706,19.1792205],[72.8412746,19.1792205],[72.8416371,19.1792369],[72.8416957,19.1792377],[72.84174,19.1792357],[72.8417439,19.1792352],[72.8417521,19.1792348],[72.8417633,19.1792335],[72.8417842,19.179231],[72.841877,19.1792201],[72.8418773,19.17922],[72.8421206,19.1791936],[72.8423704,19.1791531],[72.8424072,19.1791472],[72.8424083,19.179147],[72.8424267,19.179144],[72.8424268,19.179144],[72.8424464,19.1791393],[72.8424844,19.1791303],[72.8424967,19.1791286],[72.8425147,19.179124],[72.8425724,19.1791093],[72.8427243,19.1790732],[72.8427338,19.1790709],[72.8428553,19.1790596],[72.8428662,19.1790534],[72.842916,19.1790249],[72.8430748,19.1790226],[72.8433226,19.1790229],[72.843405,19.1790223],[72.8434593,19.1790195],[72.8435119,19.179015],[72.84356,19.1790112],[72.8436557,19.1789867],[72.8437255,19.1789625],[72.8437309,19.1789606],[72.8437522,19.1789528],[72.8437807,19.1789424],[72.8438475,19.1789232],[72.843936,19.178904],[72.8440212,19.1788822],[72.8440725,19.178869],[72.8442335,19.178852],[72.8443481,19.1788461],[72.8444317,19.1788492],[72.8445094,19.1788495],[72.8445984,19.178851],[72.8446202,19.1788544],[72.8446253,19.1788552],[72.8446871,19.178865],[72.8447079,19.1788728],[72.8447209,19.1788777],[72.8447334,19.1788796],[72.8447694,19.1788851],[72.8447758,19.1788852],[72.8447821,19.1788849],[72.8448023,19.178881],[72.8448457,19.1788652],[72.8449622,19.1787999],[72.8449964,19.1787803],[72.8450319,19.17876],[72.8451616,19.1786548],[72.8452023,19.1786278],[72.8452347,19.1786063],[72.845411,19.1784924],[72.8455009,19.1784544],[72.8455332,19.1784403],[72.8455655,19.1784262],[72.8456495,19.1783909],[72.8456554,19.1783884],[72.8457154,19.1783667],[72.8457571,19.1783517],[72.8458474,19.178319],[72.8460166,19.1782262],[72.8461842,19.178154],[72.8462205,19.1781384],[72.8462499,19.1781257],[72.8462578,19.1781223],[72.8462825,19.1781117],[72.8463228,19.1781127],[72.8463261,19.1781128],[72.8465512,19.1781188],[72.8469361,19.1780926],[72.8472196,19.1780723],[72.8477749,19.1779736],[72.8477976,19.1779696],[72.8480452,19.1779166],[72.8482414,19.177853],[72.8482739,19.1778429],[72.8482749,19.1778426],[72.8484628,19.1777841],[72.8485476,19.1777522],[72.848549,19.1777517],[72.848558,19.1777483],[72.8486212,19.177713],[72.8486915,19.1776619],[72.8487349,19.1776356],[72.8488245,19.1775812],[72.8488842,19.1775334],[72.8490467,19.1773723],[72.8490898,19.1772917],[72.8491057,19.1772619],[72.8492491,19.1771047],[72.8494325,19.1769853],[72.8494326,19.1769852],[72.8494662,19.1769633],[72.8496322,19.1768818],[72.8496694,19.1768636],[72.8497475,19.1768505],[72.8498853,19.1768275],[72.8500451,19.1768213],[72.8501026,19.176819],[72.8501138,19.1768016],[72.8501756,19.1767047],[72.8503537,19.176538],[72.850497,19.1764209],[72.851088,19.1763325],[72.851419,19.1762799],[72.8514632,19.1762787],[72.8514916,19.1762802],[72.8516318,19.1762745],[72.8517271,19.1762955],[72.8518061,19.1763172],[72.852016,19.1763901],[72.8525632,19.1765917],[72.8527527,19.1766706],[72.8528798,19.1767146],[72.8530418,19.1767244],[72.8533305,19.1767137],[72.8538168,19.1767609],[72.8540934,19.1768238],[72.8543824,19.1768819],[72.8551372,19.1770814],[72.8554862,19.1771655],[72.855857,19.1772474],[72.85594,19.1772699],[72.856119,19.1773159],[72.8562008,19.1773677],[72.8562767,19.1774294],[72.8565247,19.1774768],[72.85657,19.1774856],[72.8566231,19.1774908],[72.8566985,19.1774843],[72.8567645,19.1774726],[72.8567676,19.1774699],[72.8567812,19.1774598],[72.8567984,19.1774472],[72.8568743,19.1773996],[72.85695,19.177345],[72.8569987,19.1773087],[72.8570458,19.1772496],[72.8570534,19.1772306],[72.8570589,19.1771783],[72.8570663,19.1770254],[72.8570694,19.176961],[72.8570665,19.1767524],[72.8570619,19.1764167],[72.8570605,19.1761],[72.8570809,19.1760064],[72.8570985,19.1759633],[72.8571507,19.1758656],[72.857182,19.1758294],[72.8572081,19.1757992],[72.8574348,19.1755986],[72.8575676,19.1755032],[72.857702,19.1754291],[72.8577618,19.1753963],[72.857866,19.1753641],[72.8579779,19.1753649],[72.8583944,19.175378],[72.859378,19.1754004],[72.8594129,19.1750416],[72.85943,19.1748903],[72.8594343,19.1748522],[72.8594419,19.1747855],[72.8594423,19.1747823],[72.8594453,19.1747559],[72.8594455,19.1747539],[72.859471,19.1744125],[72.8594736,19.174357],[72.86104,19.174634],[72.8634288,19.1751147],[72.8654418,19.1755796],[72.8661515,19.1757107],[72.8664669,19.1757864],[72.8665799,19.175812],[72.8666892,19.1758369],[72.8667711,19.1758439],[72.8668658,19.175845],[72.8669479,19.1758339],[72.8672137,19.1757751],[72.8676759,19.1756525],[72.8678384,19.1756104],[72.868019,19.1755864],[72.8680542,19.1755817],[72.8680725,19.1755794],[72.8681483,19.1755724],[72.8688361,19.1755632],[72.869004,19.1755609],[72.8704869,19.1756009],[72.8705769,19.1756036],[72.8708855,19.1756127],[72.8710174,19.1756331],[72.8710483,19.1756379],[72.8711721,19.1756613],[72.8712958,19.1756846],[72.871308,19.1756873],[72.8714457,19.1757178],[72.8714842,19.1757215],[72.8717071,19.1757428],[72.8718516,19.1757566],[72.8720937,19.1757798],[72.8722308,19.1757929],[72.8722511,19.1757949],[72.8730815,19.1758744],[72.8734281,19.1759075],[72.8734282,19.1759075],[72.8735802,19.1759221],[72.8737863,19.1759418],[72.8738412,19.1759471],[72.8740327,19.1759654],[72.8740586,19.1756365],[72.8740596,19.1756233],[72.8740834,19.1753216],[72.8741269,19.1747685],[72.8742142,19.1736611],[72.8742472,19.1732423],[72.8742619,19.1730863],[72.87433,19.172363],[72.8743393,19.1722639],[72.8743447,19.1722061],[72.8743851,19.1717776],[72.874408,19.1716442],[72.8745534,19.1707983],[72.8746099,19.1704697],[72.8747611,19.1701834],[72.8749441,19.1698589],[72.8749749,19.1698044],[72.8750569,19.169659],[72.8750584,19.1696563],[72.8750976,19.1695868],[72.8753552,19.1691302],[72.8758214,19.1683579],[72.8758918,19.1682435],[72.8759362,19.1681713],[72.8759678,19.16812],[72.8760439,19.167996],[72.8761262,19.1678714],[72.8762129,19.1677495],[72.8763038,19.1676304],[72.8763988,19.1675143],[72.8764269,19.1674821],[72.8764978,19.1674012],[72.8766007,19.1672912],[72.8767074,19.1671846],[72.8768177,19.1670815],[72.8769316,19.1669818],[72.8770489,19.1668858],[72.8771265,19.1668265],[72.8771478,19.1668103],[72.8771696,19.1667936],[72.8772933,19.1667052],[72.8772968,19.1667029],[72.8774201,19.1666208],[72.8775498,19.1665405],[72.8776745,19.1664687],[72.8778264,19.1663908],[72.8784404,19.1660808],[72.8799056,19.165416],[72.8805825,19.1651176],[72.8809691,19.1649622],[72.8812757,19.164839],[72.882046,19.1645423],[72.882067,19.1646271],[72.8836821,19.1639681],[72.8843909,19.1637435],[72.8855467,19.1634095],[72.8856072,19.163392],[72.8856658,19.1633751],[72.886001,19.1632782],[72.8861386,19.1632402],[72.8862022,19.1632226],[72.88739,19.1629364],[72.8878445,19.1628269],[72.8879305,19.1627986],[72.8880742,19.1627512],[72.8881997,19.1627099],[72.8887,19.1626024],[72.8890115,19.162584],[72.8892931,19.1625683],[72.8895877,19.1625885],[72.8896028,19.162617],[72.8900652,19.1627376],[72.8903718,19.1628408],[72.8905668,19.1629096],[72.8907058,19.162991],[72.8908724,19.1630926],[72.8909759,19.1632069],[72.891218,19.1634291],[72.8914465,19.1636179],[72.8920876,19.1638067],[72.8923431,19.1638819],[72.8923718,19.1637292],[72.8924287,19.1634259],[72.8924755,19.1631768],[72.8921327,19.161895],[72.8919707,19.1614042],[72.8915514,19.1602669],[72.8910258,19.1602583],[72.8904689,19.1598896],[72.890465,19.1593902],[72.8904512,19.15847],[72.8904593,19.1582607],[72.8904575,19.1578585],[72.8904565,19.1576325],[72.8903186,19.1575288],[72.8899618,19.1572606],[72.889413,19.1568481],[72.8901637,19.1565101],[72.89079,19.1559011],[72.891122,19.1555859],[72.8919418,19.154808],[72.8919835,19.1547684],[72.8926678,19.1541194],[72.8934579,19.153729],[72.8935005,19.153708],[72.8935228,19.153573],[72.8935914,19.153159],[72.8931715,19.1524552],[72.8931137,19.152328],[72.8930591,19.1517156],[72.8929848,19.1506772],[72.8931745,19.1503528],[72.8934246,19.1499252],[72.8936302,19.1495798],[72.8943302,19.1484003],[72.8945359,19.1480556],[72.8949898,19.1472951],[72.8950212,19.1468305],[72.8951264,19.1464978],[72.8951505,19.1459568],[72.895156,19.1458177],[72.8951642,19.1457609],[72.8951652,19.1457551],[72.8951998,19.1455522],[72.8952496,19.1454123],[72.8953081,19.1452749],[72.8953377,19.1452054],[72.8952841,19.1449036],[72.8950052,19.144341],[72.8949135,19.1441673],[72.8947414,19.1438162],[72.894416,19.1431587],[72.8942234,19.1427606],[72.8941399,19.1420044],[72.8934584,19.1420903],[72.893327,19.1421069],[72.8934722,19.1416959],[72.8939093,19.1405664],[72.8940286,19.1403519],[72.8942617,19.1399428],[72.8943475,19.1397919],[72.8944812,19.1394872],[72.8943314,19.1393367],[72.8940448,19.1386213],[72.8940331,19.1385921],[72.8940189,19.1385407],[72.8940142,19.1385239],[72.8940069,19.1384976],[72.8939745,19.1384363],[72.8939651,19.1384184],[72.8938974,19.1382818],[72.8937798,19.1379893],[72.8933503,19.1377169],[72.8931135,19.1375535],[72.89282,19.1373796],[72.8927767,19.1369393],[72.8923027,19.1367337],[72.8922733,19.1367209],[72.8919678,19.1364065],[72.8919066,19.1363708],[72.8918405,19.1363455],[72.8915925,19.1362533],[72.891258,19.1361932],[72.8911196,19.1362621],[72.8909926,19.1361869],[72.8909252,19.136147],[72.8909567,19.1359854],[72.890843,19.1358208],[72.8907156,19.1356402],[72.8906965,19.1356132],[72.8906734,19.1356223],[72.8906851,19.1356512],[72.8902012,19.1358507],[72.8899936,19.1359397],[72.8898044,19.1360026],[72.889734,19.1360369],[72.8896654,19.1360792],[72.88963,19.1360932],[72.8895793,19.1361132],[72.8894147,19.1361767],[72.8892844,19.1362269],[72.8891046,19.1362963],[72.8889986,19.1363366],[72.8889501,19.1363553],[72.8888939,19.1363769],[72.8887834,19.1364207],[72.8887306,19.1364411],[72.8887062,19.1364506],[72.8887043,19.1364513],[72.888703,19.1364518],[72.8885042,19.1365281],[72.8882994,19.1366065],[72.8881125,19.1366783],[72.8880887,19.1366872],[72.8879624,19.1367345],[72.8878697,19.1367707],[72.887725,19.1368256],[72.8875712,19.1368847],[72.8875243,19.136902],[72.8874399,19.1369343],[72.8873836,19.1369559],[72.8873702,19.1369609],[72.8868351,19.1370847],[72.8866795,19.137155],[72.8866401,19.1371701],[72.8866349,19.1371721],[72.8865239,19.1372159],[72.886479,19.1372327],[72.8860106,19.1374132],[72.8855838,19.1375771],[72.8853853,19.1371524],[72.885358,19.137094],[72.8853331,19.1370408],[72.885246,19.1368544],[72.8849299,19.136908],[72.8838542,19.1371021],[72.8836162,19.1371452],[72.8833942,19.1371854],[72.8833029,19.1372002],[72.8832701,19.1372074],[72.8832687,19.1372077],[72.8830275,19.1372608],[72.8823333,19.1373884],[72.8821726,19.1374179],[72.8813162,19.1375776],[72.8812889,19.1375825],[72.8812032,19.1375977],[72.8811258,19.1376058],[72.8811123,19.1376073],[72.8798534,19.1377949],[72.8791537,19.1378992],[72.879076,19.1379149],[72.8788301,19.1379646],[72.8787607,19.1383009],[72.8786757,19.1387828],[72.8783745,19.1393806],[72.8783758,19.1394022],[72.87837,19.1395077],[72.8783635,19.139542],[72.8783481,19.1395565],[72.8783474,19.1395573],[72.8783335,19.1395704],[72.8782694,19.1395738],[72.8781982,19.1395776],[72.87811,19.1395807],[72.878078,19.1395409],[72.8780572,19.1394834],[72.8779963,19.1393154],[72.8778597,19.1389386],[72.8778056,19.1387892],[72.8777375,19.1387546],[72.8773605,19.1385633],[72.8771911,19.1386305],[72.8769975,19.1386736],[72.8765596,19.1387271],[72.8764514,19.138631],[72.876349,19.1384563],[72.8762943,19.1382676],[72.8762701,19.1381245],[72.876117,19.1379225],[72.8759579,19.1378103],[72.8757625,19.1377273],[72.8756786,19.1377705],[72.8755665,19.1378394],[72.8752767,19.1377423],[72.8749092,19.1376354],[72.8747203,19.137583],[72.8743802,19.1381677],[72.8744535,19.138389],[72.8746886,19.1385764],[72.8747989,19.1385002],[72.8748449,19.1384685],[72.8748942,19.1384692],[72.8750693,19.138472],[72.8753282,19.1385243],[72.875383,19.1385354],[72.8741957,19.1387411],[72.8736141,19.1389013],[72.8727612,19.1391327],[72.8727609,19.1391327],[72.8727606,19.1391328],[72.8727601,19.1391329],[72.8726124,19.139173],[72.8725637,19.1391862],[72.8725149,19.1391995],[72.8724718,19.1392076],[72.8723762,19.1392257],[72.8723319,19.139234],[72.8721825,19.1392623],[72.8720833,19.139281],[72.8716303,19.1393726],[72.8714753,19.1394084],[72.8713108,19.1394433],[72.8712879,19.1394482],[72.8711438,19.1394848],[72.8711031,19.1394951],[72.8708998,19.139548],[72.8708907,19.1395506],[72.8695438,19.1399312],[72.8694708,19.1399636],[72.8693952,19.1399874],[72.8692984,19.1400179],[72.8691848,19.1400785],[72.8691026,19.1401372],[72.8690992,19.1401396],[72.8690107,19.1401616],[72.8688155,19.1402052],[72.8685794,19.1402579],[72.8679764,19.1404801],[72.8675292,19.1405713],[72.8673222,19.1406243],[72.8671861,19.1406607],[72.866624,19.1408113],[72.8664231,19.1408619],[72.8662532,19.1408941],[72.8659882,19.1409738],[72.8659315,19.1409913],[72.8658781,19.1410566],[72.8656021,19.1411175],[72.8653785,19.1411668],[72.8650668,19.1412326],[72.8648552,19.1412628],[72.8645828,19.1413014],[72.8645318,19.1413086],[72.8641491,19.1413118],[72.8638774,19.1412988],[72.86347,19.1415354],[72.863376,19.14159],[72.8632475,19.1416442],[72.8632129,19.1416628],[72.8625082,19.141956],[72.8622823,19.1419426],[72.8620113,19.1419266],[72.8617947,19.1419138],[72.8617244,19.1419113],[72.8617062,19.1419107],[72.8612681,19.1419837],[72.8613145,19.1420009],[72.8611934,19.1420211],[72.860891,19.1420057],[72.8606401,19.1419929],[72.8606302,19.1419923],[72.8606051,19.1419917],[72.8604795,19.1419766],[72.8603586,19.1419574],[72.8602316,19.1419394],[72.8601343,19.1419296],[72.8600643,19.1419179],[72.8598169,19.1418856],[72.8595745,19.14184],[72.8595064,19.1418331],[72.8593901,19.1418273],[72.8593608,19.1418264],[72.8593279,19.1418251],[72.8592989,19.1418234],[72.8592538,19.1418208],[72.8592342,19.1418198],[72.8590211,19.1418109],[72.8589884,19.1418095],[72.8589581,19.1418082],[72.8589267,19.1418069],[72.8588938,19.1418055],[72.8588785,19.1418049],[72.8586741,19.1417509],[72.8586397,19.1417421],[72.8584059,19.1416843],[72.8583167,19.1416626],[72.8581654,19.1416552],[72.8578979,19.1416423],[72.8577972,19.1416373],[72.8577841,19.1416382],[72.8575977,19.1416275],[72.8575132,19.1416221],[72.8574203,19.1416203],[72.857291,19.1416177],[72.8570488,19.141605],[72.8567123,19.141662],[72.8561567,19.1417504],[72.8557527,19.1418172],[72.8556717,19.1418379],[72.8554281,19.1419],[72.8553249,19.1419264],[72.8552589,19.1419434],[72.8549851,19.1420878],[72.8549132,19.142127],[72.8549077,19.14213],[72.8547369,19.1422232],[72.8547351,19.1422243],[72.8547343,19.1422243],[72.8546949,19.1422495],[72.8546043,19.1423087],[72.8545927,19.1423162],[72.8545674,19.1423334],[72.8545628,19.1423368],[72.8545568,19.1423412],[72.8545539,19.1423427],[72.854543,19.1423485],[72.8545294,19.1423586],[72.8544301,19.1424239],[72.8543847,19.1424534],[72.8543657,19.1424657],[72.8543125,19.1425018],[72.8541915,19.1425084],[72.8540657,19.1425137],[72.8539349,19.142522],[72.8538539,19.1425321],[72.8536861,19.1425239],[72.8535924,19.142518],[72.8533856,19.1425096],[72.8533564,19.1425081],[72.8533368,19.1425073],[72.853216,19.1425009],[72.8530926,19.1424963],[72.8529634,19.1424906],[72.8528711,19.1424871],[72.8528413,19.142486],[72.8527371,19.1424802],[72.8527246,19.1425196],[72.8526732,19.1426751],[72.8526872,19.1427386],[72.8526578,19.1428256],[72.8526241,19.1429341],[72.8525871,19.1430481],[72.8525529,19.1431494],[72.8525515,19.1431537],[72.8525395,19.1431901],[72.8525146,19.1432657],[72.8524952,19.1432694],[72.8524336,19.1432825],[72.8523981,19.1432909],[72.8522498,19.1433245],[72.8521901,19.14333],[72.8521231,19.1433352],[72.8520185,19.1433496],[72.851971,19.1433561],[72.8519271,19.1433622],[72.8519155,19.1433627],[72.8519004,19.1433633],[72.8519001,19.1433634],[72.8517996,19.1433735],[72.8513693,19.1434169],[72.8502709,19.1435278],[72.8502704,19.1435278],[72.8499765,19.1435575],[72.8494172,19.1435852],[72.8492469,19.1436185],[72.8492039,19.1436268],[72.8490542,19.143676],[72.8490539,19.143676],[72.8490538,19.1436761],[72.8490536,19.1436761],[72.8490534,19.1436762],[72.8488359,19.1437321],[72.8488056,19.1437387],[72.8487537,19.14375],[72.8483575,19.1438419],[72.8483752,19.1441619],[72.8483801,19.1442465],[72.8483935,19.1444793],[72.8484738,19.1446414],[72.8484595,19.144699],[72.8484361,19.1448014],[72.8483889,19.1449753],[72.848368,19.145073],[72.8483401,19.1452032],[72.8483179,19.1452733],[72.8483179,19.1452734],[72.8483013,19.1453815],[72.8482991,19.1453869],[72.8482697,19.1454293],[72.8481935,19.1455377],[72.8481718,19.1455685],[72.8480118,19.1457764],[72.8479635,19.1458251],[72.8477411,19.1460915],[72.8475581,19.1461896],[72.8474727,19.1462354],[72.8474673,19.146237],[72.8474643,19.1462379],[72.8474578,19.1462398],[72.8473769,19.146264],[72.8471677,19.1462992],[72.8471589,19.1462984],[72.847057,19.1462896],[72.8470511,19.1462867],[72.8470148,19.1462691],[72.8469933,19.1462586],[72.8469786,19.1462514],[72.8469215,19.1462255],[72.8468191,19.1461791],[72.8467661,19.146155],[72.8466734,19.1461265],[72.8465353,19.1461208],[72.8464601,19.1462084],[72.84646,19.1462085],[72.8464599,19.1462085],[72.8464599,19.1462086],[72.8463158,19.1463721],[72.8461406,19.1464684],[72.8460769,19.1465035],[72.8459313,19.1465828],[72.8460237,19.1467065],[72.8460744,19.1467744],[72.8461252,19.1468423],[72.8462936,19.1470678],[72.8460936,19.1472063],[72.8460766,19.1472224],[72.8459537,19.1473021],[72.8459356,19.1473243],[72.8458771,19.1473697],[72.8458005,19.1473506],[72.8456597,19.1475324],[72.8456112,19.1475612],[72.8455601,19.1475916],[72.8455002,19.1476271],[72.845491,19.1476326],[72.8454776,19.1476873],[72.8454489,19.147817],[72.8454016,19.1480308],[72.8453963,19.1480551],[72.8453693,19.1481388],[72.8453265,19.1482514],[72.8452862,19.1483596],[72.8452484,19.148461],[72.845229,19.1484888],[72.8451938,19.1485395],[72.845088,19.1486991],[72.8450716,19.1487238],[72.844991,19.1488219],[72.8449452,19.1488673],[72.8449065,19.1489058],[72.8448826,19.1489338],[72.8448819,19.1489346],[72.844881,19.1489356],[72.8448394,19.1489843],[72.8448153,19.1490125],[72.8446819,19.149177],[72.8445317,19.1493612],[72.8444506,19.1494545],[72.8444117,19.1495071],[72.8441522,19.1497452],[72.8438835,19.1499516],[72.8438349,19.1499733],[72.8436755,19.1500053],[72.8435888,19.1500642],[72.8434407,19.1501695],[72.8433968,19.1502007],[72.8433515,19.1502173],[72.8433172,19.1502299],[72.8432472,19.1502484],[72.8432233,19.1502486],[72.8431183,19.1502493],[72.8431129,19.1502486],[72.8430437,19.1502392],[72.8430105,19.1502346],[72.8429263,19.1502232],[72.842839,19.1502114],[72.8427335,19.1501971],[72.8426437,19.150185],[72.8425643,19.1501742],[72.8425227,19.1501684],[72.8425039,19.1501657],[72.8424635,19.1501604],[72.8424025,19.1501524],[72.8423612,19.150147],[72.8421933,19.1501174],[72.8421618,19.1501118],[72.8420859,19.1500985],[72.8420372,19.1500916],[72.8416848,19.1500418],[72.8416456,19.1500363],[72.8415986,19.1500297],[72.8414426,19.1500079],[72.8412472,19.1499805],[72.8410214,19.1499471],[72.8406225,19.1498926],[72.8403835,19.1498591],[72.8403555,19.1498551],[72.8400855,19.1500711],[72.839949,19.1501811],[72.8399421,19.1501861],[72.8398246,19.150271],[72.8396803,19.1505949],[72.8396208,19.1507295],[72.839581,19.1507989],[72.8395526,19.1508309],[72.839517,19.1508556],[72.8394543,19.1508747],[72.8392658,19.1508778],[72.8390316,19.1509028],[72.8386104,19.1509477],[72.8385114,19.1509622],[72.8380491,19.1510056],[72.8368026,19.1510992],[72.8362025,19.1511249],[72.8361899,19.1511253],[72.8358988,19.1511353],[72.8357155,19.1511327],[72.8356654,19.151132],[72.8356285,19.1511315],[72.8356278,19.1511315],[72.8355343,19.1511301],[72.8350648,19.1511312],[72.8340732,19.1511614],[72.8336541,19.1511899],[72.8331604,19.1512369],[72.8330014,19.1512705],[72.8329049,19.1512909],[72.8325966,19.1513798],[72.832313,19.1515053],[72.8321137,19.1516375],[72.8318778,19.1517821],[72.831704,19.1519206],[72.8315845,19.152003],[72.8314721,19.1520806],[72.8312445,19.1522466],[72.8311909,19.1522857],[72.8311034,19.1523571],[72.8303131,19.1528766],[72.8301133,19.1530079],[72.8301036,19.1530143],[72.8300727,19.1530332],[72.8300392,19.1530523],[72.8299413,19.1531027],[72.8295513,19.1533107],[72.8291283,19.1535364],[72.8287565,19.1537346],[72.8284322,19.1538961],[72.8284128,19.1539058],[72.8283495,19.1539202],[72.8282445,19.153926],[72.8279937,19.1539567],[72.8237456,19.1515165],[72.8228456,19.1510069],[72.8220061,19.1505123],[72.821876,19.1509964],[72.8213686,19.1528841],[72.8213265,19.1530407],[72.8209655,19.1543838],[72.8206764,19.1550054],[72.8205542,19.1552727],[72.820445,19.1555073],[72.8203546,19.1557028],[72.8200267,19.1559062],[72.8198473,19.156003],[72.8197459,19.1560376],[72.8196604,19.1560661],[72.8192757,19.1561924],[72.8188764,19.1563207],[72.8182253,19.1565348],[72.8178729,19.1562087],[72.8158464,19.1546999],[72.8141851,19.1535697],[72.8137486,19.153264],[72.8110411,19.1559953]]]]}}]}