{"type":"FeatureCollection","features":[{"type":"Feature","properties":{"ward": "RC"},"geometry":{"type":"MultiPolygon","coordinates":[[[[72.7802273,19.2321573],[72.7798748,19.2333836],[72.7797702,19.2344954],[72.7795836,19.2353341],[72.779333,19.2359313],[72.7789828,19.2364119],[72.7787322,19.2366531],[72.7786437,19.2369747],[72.7786732,19.2373951],[72.7787456,19.2377547],[72.778877,19.2379598],[72.7791157,19.23817],[72.7793813,19.238246],[72.7800035,19.238441],[72.780143,19.2385575],[72.7802449,19.2387221],[72.7804971,19.2391526],[72.7807509,19.2396291],[72.7810094,19.2404492],[72.7810013,19.2406948],[72.7809638,19.2410012],[72.7808028,19.2411329],[72.7805319,19.2415305],[72.7806258,19.2418825],[72.7807841,19.2426751],[72.7809826,19.243569],[72.7814278,19.2447086],[72.7818784,19.2458937],[72.7821171,19.2468231],[72.7822968,19.2477372],[72.7827823,19.249839],[72.7828521,19.2502644],[72.7828842,19.2506898],[72.7828842,19.2515002],[72.7828494,19.2527966],[72.7827126,19.2540779],[72.7825302,19.2556175],[72.7823639,19.2563569],[72.7821949,19.2569386],[72.781983,19.2572381],[72.7817202,19.257466],[72.7818382,19.2578103],[72.7818382,19.2583522],[72.7817523,19.2587928],[72.7814197,19.259365],[72.7812105,19.2597195],[72.7812749,19.2599272],[72.7814412,19.2600538],[72.7816236,19.2601095],[72.7820635,19.2600994],[72.7824765,19.2600031],[72.7830168,19.260357],[72.7831873,19.2607146],[72.7833467,19.2608957],[72.7837466,19.2614236],[72.7838579,19.2617345],[72.7841154,19.262087],[72.7842146,19.2622921],[72.7842683,19.2625086],[72.7844265,19.2629023],[72.784455,19.2632715],[72.7843836,19.2634872],[72.7842515,19.26371],[72.7841093,19.2637783],[72.7840236,19.2638189],[72.7839303,19.2638848],[72.7838331,19.2641455],[72.7837549,19.2643921],[72.7837473,19.264586],[72.7837178,19.2646975],[72.7837151,19.2648545],[72.7843501,19.2647904],[72.7845016,19.2647592],[72.7865911,19.2638955],[72.787062,19.2637042],[72.7874129,19.2635688],[72.7883112,19.263206],[72.7898601,19.2614731],[72.7899323,19.2614429],[72.7900783,19.2614865],[72.7913211,19.2615103],[72.7919203,19.2617],[72.792068,19.2617077],[72.7922692,19.2617733],[72.7922952,19.2617467],[72.7923419,19.2617762],[72.7924007,19.2617446],[72.7924946,19.2617563],[72.7926057,19.2617787],[72.7926194,19.2617699],[72.7944313,19.2619794],[72.7946599,19.2620187],[72.7950474,19.2620758],[72.7961021,19.2622252],[72.7961008,19.2622209],[72.7963475,19.2622184],[72.7978697,19.2622095],[72.798825,19.2622078],[72.7989755,19.2622148],[72.7994004,19.2622061],[72.7997222,19.2622689],[72.7998405,19.2619511],[72.7999131,19.2619712],[72.800221,19.2618718],[72.8005748,19.2612783],[72.8008568,19.2611692],[72.800891,19.2610829],[72.800617,19.2604946],[72.8006905,19.2603348],[72.8007602,19.2600706],[72.8007862,19.2599191],[72.8008502,19.2595392],[72.8008574,19.2593298],[72.8008065,19.2588232],[72.8010351,19.2588755],[72.8016629,19.2590609],[72.8024188,19.2588972],[72.8026057,19.2588224],[72.8028348,19.2586998],[72.8031421,19.2585177],[72.8033442,19.2583732],[72.803537,19.2582459],[72.8038085,19.2580201],[72.8040568,19.2578243],[72.8042679,19.2576843],[72.8044376,19.2575826],[72.8046399,19.2574295],[72.8048837,19.257225],[72.8056192,19.2566634],[72.80589,19.2564852],[72.8063489,19.2561925],[72.8066612,19.2559759],[72.8069093,19.2557931],[72.8071486,19.2555928],[72.8074616,19.2553157],[72.8078436,19.2549919],[72.80824,19.2546077],[72.808549,19.254296],[72.8088345,19.2540358],[72.8093138,19.2535749],[72.8095951,19.2532974],[72.8100006,19.252909],[72.8105438,19.2524315],[72.8109444,19.2520733],[72.8111887,19.2518386],[72.8114239,19.2515951],[72.811641,19.2513514],[72.8119041,19.2510147],[72.8120992,19.2507649],[72.8123762,19.2504614],[72.8127312,19.2501156],[72.8133614,19.2495916],[72.8139689,19.2490674],[72.8148335,19.2483734],[72.8153249,19.2480249],[72.8157155,19.2477314],[72.8160094,19.2475318],[72.816248,19.2473748],[72.8165185,19.2472224],[72.8166833,19.2471423],[72.8173733,19.2469172],[72.8182271,19.2466897],[72.8189024,19.2465465],[72.8190253,19.246535],[72.8197596,19.2464055],[72.82064,19.2462302],[72.8210644,19.2461315],[72.8220804,19.2460226],[72.8223129,19.2459865],[72.8227647,19.2458839],[72.8231209,19.2457844],[72.8235229,19.2456595],[72.8241803,19.2454859],[72.824623,19.2453831],[72.8258867,19.2451259],[72.8266565,19.2450529],[72.8269664,19.2450134],[72.8272035,19.244973],[72.8274368,19.2452221],[72.8276699,19.2454885],[72.8278666,19.2457587],[72.828421,19.2464999],[72.8287176,19.24683],[72.8288427,19.2469583],[72.8289721,19.2470636],[72.8291765,19.2471886],[72.829755,19.2474819],[72.8300698,19.2476584],[72.8304467,19.2478555],[72.830697,19.2479598],[72.8311986,19.2481458],[72.8313918,19.2482053],[72.8319446,19.2483999],[72.8332963,19.2488437],[72.8343977,19.2492845],[72.8349639,19.2495204],[72.8386816,19.2462495],[72.8388339,19.2461155],[72.8419152,19.2433873],[72.8430392,19.2424925],[72.8431203,19.2424303],[72.8437664,19.2419155],[72.8441692,19.2415942],[72.8453778,19.2407068],[72.8455875,19.2405524],[72.8457614,19.2404247],[72.8457952,19.2403999],[72.8459721,19.2402698],[72.8462279,19.2401032],[72.8464945,19.2399275],[72.8468395,19.2397098],[72.8469496,19.2396376],[72.8470117,19.2395966],[72.8471422,19.2395106],[72.8474397,19.2393199],[72.8482039,19.2388296],[72.8484224,19.2386944],[72.8485241,19.2386276],[72.8489488,19.2383836],[72.8490133,19.2383516],[72.8491783,19.2382732],[72.8494192,19.2381689],[72.8495124,19.2381451],[72.8496486,19.2381218],[72.8498443,19.2380947],[72.8501837,19.2380841],[72.850755,19.2380662],[72.8509146,19.2380583],[72.8510609,19.2380511],[72.8513147,19.2380409],[72.8513956,19.2380377],[72.8515804,19.2380343],[72.8516801,19.2380324],[72.8518582,19.2380274],[72.8519787,19.238024],[72.8521037,19.2380169],[72.8522364,19.2380094],[72.8522798,19.2380069],[72.8524305,19.2379956],[72.8525774,19.2379846],[72.8527341,19.2379686],[72.8528438,19.2379549],[72.8543277,19.2377893],[72.8548197,19.2377515],[72.8551716,19.237774],[72.8555008,19.237728],[72.8561195,19.2376159],[72.8569206,19.2373931],[72.8577027,19.2371413],[72.8578992,19.2371042],[72.8579876,19.2371013],[72.858347,19.2371842],[72.8586603,19.2372769],[72.8586337,19.2374792],[72.8586896,19.2376713],[72.8587555,19.237898],[72.8587568,19.2379033],[72.8587943,19.238062],[72.8588727,19.2384179],[72.8589061,19.2386259],[72.8589376,19.2387636],[72.8592139,19.239276],[72.8593652,19.2393565],[72.8594161,19.2393774],[72.859577,19.2393386],[72.8597934,19.2394062],[72.8600436,19.2393064],[72.8602031,19.2392422],[72.8604598,19.239148],[72.8604762,19.2391435],[72.8608677,19.2389602],[72.8610134,19.238892],[72.8610377,19.2387795],[72.8613048,19.2385371],[72.8616047,19.2382648],[72.8616687,19.2382066],[72.8617272,19.2381623],[72.8618854,19.2380856],[72.8619146,19.2380667],[72.8622332,19.2378602],[72.862322,19.2378027],[72.862324,19.2378103],[72.862324,19.2378104],[72.8623297,19.2377977],[72.8623745,19.2377734],[72.862643,19.237628],[72.8627235,19.2375845],[72.8627955,19.2375226],[72.8628351,19.2374889],[72.8629184,19.2374502],[72.8629387,19.2374059],[72.8641599,19.2372439],[72.8641867,19.2374247],[72.8642848,19.2380581],[72.8643107,19.2382249],[72.8643527,19.238496],[72.8648707,19.2384917],[72.8670556,19.2384626],[72.8671595,19.2384463],[72.8673323,19.238404],[72.8676695,19.2382776],[72.8679521,19.2381768],[72.8679916,19.2381653],[72.8681942,19.2381216],[72.8686394,19.2380357],[72.8688256,19.2380079],[72.869101,19.2379864],[72.8695632,19.2379888],[72.8698783,19.238014],[72.8700929,19.2379915],[72.870278,19.2379625],[72.870633,19.2380176],[72.8724489,19.2383267],[72.8728655,19.2383703],[72.8729749,19.2383775],[72.877663,19.2389762],[72.8776631,19.2389761],[72.8780536,19.239216],[72.8783748,19.2394185],[72.8783749,19.2394185],[72.8783756,19.2394189],[72.8784457,19.239463],[72.8791038,19.2399357],[72.879648,19.2403266],[72.8796821,19.2403483],[72.8803209,19.2407525],[72.8806434,19.2409556],[72.8806444,19.2409562],[72.8806453,19.2409568],[72.8806509,19.2409603],[72.880651,19.2409604],[72.8806511,19.2409604],[72.8808742,19.2411007],[72.8811638,19.2412859],[72.8814359,19.2414587],[72.8819945,19.2418109],[72.8819948,19.2418111],[72.8821672,19.2419195],[72.8824835,19.242116],[72.8824837,19.2421161],[72.8824845,19.2421166],[72.8824846,19.2421167],[72.8828386,19.2423363],[72.8832097,19.2425606],[72.8832098,19.2425607],[72.8832629,19.2425928],[72.8832663,19.2425948],[72.8836164,19.242806],[72.8838229,19.2429348],[72.8838238,19.2429354],[72.8838241,19.2429356],[72.8838246,19.2429359],[72.8838247,19.2429359],[72.8839665,19.243026],[72.8839668,19.2430262],[72.8839686,19.2430273],[72.8843577,19.2432751],[72.8847662,19.2435395],[72.8847738,19.2435445],[72.8848383,19.2435862],[72.8848384,19.2435863],[72.8849936,19.2436878],[72.8850437,19.2437206],[72.8850671,19.2437357],[72.885074,19.2437402],[72.8851984,19.243821],[72.8860698,19.2443869],[72.8878907,19.2455756],[72.8878913,19.245576],[72.8882481,19.2458134],[72.8887008,19.2461199],[72.8890406,19.2463439],[72.8894065,19.2465833],[72.8897946,19.2468361],[72.8901623,19.2470782],[72.8904394,19.2472583],[72.8904774,19.247283],[72.8908567,19.247553],[72.8908572,19.2475534],[72.8910695,19.2477045],[72.8914879,19.248001],[72.8914881,19.2480012],[72.8916405,19.248109],[72.8918182,19.2482368],[72.891819,19.2482374],[72.891836,19.2482497],[72.891844,19.2482551],[72.8918444,19.2482554],[72.8920889,19.2484213],[72.8920984,19.2484277],[72.8922923,19.2485615],[72.8929189,19.2489874],[72.8948495,19.2506936],[72.8987539,19.2512679],[72.9015827,19.2499555],[72.9055408,19.2491659],[72.9055343,19.2396691],[72.9106378,19.2353286],[72.9150651,19.230718],[72.9122595,19.2286626],[72.9116796,19.2274449],[72.9109748,19.2260409],[72.91077,19.2246597],[72.9104341,19.2224538],[72.9103501,19.2218289],[72.9102092,19.2207211],[72.9101037,19.2199864],[72.9099107,19.2184912],[72.9082449,19.2168704],[72.9074513,19.2104661],[72.9101687,19.2075954],[72.9099214,19.2064964],[72.9096124,19.2052116],[72.9094646,19.2045774],[72.909344,19.2040793],[72.9092982,19.2038897],[72.9092934,19.20387],[72.9091347,19.2031675],[72.9089853,19.2024685],[72.9089852,19.2024685],[72.9088008,19.2024286],[72.9087277,19.2024218],[72.9086392,19.2024098],[72.9085295,19.2023808],[72.9075831,19.2021308],[72.9073882,19.2021026],[72.9067121,19.202005],[72.9044565,19.2016793],[72.9039099,19.2016004],[72.9026386,19.2014168],[72.9024395,19.2013881],[72.9023194,19.201359],[72.9023193,19.201359],[72.9021266,19.2013125],[72.9011084,19.2010882],[72.9009859,19.2010612],[72.9009851,19.201061],[72.900985,19.2010613],[72.9003118,19.2028678],[72.9000357,19.2036088],[72.8997918,19.2042633],[72.8997683,19.2044228],[72.8997464,19.2045711],[72.8995402,19.2048728],[72.8993083,19.2049812],[72.8991094,19.2051134],[72.8973383,19.2062901],[72.89625,19.2070131],[72.8953227,19.2076293],[72.8953288,19.2078888],[72.8953412,19.2084122],[72.8953026,19.2084047],[72.895139,19.2083906],[72.8948989,19.2083819],[72.8947146,19.2083913],[72.8945226,19.2084007],[72.8944286,19.2084161],[72.8943566,19.2084457],[72.8943443,19.2084552],[72.8943441,19.2084554],[72.8943333,19.2084637],[72.8943073,19.2084762],[72.8942703,19.2084802],[72.8942362,19.2084843],[72.8941844,19.2085066],[72.8941465,19.2085348],[72.894126,19.2085502],[72.8941118,19.2085523],[72.8940782,19.2085431],[72.8940679,19.2085185],[72.8940695,19.2084783],[72.8940689,19.2082926],[72.894003,19.2083238],[72.8936786,19.2084775],[72.8926978,19.2089759],[72.8926086,19.2090212],[72.8926084,19.2090213],[72.8920081,19.2093261],[72.8919912,19.2095468],[72.8919912,19.2095469],[72.891961,19.2099429],[72.8919423,19.2101877],[72.891931,19.2102882],[72.8919055,19.2105146],[72.8917846,19.210552],[72.8915233,19.2106446],[72.8913398,19.2107051],[72.89123,19.21072],[72.8910436,19.210497],[72.8909709,19.2104099],[72.8906264,19.2102732],[72.890609,19.2102663],[72.8906087,19.2102662],[72.8902338,19.2101171],[72.8899024,19.2102648],[72.889521,19.2104349],[72.8895205,19.2104351],[72.8894365,19.2104726],[72.8869461,19.2116183],[72.8866907,19.2133606],[72.8866283,19.2137859],[72.8866046,19.2139634],[72.8865615,19.214286],[72.8865084,19.2146469],[72.886467,19.2149286],[72.8863267,19.2158827],[72.8856159,19.2161182],[72.8853961,19.2161911],[72.884967,19.2163333],[72.8849663,19.2163335],[72.8845376,19.2164756],[72.8839396,19.2166798],[72.8839387,19.2166801],[72.8823469,19.2172237],[72.8820568,19.2173228],[72.8811391,19.2165296],[72.8809605,19.216375],[72.8806696,19.21613],[72.8795573,19.215193],[72.8793706,19.2149746],[72.8792989,19.2148906],[72.8791431,19.2147627],[72.8791428,19.2147624],[72.8788357,19.214555],[72.8787864,19.2145217],[72.8784943,19.214323],[72.8781999,19.2141135],[72.8781965,19.2141111],[72.8781961,19.2141112],[72.8781926,19.2141119],[72.8777182,19.2141776],[72.8776746,19.2141836],[72.8776652,19.2142504],[72.8776511,19.2143013],[72.8776214,19.2143757],[72.8775813,19.2144459],[72.8768327,19.2144575],[72.8751513,19.2144799],[72.8742597,19.2144869],[72.8726547,19.2144942],[72.8721735,19.2145175],[72.8716493,19.2145429],[72.8704473,19.2145311],[72.8692015,19.2145537],[72.8689433,19.2145346],[72.8688972,19.2145253],[72.8675697,19.2141106],[72.8675705,19.2141098],[72.8660297,19.2137153],[72.8645534,19.2133284],[72.8634797,19.2130703],[72.8630628,19.2131359],[72.8628848,19.2131399],[72.8621312,19.2130927],[72.860626,19.2130012],[72.8589058,19.2129722],[72.8587836,19.2129701],[72.8574389,19.2128924],[72.8568362,19.2129092],[72.8563963,19.2129494],[72.8562502,19.2129858],[72.8557359,19.2131515],[72.8540961,19.2137596],[72.853786,19.2138561],[72.8535971,19.2139064],[72.8534212,19.2139162],[72.8528668,19.2138835],[72.8524307,19.2138259],[72.8518459,19.2137422],[72.8516263,19.2136341],[72.8514872,19.2135389],[72.8511557,19.2138551],[72.8504383,19.2134119],[72.8500708,19.2132338],[72.8494982,19.2129562],[72.8489037,19.2126979],[72.8482423,19.2124423],[72.847658,19.2122996],[72.8472371,19.2122404],[72.8466767,19.2121829],[72.8462698,19.2121509],[72.8459802,19.2121543],[72.8454507,19.212199],[72.844788,19.2123202],[72.843771,19.212588],[72.8430733,19.2128093],[72.8424109,19.2129404],[72.8418984,19.2131174],[72.84115,19.2134045],[72.840656,19.2136724],[72.8397845,19.2141851],[72.8382572,19.2151008],[72.8377691,19.2151073],[72.8375876,19.2151216],[72.8373834,19.2151495],[72.8371023,19.2151879],[72.8366883,19.2152544],[72.8363931,19.2153011],[72.836024,19.2153624],[72.8357761,19.2153823],[72.833244,19.2153321],[72.8329724,19.2153289],[72.8326502,19.2153267],[72.8320723,19.2153235],[72.8317207,19.2153215],[72.8311057,19.2153213],[72.8307541,19.2153213],[72.8305878,19.2153213],[72.8301495,19.2153212],[72.8299711,19.2153201],[72.8295876,19.2153178],[72.8289939,19.2153069],[72.8288725,19.215306],[72.828523,19.2153085],[72.8280688,19.215318],[72.8276206,19.215338],[72.8274629,19.2153451],[72.8272889,19.2153525],[72.8266626,19.2153793],[72.826326,19.2153962],[72.8261456,19.2154048],[72.8259599,19.2154137],[72.825697,19.2154262],[72.8256312,19.2154294],[72.82527,19.2154397],[72.8251253,19.2154439],[72.8249769,19.2154515],[72.8245755,19.2154718],[72.8241345,19.2154881],[72.8239105,19.2154964],[72.8233981,19.2155202],[72.8231253,19.2155339],[72.8224999,19.2155586],[72.8222499,19.2155702],[72.8219488,19.2155882],[72.8216477,19.2156022],[72.8213362,19.2156119],[72.8209757,19.2156079],[72.8205296,19.2155782],[72.8200816,19.2155273],[72.8197212,19.2154924],[72.8192545,19.2154476],[72.8186142,19.2153863],[72.8179286,19.2153206],[72.8173684,19.2152545],[72.8168798,19.2152038],[72.8164937,19.2151729],[72.8163292,19.2151562],[72.815935,19.2151222],[72.8155083,19.2150742],[72.8150355,19.2150251],[72.8145866,19.2149793],[72.8126176,19.2147338],[72.8110646,19.2146087],[72.8036061,19.2141438],[72.8037008,19.2144201],[72.8037106,19.214452],[72.8037343,19.2145296],[72.8041233,19.2158023],[72.8041455,19.2159419],[72.8042044,19.2163123],[72.8043943,19.2167765],[72.8045509,19.2170168],[72.8052491,19.2171178],[72.8060305,19.2172019],[72.8060564,19.2172305],[72.80614,19.2173225],[72.8062688,19.2174645],[72.8069968,19.2189735],[72.8071718,19.2193363],[72.8071805,19.2196698],[72.8069895,19.2203889],[72.8069777,19.2204095],[72.8065931,19.2210817],[72.8061035,19.2213958],[72.8060857,19.2214072],[72.8060018,19.221461],[72.8050303,19.2220844],[72.8046131,19.2223588],[72.8040716,19.222715],[72.8026966,19.2229459],[72.8023219,19.2230529],[72.8005542,19.2235578],[72.7983909,19.2244627],[72.7975271,19.2244259],[72.7968478,19.2243969],[72.7966177,19.2243864],[72.7962867,19.2243712],[72.7959599,19.2245075],[72.7952347,19.2248801],[72.79518,19.2249755],[72.7951313,19.2250604],[72.7950794,19.2251531],[72.7949969,19.225301],[72.7948247,19.2256091],[72.7948242,19.22561],[72.7948237,19.22561],[72.794409,19.2255689],[72.7923155,19.2254746],[72.7906748,19.2253501],[72.7906505,19.2253483],[72.7906147,19.2253456],[72.7879586,19.2251415],[72.7864427,19.2251135],[72.7861262,19.2250984],[72.7849879,19.2250441],[72.7843118,19.2249675],[72.7839073,19.224864],[72.7838634,19.2248509],[72.7838518,19.2248474],[72.7834882,19.2247388],[72.7831984,19.2247153],[72.7831938,19.2246825],[72.7831035,19.2246781],[72.7830482,19.2246754],[72.7829401,19.2246701],[72.7829397,19.2246701],[72.7829343,19.2246679],[72.7828842,19.2246473],[72.7828781,19.22464],[72.7828225,19.224572],[72.7828185,19.2245671],[72.7828183,19.2245669],[72.7827855,19.2245269],[72.7827814,19.2245219],[72.782729,19.224458],[72.7827053,19.2244215],[72.7826755,19.2243756],[72.7826358,19.2243146],[72.7825367,19.2242705],[72.7824929,19.2242808],[72.7823843,19.2242856],[72.7822348,19.224282],[72.7821728,19.224237],[72.7821451,19.2241229],[72.7821083,19.2240939],[72.7821124,19.2239768],[72.7821067,19.2238106],[72.7820982,19.2237951],[72.7820122,19.2235793],[72.7819036,19.2233065],[72.7811603,19.2229412],[72.7810585,19.2228912],[72.7810466,19.222873],[72.7810078,19.2228137],[72.7810086,19.2227503],[72.7809981,19.2225755],[72.7810523,19.2225005],[72.7810638,19.2224845],[72.7810641,19.2224842],[72.7810717,19.2224423],[72.7811354,19.2220957],[72.7811601,19.2219609],[72.7812256,19.2215724],[72.7812365,19.2215016],[72.7812502,19.2214118],[72.7813379,19.2208406],[72.7814248,19.2202804],[72.7814249,19.2202801],[72.781434,19.2201985],[72.781434,19.2201983],[72.7814338,19.2201983],[72.7813068,19.2201733],[72.7812255,19.2201574],[72.7811445,19.2201716],[72.7810878,19.2201668],[72.7808672,19.2201483],[72.7808085,19.2199575],[72.7807975,19.2198511],[72.78071,19.2198512],[72.7806233,19.2198515],[72.780623,19.2198515],[72.7802606,19.2198523],[72.7802152,19.2198524],[72.7802134,19.2198524],[72.7801671,19.2197719],[72.7801085,19.2196699],[72.7801351,19.2195333],[72.7801382,19.2195174],[72.7801396,19.2195098],[72.7801457,19.2194789],[72.7802007,19.2191958],[72.7802285,19.2190861],[72.7802914,19.2190096],[72.7804424,19.2189201],[72.7805003,19.2188858],[72.7805396,19.2188626],[72.7807677,19.2186667],[72.780849,19.2187018],[72.7808504,19.2186985],[72.7808833,19.2186166],[72.7809136,19.2185735],[72.7809703,19.2185681],[72.7810099,19.218579],[72.7810347,19.2185303],[72.7810366,19.2185045],[72.7810393,19.2184692],[72.7808885,19.2183748],[72.7807863,19.2182923],[72.7806732,19.218201],[72.7806339,19.2181629],[72.7806316,19.2181607],[72.7806106,19.2181404],[72.7806096,19.2181394],[72.7802918,19.217928],[72.7803791,19.2176333],[72.7798587,19.2176687],[72.7796575,19.2177194],[72.779156,19.2183475],[72.778818,19.2191909],[72.7788582,19.2199887],[72.778751,19.2201255],[72.7783659,19.2201107],[72.7780563,19.2203458],[72.7777969,19.2207218],[72.7774581,19.2214349],[72.7769726,19.2216603],[72.7766615,19.2218705],[72.7765059,19.2220554],[72.7765086,19.2228988],[72.7761573,19.2233394],[72.7761412,19.2239169],[72.7760124,19.2244665],[72.7761358,19.2250034],[72.7761868,19.2254846],[72.7763611,19.2259126],[72.7766642,19.226252],[72.7775493,19.2267129],[72.77797,19.2271975],[72.7785391,19.2280147],[72.7788851,19.2285237],[72.7792633,19.2291189],[72.7797675,19.2298938],[72.7804402,19.2305895],[72.7805936,19.2308309],[72.7806205,19.2310436],[72.7806017,19.2312728],[72.7805239,19.2314792],[72.7802273,19.2321573]]]]}}]}