{"type":"FeatureCollection","features":[{"type":"Feature","properties":{"ward": "RN"},"geometry":{"type":"MultiPolygon","coordinates":[[[[72.8349639,19.2495204],[72.8352186,19.2496264],[72.8359457,19.2500224],[72.8366346,19.250506],[72.8377642,19.2513117],[72.8382966,19.2517142],[72.8385994,19.2520386],[72.8396637,19.2537592],[72.8399697,19.2554048],[72.8378874,19.2583945],[72.8370033,19.2598217],[72.8364424,19.2619035],[72.8366384,19.2626022],[72.8368415,19.2631121],[72.836956,19.2633961],[72.8371952,19.2638001],[72.8372475,19.2638828],[72.8373927,19.2641362],[72.8375498,19.2643701],[72.8378212,19.2647147],[72.8381324,19.2651701],[72.8384325,19.265581],[72.8386456,19.2658669],[72.8387302,19.2659733],[72.8389162,19.2661337],[72.8390295,19.2662263],[72.8390932,19.2662415],[72.8394364,19.2665102],[72.8398076,19.2667393],[72.8400803,19.2668887],[72.8403791,19.2670737],[72.8404661,19.2671219],[72.8407631,19.2672064],[72.84097,19.2672561],[72.8411839,19.2673148],[72.8415339,19.2674166],[72.841671,19.2674248],[72.8424861,19.26745],[72.8428397,19.2673733],[72.8432537,19.2672912],[72.8441499,19.2671708],[72.8446554,19.2670814],[72.8455619,19.2669346],[72.8461045,19.2670861],[72.8461981,19.2671073],[72.8466454,19.2672339],[72.8470762,19.2673419],[72.8476344,19.2678557],[72.8486357,19.2685627],[72.8498821,19.2693768],[72.8500483,19.2694771],[72.8503883,19.2693816],[72.850597,19.269063],[72.8512451,19.2680992],[72.8523637,19.2675557],[72.8532493,19.2673865],[72.856719,19.2690769],[72.858087,19.2694244],[72.8591721,19.2689766],[72.8598807,19.2686941],[72.8602195,19.2685354],[72.8613235,19.2676355],[72.8618978,19.2677064],[72.8622032,19.2680812],[72.8626067,19.2685064],[72.8631849,19.2683227],[72.8634714,19.267832],[72.863792,19.2674414],[72.8647359,19.2671717],[72.8650022,19.2669407],[72.8655508,19.2670606],[72.8660166,19.2669612],[72.8661856,19.2665813],[72.8661442,19.2659496],[72.8657345,19.2651714],[72.8659344,19.2646601],[72.8660678,19.2644731],[72.8670854,19.26301],[72.867127,19.2629578],[72.8674863,19.2626237],[72.8681192,19.2620146],[72.8686257,19.2614159],[72.8688528,19.2611411],[72.8693,19.2608936],[72.86969,19.2606818],[72.8698154,19.2606111],[72.8698514,19.2606159],[72.8699104,19.2606659],[72.8699464,19.2608198],[72.8699802,19.2609879],[72.870105,19.2610773],[72.8708005,19.2612049],[72.8710933,19.2611647],[72.8710914,19.2610987],[72.8714607,19.2611625],[72.8718697,19.2612518],[72.8718944,19.2612444],[72.8721556,19.2611941],[72.8721642,19.261195],[72.8722669,19.2611665],[72.8724717,19.2612029],[72.8726417,19.261133],[72.8726995,19.2610656],[72.8732121,19.2608472],[72.8733292,19.2608042],[72.8738031,19.2606913],[72.873848,19.2605825],[72.8740431,19.2606075],[72.8744902,19.2606138],[72.8748556,19.2606791],[72.8750591,19.2607267],[72.8752063,19.260679],[72.8753414,19.2606146],[72.8757415,19.2604458],[72.8758872,19.2605394],[72.8761072,19.2604404],[72.8768141,19.2597215],[72.8773009,19.2592412],[72.8776541,19.2587862],[72.8779285,19.2580991],[72.8782317,19.2575988],[72.8783254,19.2573731],[72.8786543,19.2568068],[72.8787731,19.2567287],[72.8795151,19.2562616],[72.8798203,19.2560878],[72.8802656,19.2557367],[72.8807755,19.255225],[72.8811214,19.2548722],[72.8813989,19.2545677],[72.8818276,19.2542582],[72.8834231,19.2537973],[72.8838943,19.253679],[72.8848471,19.2532787],[72.8854856,19.252711],[72.8862754,19.2520177],[72.8872929,19.2510969],[72.8908207,19.2511393],[72.8926448,19.2516655],[72.8948495,19.2506936],[72.8929189,19.2489874],[72.8922923,19.2485615],[72.8920984,19.2484277],[72.8920889,19.2484213],[72.8918444,19.2482554],[72.891844,19.2482551],[72.891836,19.2482497],[72.891819,19.2482374],[72.8918182,19.2482368],[72.8916405,19.248109],[72.8914881,19.2480012],[72.8914879,19.248001],[72.8910695,19.2477045],[72.8908572,19.2475534],[72.8908567,19.247553],[72.8904774,19.247283],[72.8904394,19.2472583],[72.8901623,19.2470782],[72.8897946,19.2468361],[72.8894065,19.2465833],[72.8890406,19.2463439],[72.8887008,19.2461199],[72.8882481,19.2458134],[72.8878913,19.245576],[72.8878907,19.2455756],[72.8860698,19.2443869],[72.8851984,19.243821],[72.885074,19.2437402],[72.8850671,19.2437357],[72.8850437,19.2437206],[72.8849936,19.2436878],[72.8848384,19.2435863],[72.8848383,19.2435862],[72.8847738,19.2435445],[72.8847662,19.2435395],[72.8843577,19.2432751],[72.8839686,19.2430273],[72.8839668,19.2430262],[72.8839665,19.243026],[72.8838247,19.2429359],[72.8838246,19.2429359],[72.8838241,19.2429356],[72.8838238,19.2429354],[72.8838229,19.2429348],[72.8836164,19.242806],[72.8832663,19.2425948],[72.8832629,19.2425928],[72.8832098,19.2425607],[72.8832097,19.2425606],[72.8828386,19.2423363],[72.8824846,19.2421167],[72.8824845,19.2421166],[72.8824837,19.2421161],[72.8824835,19.242116],[72.8821672,19.2419195],[72.8819948,19.2418111],[72.8819945,19.2418109],[72.8814359,19.2414587],[72.8811638,19.2412859],[72.8808742,19.2411007],[72.8806511,19.2409604],[72.880651,19.2409604],[72.8806509,19.2409603],[72.8806453,19.2409568],[72.8806444,19.2409562],[72.8806434,19.2409556],[72.8803209,19.2407525],[72.8796821,19.2403483],[72.879648,19.2403266],[72.8791038,19.2399357],[72.8784457,19.239463],[72.8783756,19.2394189],[72.8783749,19.2394185],[72.8783748,19.2394185],[72.8780536,19.239216],[72.8776631,19.2389761],[72.877663,19.2389762],[72.8729749,19.2383775],[72.8728655,19.2383703],[72.8724489,19.2383267],[72.870633,19.2380176],[72.870278,19.2379625],[72.8700929,19.2379915],[72.8698783,19.238014],[72.8695632,19.2379888],[72.869101,19.2379864],[72.8688256,19.2380079],[72.8686394,19.2380357],[72.8681942,19.2381216],[72.8679916,19.2381653],[72.8679521,19.2381768],[72.8676695,19.2382776],[72.8673323,19.238404],[72.8671595,19.2384463],[72.8670556,19.2384626],[72.8648707,19.2384917],[72.8643527,19.238496],[72.8643107,19.2382249],[72.8642848,19.2380581],[72.8641867,19.2374247],[72.8641599,19.2372439],[72.8629387,19.2374059],[72.8629184,19.2374502],[72.8628351,19.2374889],[72.8627955,19.2375226],[72.8627235,19.2375845],[72.862643,19.237628],[72.8623745,19.2377734],[72.8623297,19.2377977],[72.862324,19.2378104],[72.862324,19.2378103],[72.862322,19.2378027],[72.8622332,19.2378602],[72.8619146,19.2380667],[72.8618854,19.2380856],[72.8617272,19.2381623],[72.8616687,19.2382066],[72.8616047,19.2382648],[72.8613048,19.2385371],[72.8610377,19.2387795],[72.8610134,19.238892],[72.8608677,19.2389602],[72.8604762,19.2391435],[72.8604598,19.239148],[72.8602031,19.2392422],[72.8600436,19.2393064],[72.8597934,19.2394062],[72.859577,19.2393386],[72.8594161,19.2393774],[72.8593652,19.2393565],[72.8592139,19.239276],[72.8589376,19.2387636],[72.8589061,19.2386259],[72.8588727,19.2384179],[72.8587943,19.238062],[72.8587568,19.2379033],[72.8587555,19.237898],[72.8586896,19.2376713],[72.8586337,19.2374792],[72.8586603,19.2372769],[72.858347,19.2371842],[72.8579876,19.2371013],[72.8578992,19.2371042],[72.8577027,19.2371413],[72.8569206,19.2373931],[72.8561195,19.2376159],[72.8555008,19.237728],[72.8551716,19.237774],[72.8548197,19.2377515],[72.8543277,19.2377893],[72.8528438,19.2379549],[72.8527341,19.2379686],[72.8525774,19.2379846],[72.8524305,19.2379956],[72.8522798,19.2380069],[72.8522364,19.2380094],[72.8521037,19.2380169],[72.8519787,19.238024],[72.8518582,19.2380274],[72.8516801,19.2380324],[72.8515804,19.2380343],[72.8513956,19.2380377],[72.8513147,19.2380409],[72.8510609,19.2380511],[72.8509146,19.2380583],[72.850755,19.2380662],[72.8501837,19.2380841],[72.8498443,19.2380947],[72.8496486,19.2381218],[72.8495124,19.2381451],[72.8494192,19.2381689],[72.8491783,19.2382732],[72.8490133,19.2383516],[72.8489488,19.2383836],[72.8485241,19.2386276],[72.8484224,19.2386944],[72.8482039,19.2388296],[72.8474397,19.2393199],[72.8471422,19.2395106],[72.8470117,19.2395966],[72.8469496,19.2396376],[72.8468395,19.2397098],[72.8464945,19.2399275],[72.8462279,19.2401032],[72.8459721,19.2402698],[72.8457952,19.2403999],[72.8457614,19.2404247],[72.8455875,19.2405524],[72.8453778,19.2407068],[72.8441692,19.2415942],[72.8437664,19.2419155],[72.8431203,19.2424303],[72.8430392,19.2424925],[72.8419152,19.2433873],[72.8388339,19.2461155],[72.8386816,19.2462495],[72.8349639,19.2495204]]]]}}]}