{"type":"FeatureCollection","features":[{"type":"Feature","properties":{"ward": "RS"},"geometry":{"type":"MultiPolygon","coordinates":[[[[72.8036061,19.2141438],[72.8110646,19.2146087],[72.8126176,19.2147338],[72.8145866,19.2149793],[72.8150355,19.2150251],[72.8155083,19.2150742],[72.815935,19.2151222],[72.8163292,19.2151562],[72.8164937,19.2151729],[72.8168798,19.2152038],[72.8173684,19.2152545],[72.8179286,19.2153206],[72.8186142,19.2153863],[72.8192545,19.2154476],[72.8197212,19.2154924],[72.8200816,19.2155273],[72.8205296,19.2155782],[72.8209757,19.2156079],[72.8213362,19.2156119],[72.8216477,19.2156022],[72.8219488,19.2155882],[72.8222499,19.2155702],[72.8224999,19.2155586],[72.8231253,19.2155339],[72.8233981,19.2155202],[72.8239105,19.2154964],[72.8241345,19.2154881],[72.8245755,19.2154718],[72.8249769,19.2154515],[72.8251253,19.2154439],[72.82527,19.2154397],[72.8256312,19.2154294],[72.825697,19.2154262],[72.8259599,19.2154137],[72.8261456,19.2154048],[72.826326,19.2153962],[72.8266626,19.2153793],[72.8272889,19.2153525],[72.8274629,19.2153451],[72.8276206,19.215338],[72.8280688,19.215318],[72.828523,19.2153085],[72.8288725,19.215306],[72.8289939,19.2153069],[72.8295876,19.2153178],[72.8299711,19.2153201],[72.8301495,19.2153212],[72.8305878,19.2153213],[72.8307541,19.2153213],[72.8311057,19.2153213],[72.8317207,19.2153215],[72.8320723,19.2153235],[72.8326502,19.2153267],[72.8329724,19.2153289],[72.833244,19.2153321],[72.8357761,19.2153823],[72.836024,19.2153624],[72.8363931,19.2153011],[72.8366883,19.2152544],[72.8371023,19.2151879],[72.8373834,19.2151495],[72.8375876,19.2151216],[72.8377691,19.2151073],[72.8382572,19.2151008],[72.8397845,19.2141851],[72.840656,19.2136724],[72.84115,19.2134045],[72.8418984,19.2131174],[72.8424109,19.2129404],[72.8430733,19.2128093],[72.843771,19.212588],[72.844788,19.2123202],[72.8454507,19.212199],[72.8459802,19.2121543],[72.8462698,19.2121509],[72.8466767,19.2121829],[72.8472371,19.2122404],[72.847658,19.2122996],[72.8482423,19.2124423],[72.8489037,19.2126979],[72.8494982,19.2129562],[72.8500708,19.2132338],[72.8504383,19.2134119],[72.8511557,19.2138551],[72.8514872,19.2135389],[72.8516263,19.2136341],[72.8518459,19.2137422],[72.8524307,19.2138259],[72.8528668,19.2138835],[72.8534212,19.2139162],[72.8535971,19.2139064],[72.853786,19.2138561],[72.8540961,19.2137596],[72.8557359,19.2131515],[72.8562502,19.2129858],[72.8563963,19.2129494],[72.8568362,19.2129092],[72.8574389,19.2128924],[72.8587836,19.2129701],[72.8589058,19.2129722],[72.860626,19.2130012],[72.8621312,19.2130927],[72.8628848,19.2131399],[72.8630628,19.2131359],[72.8634797,19.2130703],[72.8645534,19.2133284],[72.8660297,19.2137153],[72.8675705,19.2141098],[72.8675697,19.2141106],[72.8688972,19.2145253],[72.8689433,19.2145346],[72.8692015,19.2145537],[72.8704473,19.2145311],[72.8716493,19.2145429],[72.8721735,19.2145175],[72.8726547,19.2144942],[72.8742597,19.2144869],[72.8751513,19.2144799],[72.8768327,19.2144575],[72.8775813,19.2144459],[72.8776214,19.2143757],[72.8776511,19.2143013],[72.8776652,19.2142504],[72.8776746,19.2141836],[72.8777182,19.2141776],[72.8781926,19.2141119],[72.8781961,19.2141112],[72.8781965,19.2141111],[72.8781999,19.2141135],[72.8784943,19.214323],[72.8787864,19.2145217],[72.8788357,19.214555],[72.8791428,19.2147624],[72.8791431,19.2147627],[72.8792989,19.2148906],[72.8793706,19.2149746],[72.8795573,19.215193],[72.8806696,19.21613],[72.8809605,19.216375],[72.8811391,19.2165296],[72.8820568,19.2173228],[72.8823469,19.2172237],[72.8839387,19.2166801],[72.8839396,19.2166798],[72.8845376,19.2164756],[72.8849663,19.2163335],[72.884967,19.2163333],[72.8853961,19.2161911],[72.8856159,19.2161182],[72.8863267,19.2158827],[72.886467,19.2149286],[72.8865084,19.2146469],[72.8865615,19.214286],[72.8866046,19.2139634],[72.8866283,19.2137859],[72.8866907,19.2133606],[72.8869461,19.2116183],[72.8894365,19.2104726],[72.8895205,19.2104351],[72.889521,19.2104349],[72.8899024,19.2102648],[72.8902338,19.2101171],[72.8906087,19.2102662],[72.890609,19.2102663],[72.8906264,19.2102732],[72.8909709,19.2104099],[72.8910436,19.210497],[72.89123,19.21072],[72.8913398,19.2107051],[72.8915233,19.2106446],[72.8917846,19.210552],[72.8919055,19.2105146],[72.891931,19.2102882],[72.8919423,19.2101877],[72.891961,19.2099429],[72.8919912,19.2095469],[72.8919912,19.2095468],[72.8920081,19.2093261],[72.8926084,19.2090213],[72.8926086,19.2090212],[72.8926978,19.2089759],[72.8936786,19.2084775],[72.894003,19.2083238],[72.8940689,19.2082926],[72.8940695,19.2084783],[72.8940679,19.2085185],[72.8940782,19.2085431],[72.8941118,19.2085523],[72.894126,19.2085502],[72.8941465,19.2085348],[72.8941844,19.2085066],[72.8942362,19.2084843],[72.8942703,19.2084802],[72.8943073,19.2084762],[72.8943333,19.2084637],[72.8943441,19.2084554],[72.8943443,19.2084552],[72.8943566,19.2084457],[72.8944286,19.2084161],[72.8945226,19.2084007],[72.8947146,19.2083913],[72.8948989,19.2083819],[72.895139,19.2083906],[72.8953026,19.2084047],[72.8953412,19.2084122],[72.8953288,19.2078888],[72.8953227,19.2076293],[72.89625,19.2070131],[72.8973383,19.2062901],[72.8991094,19.2051134],[72.8993083,19.2049812],[72.8995402,19.2048728],[72.8997464,19.2045711],[72.8997683,19.2044228],[72.8997918,19.2042633],[72.9000357,19.2036088],[72.9003118,19.2028678],[72.900985,19.2010613],[72.9009851,19.201061],[72.9009859,19.2010612],[72.9011084,19.2010882],[72.9021266,19.2013125],[72.9023193,19.201359],[72.9023194,19.201359],[72.9024395,19.2013881],[72.902426,19.2004908],[72.902426,19.2004907],[72.9024192,19.2000458],[72.9024181,19.1999788],[72.9024159,19.1998334],[72.9024144,19.1997347],[72.9024142,19.1997185],[72.9023974,19.1995234],[72.9023967,19.1994902],[72.9023927,19.1992988],[72.9023915,19.1992392],[72.9023904,19.1991881],[72.9023904,19.199188],[72.9023824,19.1988118],[72.9023738,19.1984624],[72.9023582,19.1978469],[72.9023576,19.1972512],[72.9021411,19.1970366],[72.9014686,19.19637],[72.9014686,19.1963699],[72.901331,19.1957988],[72.901331,19.1957987],[72.901258,19.1954958],[72.9011523,19.1950574],[72.9009368,19.194163],[72.9009071,19.1940318],[72.9006953,19.1930969],[72.9006824,19.1930205],[72.9006767,19.1930043],[72.9006397,19.1929004],[72.9006104,19.1927761],[72.900585,19.1926688],[72.9005391,19.1924744],[72.9004905,19.1922693],[72.9004614,19.1921468],[72.9004449,19.1920761],[72.9004449,19.192076],[72.9004365,19.1920407],[72.9004221,19.1919245],[72.9004029,19.1918361],[72.9003913,19.1917954],[72.9003718,19.1917278],[72.9003416,19.1916325],[72.9003398,19.1916232],[72.9003226,19.1915367],[72.9003172,19.1913648],[72.9003047,19.1911311],[72.90026,19.190824],[72.9002553,19.1907036],[72.9002517,19.1906215],[72.9002456,19.1904906],[72.900239,19.1904437],[72.9002302,19.1903827],[72.9002282,19.1903264],[72.9002264,19.1902828],[72.9002221,19.190215],[72.9002177,19.1901491],[72.9002074,19.1901484],[72.900197,19.1901474],[72.9001913,19.1900026],[72.9001935,19.1898526],[72.9001857,19.1897603],[72.9001857,19.1897601],[72.9001738,19.1896245],[72.9001613,19.1895422],[72.9001569,19.1893844],[72.900153,19.1893597],[72.9001524,19.1893563],[72.9001487,19.1893349],[72.9001827,19.1856968],[72.9001882,19.1851018],[72.8973907,19.1892042],[72.8973904,19.1892044],[72.8973668,19.1892231],[72.8973648,19.1892246],[72.8973646,19.1892248],[72.8973646,19.1892249],[72.8973373,19.1892456],[72.8973362,19.1892464],[72.8970505,19.1894636],[72.8970381,19.1894731],[72.8961793,19.1901424],[72.896104,19.1902011],[72.8956751,19.1905407],[72.8956748,19.1905407],[72.8956745,19.1905408],[72.8956676,19.1905413],[72.8944969,19.1906301],[72.8943005,19.1906452],[72.8941652,19.1906646],[72.8940371,19.190683],[72.894037,19.190683],[72.8924341,19.1910663],[72.8920067,19.1911061],[72.891081,19.1911927],[72.8878406,19.1922339],[72.8878214,19.1922401],[72.8877289,19.1922698],[72.8876686,19.1922892],[72.887576,19.1923189],[72.8872545,19.1924222],[72.8871415,19.1924585],[72.8871129,19.1924677],[72.887081,19.192478],[72.8870364,19.1924777],[72.8858588,19.19247],[72.8856478,19.1924686],[72.8855747,19.1924682],[72.8847443,19.192463],[72.8827839,19.1924557],[72.88275,19.1924601],[72.8807251,19.1927249],[72.8788411,19.1929713],[72.8788389,19.1929716],[72.8784562,19.1929286],[72.8784166,19.1929242],[72.8774167,19.1928117],[72.8769661,19.1928422],[72.8768011,19.1928534],[72.87672,19.1928589],[72.8767068,19.1928603],[72.8767006,19.1928626],[72.8765601,19.1929154],[72.8765417,19.1929223],[72.8765152,19.1929282],[72.8763809,19.1929581],[72.87629,19.1929784],[72.876195,19.1929995],[72.8761089,19.1930187],[72.8760613,19.1930293],[72.8760162,19.1930428],[72.8759056,19.1930757],[72.8758272,19.1930991],[72.8757589,19.1931194],[72.8757171,19.1931319],[72.8754445,19.1932131],[72.8754269,19.1932186],[72.8752775,19.1932656],[72.8752639,19.1932699],[72.875154,19.1933048],[72.8750971,19.1933229],[72.8750617,19.1933339],[72.8749535,19.1933678],[72.8749269,19.1933761],[72.8748948,19.1933862],[72.8748585,19.1933977],[72.8747708,19.1934253],[72.8747606,19.1934286],[72.8746762,19.1934539],[72.8746067,19.1934751],[72.8745928,19.1934793],[72.8745672,19.1935166],[72.874543,19.1935519],[72.8744263,19.193725],[72.874425,19.193727],[72.8743452,19.193846],[72.8743127,19.1938935],[72.8743126,19.1938935],[72.8742973,19.1939163],[72.8742964,19.1939175],[72.8742943,19.1939213],[72.8742892,19.1939219],[72.8742808,19.193923],[72.8742654,19.1939256],[72.8742143,19.1939345],[72.8741795,19.1939406],[72.8741518,19.1939451],[72.8740511,19.1939618],[72.8740191,19.1939585],[72.8739926,19.1939561],[72.8738675,19.1939444],[72.8738553,19.1939412],[72.8738411,19.1939376],[72.8737863,19.1939387],[72.8737514,19.1939361],[72.8737422,19.1939354],[72.873709,19.1939378],[72.8735971,19.1939461],[72.8734546,19.1939583],[72.873418,19.1939615],[72.8733624,19.1939654],[72.8732383,19.1939745],[72.8732205,19.1939773],[72.8732156,19.1939782],[72.8731738,19.1939852],[72.8731519,19.1939886],[72.8730954,19.1939975],[72.8730953,19.1939975],[72.8730951,19.1939975],[72.8730915,19.1939978],[72.8730914,19.1939978],[72.8729877,19.194007],[72.8729516,19.1940005],[72.8729107,19.1939935],[72.8728882,19.1939856],[72.8728639,19.1939771],[72.8728149,19.1939599],[72.8727902,19.1939352],[72.8727835,19.1939284],[72.8727142,19.1939272],[72.8726995,19.1939288],[72.872654,19.1939337],[72.8726489,19.1939341],[72.8725895,19.1939388],[72.8725857,19.1939384],[72.872525,19.1939315],[72.8725168,19.1939292],[72.872476,19.1939119],[72.8724746,19.1939113],[72.8724047,19.1938817],[72.8723898,19.1938753],[72.872356,19.1938723],[72.872253,19.193863],[72.8722454,19.1938623],[72.8721932,19.1938575],[72.8721793,19.1938564],[72.8719846,19.1938608],[72.8718515,19.1938638],[72.8715429,19.1938708],[72.8713393,19.1938515],[72.8713173,19.1938501],[72.8712567,19.1938462],[72.8710675,19.1938411],[72.8710044,19.1938394],[72.8710031,19.1938391],[72.8710015,19.1938388],[72.8709847,19.1938356],[72.8709594,19.1938354],[72.8708481,19.1938343],[72.8707993,19.1938338],[72.8707251,19.193833],[72.8705302,19.1938311],[72.8704964,19.1938308],[72.8704914,19.1938307],[72.8702972,19.1938288],[72.8700695,19.1937519],[72.8697048,19.1937124],[72.8696514,19.1937066],[72.8695787,19.1936987],[72.8695396,19.1937092],[72.869529,19.193712],[72.8694159,19.1937392],[72.8693395,19.1937576],[72.869263,19.19377],[72.8692282,19.1937756],[72.8692073,19.193779],[72.8689113,19.1937818],[72.8688985,19.1937841],[72.8688079,19.1938006],[72.8687599,19.1938093],[72.8687552,19.1938104],[72.8686837,19.1938276],[72.8684297,19.193887],[72.86842,19.1938892],[72.8683506,19.1938989],[72.8682901,19.1939073],[72.8681854,19.1939184],[72.8681501,19.1939233],[72.868102,19.19393],[72.8680434,19.1939381],[72.8680444,19.1939293],[72.8680549,19.193839],[72.8680869,19.1938018],[72.8681245,19.1937582],[72.8680856,19.1937065],[72.8680638,19.1937072],[72.8678425,19.1937147],[72.8677062,19.1937193],[72.8676852,19.1937201],[72.8676746,19.1937205],[72.8676133,19.1937096],[72.8675734,19.1937025],[72.8674486,19.1936813],[72.8674253,19.1936739],[72.8674236,19.1936734],[72.8672067,19.1936052],[72.8670002,19.1935454],[72.8669598,19.1935338],[72.8668269,19.1935279],[72.8667272,19.1935235],[72.8666956,19.1935221],[72.8664068,19.1934977],[72.8663428,19.1934895],[72.8661256,19.1934865],[72.8660959,19.193482],[72.8660229,19.1934733],[72.8658489,19.1934541],[72.8658345,19.1934524],[72.8658343,19.1934524],[72.8656704,19.1934335],[72.8653269,19.1934288],[72.8653062,19.1934269],[72.8652932,19.1934257],[72.865291,19.1934255],[72.8652768,19.1934242],[72.8652628,19.1934229],[72.8652428,19.193424],[72.8651451,19.1934229],[72.8651228,19.1934227],[72.865103,19.1934221],[72.8651004,19.193422],[72.8649833,19.1934201],[72.8648878,19.1934182],[72.8647611,19.19343],[72.8647368,19.1932928],[72.8646397,19.1927434],[72.8646073,19.1925058],[72.8645925,19.1923974],[72.8645856,19.1923468],[72.8645757,19.1922741],[72.8645723,19.1922493],[72.8645685,19.1922213],[72.8645619,19.1921728],[72.8645435,19.1921521],[72.8645386,19.1921466],[72.8645321,19.1921393],[72.8644935,19.1920959],[72.8644564,19.1920542],[72.8644503,19.1920473],[72.8644313,19.1920259],[72.8643644,19.1919508],[72.8643548,19.1918616],[72.8643525,19.1918399],[72.8643475,19.1917939],[72.8643395,19.1917202],[72.8643391,19.1917161],[72.8643384,19.1917091],[72.864337,19.1916961],[72.8643313,19.1916436],[72.864323,19.19162],[72.8643161,19.1916006],[72.8643159,19.1915998],[72.8643001,19.191555],[72.8642927,19.1915339],[72.8642572,19.1914331],[72.8642541,19.1914244],[72.8642583,19.1913373],[72.8642621,19.19126],[72.8642662,19.1911756],[72.86427,19.1910969],[72.8641846,19.1911015],[72.8641347,19.1911041],[72.8641144,19.1910772],[72.8641014,19.19106],[72.8640833,19.191036],[72.864044,19.190984],[72.86384,19.1910262],[72.8637829,19.1910389],[72.8637693,19.1910414],[72.8637448,19.1910459],[72.8637115,19.1910528],[72.8637054,19.191054],[72.8636615,19.1910631],[72.8636547,19.1910645],[72.8635504,19.1910861],[72.8634779,19.1911011],[72.863453,19.1911062],[72.8634296,19.191111],[72.8633645,19.1911245],[72.8633135,19.191135],[72.86331,19.1911361],[72.8633076,19.1911368],[72.8632888,19.1911423],[72.8632686,19.1911483],[72.8632505,19.1911536],[72.8632098,19.1911637],[72.8630607,19.1912007],[72.8629631,19.1912249],[72.8629538,19.1912272],[72.8628916,19.1912426],[72.862886,19.191244],[72.8628164,19.1912612],[72.8627897,19.1912679],[72.8627491,19.1912779],[72.8627208,19.1912821],[72.8626674,19.1912901],[72.8626207,19.1912971],[72.8625113,19.1913134],[72.8623106,19.191374],[72.8621881,19.1914109],[72.8621187,19.1914103],[72.8620873,19.19141],[72.8618573,19.1914704],[72.8617148,19.1915078],[72.8616166,19.1915336],[72.8615278,19.1915569],[72.8614672,19.1915729],[72.8614562,19.1915757],[72.8613062,19.1916752],[72.8612808,19.191692],[72.8612161,19.1917626],[72.8611329,19.1918533],[72.8610906,19.191898],[72.8610567,19.1919351],[72.8610467,19.1919461],[72.8609902,19.1920082],[72.8608948,19.1921176],[72.8607946,19.1922301],[72.8607236,19.1923097],[72.8607138,19.1923206],[72.8607115,19.1923233],[72.8606984,19.1923389],[72.8606472,19.1924001],[72.8605941,19.1924635],[72.860567,19.1924959],[72.8604726,19.192603],[72.8603711,19.1927207],[72.8603312,19.1927669],[72.8603257,19.1927746],[72.860289,19.1928062],[72.8602611,19.1928339],[72.8602185,19.1928762],[72.8601317,19.1929887],[72.8601154,19.1930069],[72.8600788,19.1930443],[72.8600088,19.1931159],[72.859967,19.1931587],[72.8598406,19.1933714],[72.8598177,19.19341],[72.8597998,19.1934884],[72.8598083,19.1935109],[72.8598086,19.1935116],[72.86001,19.1938986],[72.8600543,19.1940045],[72.860193,19.1943361],[72.8603449,19.1946788],[72.8600647,19.1947243],[72.8599215,19.1947041],[72.8597513,19.194658],[72.8596179,19.1946282],[72.8596128,19.1946271],[72.859543,19.1946115],[72.8595244,19.1946242],[72.8595108,19.1946335],[72.8594977,19.1946425],[72.8594892,19.1946482],[72.8594708,19.1946608],[72.8594564,19.1946707],[72.8594493,19.1946755],[72.8593948,19.1947127],[72.8593911,19.1947152],[72.8593865,19.1947153],[72.8593521,19.1947157],[72.8593346,19.1947111],[72.8593345,19.1947111],[72.8593265,19.1947107],[72.8593056,19.1946995],[72.8592885,19.1946906],[72.8592668,19.1946831],[72.8592647,19.1946824],[72.8592255,19.1946689],[72.8591858,19.1946603],[72.8591137,19.1946448],[72.8590904,19.1946397],[72.8590819,19.1946341],[72.8590578,19.194618],[72.8590492,19.1946157],[72.8590276,19.1946097],[72.8588888,19.1945713],[72.8588711,19.1945664],[72.8588428,19.1945586],[72.8588391,19.1945579],[72.8587114,19.194534],[72.8585054,19.1944975],[72.8583354,19.1945642],[72.8583364,19.1945649],[72.8583111,19.1945752],[72.8583058,19.1945776],[72.8582272,19.1946149],[72.858189,19.1946331],[72.8581664,19.1946531],[72.8578577,19.1945721],[72.8576242,19.1944974],[72.8574392,19.1944382],[72.8573893,19.1944367],[72.8573721,19.1944362],[72.857372,19.1944362],[72.857249,19.1944327],[72.8571635,19.1944302],[72.856818,19.1943779],[72.8567338,19.1943658],[72.8567255,19.1943646],[72.8566377,19.1943521],[72.8564271,19.1943471],[72.8564262,19.1943471],[72.8564252,19.194347],[72.8562979,19.1943441],[72.8562978,19.194344],[72.8562975,19.194344],[72.8560491,19.1942004],[72.8560137,19.1941775],[72.8560136,19.1941774],[72.8560087,19.1941742],[72.8557801,19.1940266],[72.8557493,19.1940086],[72.8556572,19.1939716],[72.8555608,19.1939484],[72.8555607,19.1939484],[72.8555405,19.1939436],[72.8555251,19.19394],[72.8554946,19.1939189],[72.8554928,19.1939177],[72.8554927,19.1939176],[72.8554357,19.1938785],[72.8554136,19.1938665],[72.8552754,19.1937915],[72.8552753,19.1937915],[72.855255,19.1937805],[72.8552394,19.193772],[72.8551003,19.1936967],[72.8547786,19.1936858],[72.8545645,19.1937184],[72.8543247,19.1937548],[72.8542714,19.1937654],[72.8542542,19.1937688],[72.8541937,19.1937808],[72.8541936,19.1937808],[72.8541176,19.1937959],[72.8538546,19.1938483],[72.8537309,19.1938729],[72.8537134,19.1938763],[72.8536793,19.1938933],[72.8536501,19.1939078],[72.8536416,19.1941999],[72.8536256,19.1947564],[72.8536224,19.1948648],[72.8536179,19.1950227],[72.8536175,19.1950366],[72.8536125,19.1952081],[72.8536058,19.1954572],[72.8535982,19.1957376],[72.8537067,19.1957378],[72.8537088,19.1957378],[72.8538482,19.195738],[72.8538822,19.1957559],[72.8540438,19.1958411],[72.8541049,19.1958947],[72.8540043,19.1964027],[72.8539957,19.1964755],[72.85394,19.1969453],[72.8539468,19.19698],[72.8539478,19.1969849],[72.8538594,19.1976993],[72.8538461,19.1977997],[72.8538041,19.1981168],[72.8538029,19.1981263],[72.8537426,19.1985816],[72.8537329,19.1986549],[72.8537119,19.1988141],[72.8537092,19.1988229],[72.8536981,19.1988591],[72.8536816,19.1988945],[72.8536798,19.1988985],[72.8536797,19.1988987],[72.8536678,19.1988981],[72.8536537,19.1988975],[72.8535287,19.1988914],[72.8534357,19.1988868],[72.8530629,19.1988687],[72.8529252,19.198862],[72.8529065,19.1988611],[72.8528102,19.1988564],[72.8526616,19.1988492],[72.8524889,19.1988408],[72.8524698,19.1988398],[72.8521153,19.1988226],[72.8516284,19.1987989],[72.8515886,19.1987969],[72.8515602,19.1987956],[72.8515601,19.1987958],[72.8515242,19.1988419],[72.8515222,19.1988445],[72.851464,19.1989193],[72.8514505,19.19892],[72.8514004,19.1989225],[72.8513857,19.1989233],[72.8513363,19.1989258],[72.8512711,19.1989276],[72.8511602,19.1989305],[72.8511236,19.198782],[72.8510685,19.1985456],[72.8510229,19.1983446],[72.8509973,19.1982318],[72.8509739,19.1980911],[72.8509413,19.1978956],[72.850939,19.1978817],[72.8509079,19.1976944],[72.8508574,19.1973911],[72.8508209,19.1969644],[72.8507653,19.1963904],[72.8507372,19.1960103],[72.8507093,19.1956038],[72.8506835,19.1954117],[72.8506635,19.1953238],[72.8506274,19.195166],[72.8505937,19.1950186],[72.8505897,19.1950011],[72.8505601,19.1948714],[72.8505598,19.1948702],[72.8505598,19.1948701],[72.8505598,19.19487],[72.8505502,19.1948234],[72.8505364,19.1948255],[72.8504992,19.1948312],[72.8502542,19.1948526],[72.8502542,19.1948527],[72.8499394,19.1948814],[72.8495202,19.1949104],[72.8494635,19.1948806],[72.849075,19.194895],[72.8488237,19.1949125],[72.8483231,19.1949107],[72.8480454,19.1948866],[72.8478706,19.1948871],[72.8475272,19.1949188],[72.8473055,19.1949611],[72.8472048,19.1949764],[72.8471566,19.1949832],[72.8471922,19.1953496],[72.847083,19.1953743],[72.8469465,19.1954082],[72.8467271,19.1954632],[72.8465862,19.1954853],[72.8464323,19.1954883],[72.8462697,19.195476],[72.8459994,19.1954495],[72.8457445,19.1954268],[72.845411,19.1953994],[72.8452347,19.1953788],[72.8452191,19.1955109],[72.8451783,19.1958379],[72.8451467,19.196098],[72.8451158,19.1963128],[72.8450975,19.1964405],[72.844745,19.1964037],[72.8445055,19.1963793],[72.8444951,19.196398],[72.8444213,19.1965195],[72.8444139,19.1965316],[72.8443139,19.1966965],[72.8443022,19.1967168],[72.8441468,19.1969863],[72.8441268,19.1970217],[72.8439276,19.1972706],[72.8438861,19.1973234],[72.8437505,19.1975398],[72.8437451,19.1975482],[72.8436238,19.1976695],[72.8435892,19.197704],[72.8435215,19.1978245],[72.8434857,19.1979328],[72.8434737,19.1980174],[72.8434498,19.1980833],[72.8433806,19.1982182],[72.8433656,19.1982516],[72.8433473,19.1982937],[72.8433241,19.1983258],[72.8432625,19.1984559],[72.8431688,19.1986348],[72.843105,19.198723],[72.8429861,19.1988781],[72.8428865,19.1990122],[72.8425931,19.199394],[72.8424077,19.19947],[72.8421629,19.199552],[72.8419097,19.1996135],[72.8417416,19.1996292],[72.8416153,19.1996485],[72.8412684,19.1997037],[72.8411639,19.1998096],[72.8410112,19.199926],[72.8409896,19.1999425],[72.8409619,19.1999551],[72.8409617,19.1999551],[72.8409593,19.1999566],[72.8409115,19.1999853],[72.8408988,19.1999928],[72.8408867,19.2000017],[72.8408083,19.200059],[72.840725,19.2001232],[72.8407114,19.2001301],[72.8407045,19.2001336],[72.8406863,19.2001429],[72.8405965,19.2001885],[72.8405605,19.2002068],[72.8404947,19.2002085],[72.8404461,19.2002097],[72.8404272,19.2002124],[72.8401233,19.2002802],[72.8401153,19.2002828],[72.8400374,19.200308],[72.8400185,19.2003148],[72.8399239,19.2003491],[72.8399105,19.2003539],[72.8398863,19.2003661],[72.8398699,19.2003743],[72.8397573,19.200427],[72.8395144,19.2004077],[72.8393874,19.2003927],[72.8393688,19.2003908],[72.8393577,19.2003939],[72.8392705,19.2004063],[72.8392462,19.200412],[72.8391854,19.2004299],[72.8391664,19.2004366],[72.8391369,19.2004451],[72.8391203,19.2004506],[72.8390524,19.2004727],[72.8390367,19.2004774],[72.8390003,19.2004892],[72.8389855,19.200493],[72.8388591,19.2004974],[72.8387374,19.2005016],[72.8387076,19.2005026],[72.8386642,19.2005069],[72.8384481,19.2005281],[72.838196,19.2005883],[72.8380925,19.2006643],[72.8380256,19.2006708],[72.8379785,19.2006754],[72.8379099,19.200682],[72.8377295,19.2006569],[72.8376129,19.2006407],[72.8374535,19.2006512],[72.8373915,19.2006553],[72.8373105,19.2006606],[72.8370179,19.2006709],[72.8369899,19.2006719],[72.8369845,19.2006783],[72.8369542,19.2006835],[72.8369248,19.2006885],[72.8368521,19.2007008],[72.8368183,19.2007065],[72.8367831,19.2007125],[72.8367671,19.2007152],[72.8366888,19.2007285],[72.8365164,19.2007578],[72.8364737,19.200765],[72.8363553,19.2007852],[72.8363551,19.2007852],[72.8360925,19.2009439],[72.8360759,19.2009539],[72.8359317,19.2009966],[72.835699,19.2009343],[72.8356014,19.2009082],[72.8353976,19.2007656],[72.8352285,19.2006473],[72.8350862,19.2005478],[72.8349272,19.2004704],[72.8347981,19.2004056],[72.8345009,19.2002566],[72.8342289,19.2001191],[72.834111,19.2000932],[72.8340849,19.2000874],[72.8339245,19.2000519],[72.8339193,19.1997052],[72.8337509,19.1996211],[72.8337237,19.1996072],[72.8333392,19.1994103],[72.8332217,19.19935],[72.8329456,19.1992087],[72.8328805,19.1991753],[72.832839,19.1994227],[72.831892,19.1991932],[72.8317828,19.1990489],[72.8316892,19.1989252],[72.8316919,19.1989127],[72.8317595,19.1986024],[72.8318105,19.1983678],[72.8318578,19.1982208],[72.8318023,19.1981439],[72.8317249,19.1980296],[72.8316162,19.1978962],[72.8314312,19.1976224],[72.8314116,19.1975928],[72.8311818,19.1972461],[72.8311431,19.1971858],[72.831142,19.1971816],[72.8310595,19.1970441],[72.8309948,19.1969365],[72.8307848,19.1965867],[72.8306506,19.1962639],[72.8301681,19.1967213],[72.8297741,19.1971002],[72.8297256,19.1971437],[72.8293666,19.197466],[72.8291077,19.1977046],[72.8292139,19.1981112],[72.8292272,19.1981623],[72.8292617,19.198289],[72.8294422,19.1989518],[72.8294133,19.1991074],[72.8294121,19.1991136],[72.8294073,19.1991384],[72.8293876,19.1992402],[72.8293868,19.1992447],[72.829386,19.1992488],[72.8293855,19.1992514],[72.8293473,19.1992582],[72.8290377,19.1993127],[72.8290192,19.199316],[72.828995,19.1993203],[72.8288835,19.1993998],[72.828693,19.1995358],[72.8286718,19.199551],[72.8285745,19.1996203],[72.8285489,19.1996784],[72.828524,19.1997348],[72.8285211,19.1997414],[72.8285132,19.1997591],[72.8284729,19.1998503],[72.8284675,19.1998626],[72.8284674,19.1998628],[72.8284554,19.1998902],[72.8284293,19.1999493],[72.8283929,19.2000318],[72.8283738,19.2000515],[72.8283737,19.2000516],[72.8283523,19.2000737],[72.828294,19.2001341],[72.8282143,19.2002166],[72.8281579,19.2002751],[72.8280175,19.2004261],[72.8280071,19.2004338],[72.8280027,19.200437],[72.8280025,19.2004372],[72.8279862,19.2004538],[72.8279654,19.200475],[72.8278443,19.2005985],[72.8278423,19.2006005],[72.8277849,19.2006731],[72.8277729,19.2006846],[72.8277603,19.2006967],[72.8277598,19.2006973],[72.8277823,19.20072],[72.8278407,19.2007791],[72.8278717,19.2008109],[72.8279611,19.2009027],[72.8279602,19.2009038],[72.8278818,19.2010052],[72.8278577,19.2010362],[72.8274263,19.2015935],[72.827426,19.2015939],[72.8273962,19.2016133],[72.8267243,19.2020498],[72.8261773,19.2024052],[72.8259797,19.2025336],[72.8253762,19.2029339],[72.8251925,19.2030558],[72.8245918,19.2034542],[72.8240603,19.2038103],[72.8239724,19.2038633],[72.8238178,19.2039728],[72.8230136,19.2045115],[72.8230135,19.2045116],[72.8230053,19.2045333],[72.8229111,19.2047812],[72.822889,19.2048396],[72.8228337,19.2049853],[72.8221305,19.2049027],[72.8218297,19.2048673],[72.8216003,19.2048441],[72.8215933,19.2048425],[72.82142,19.2048286],[72.8214166,19.2048284],[72.8212466,19.204812],[72.8209132,19.2047798],[72.8207459,19.2047636],[72.8207278,19.2047619],[72.8205286,19.2047427],[72.8203937,19.2047329],[72.8202333,19.2047198],[72.8202091,19.2047159],[72.8201045,19.2046992],[72.8198735,19.2046748],[72.8191208,19.2046041],[72.819104,19.2046024],[72.8190814,19.2046002],[72.8190485,19.2045967],[72.8190231,19.204594],[72.8190154,19.2045932],[72.8189353,19.2045847],[72.8188633,19.2045775],[72.8188082,19.2045719],[72.8186842,19.2045595],[72.818625,19.2045542],[72.8186084,19.2045528],[72.8185353,19.2045462],[72.8184212,19.2045361],[72.8183714,19.2045276],[72.8183675,19.2045269],[72.8183603,19.2045257],[72.8183368,19.2045217],[72.8183364,19.2045217],[72.8181259,19.2044959],[72.8173411,19.2044427],[72.8172851,19.2044374],[72.8172787,19.2044368],[72.817229,19.2044322],[72.8166324,19.204376],[72.8166317,19.2043759],[72.8165305,19.2043895],[72.8165283,19.2043897],[72.8164377,19.2043978],[72.8164257,19.2043988],[72.816362,19.204403],[72.8163546,19.2044035],[72.8163337,19.2044048],[72.8162948,19.2044073],[72.8162661,19.2044092],[72.8162646,19.2044093],[72.8162638,19.2044093],[72.8160155,19.204429],[72.8159872,19.2044312],[72.8159859,19.2044313],[72.8150443,19.2046392],[72.8147953,19.204694],[72.814695,19.204716],[72.8145268,19.2047531],[72.8143244,19.2047976],[72.8126471,19.2056471],[72.8123739,19.2057748],[72.8121041,19.2058964],[72.811802,19.2060325],[72.8117316,19.2060642],[72.81155,19.2061622],[72.8114061,19.2062398],[72.8109207,19.2065018],[72.8110466,19.2073046],[72.8110699,19.2074532],[72.8110206,19.207601],[72.8109046,19.2079483],[72.8110665,19.2082577],[72.811061,19.208256],[72.810391,19.2080587],[72.8103915,19.2080638],[72.8104276,19.2084215],[72.8104334,19.2085241],[72.8104376,19.208597],[72.8101846,19.2086666],[72.810017,19.2087127],[72.8100153,19.2087132],[72.8095988,19.2084079],[72.809597,19.2084066],[72.8094699,19.2085484],[72.8094627,19.2085564],[72.8094613,19.208558],[72.8094083,19.208617],[72.8094066,19.2086189],[72.8093834,19.2086496],[72.8091573,19.2089484],[72.8085963,19.2096935],[72.8086634,19.2099285],[72.808678,19.2099798],[72.8087206,19.2101291],[72.8089032,19.210769],[72.8088838,19.2107898],[72.8088759,19.2107982],[72.8088313,19.2108459],[72.8087031,19.2109831],[72.8085789,19.2111159],[72.8083562,19.2113541],[72.8083219,19.2114003],[72.8082801,19.2114567],[72.8082033,19.2115603],[72.8080557,19.2117593],[72.807922,19.2119395],[72.8079197,19.2119427],[72.8079196,19.2119426],[72.807918,19.2119405],[72.8062056,19.2123729],[72.806158,19.2123959],[72.8061185,19.212415],[72.8055416,19.2126934],[72.8042385,19.2130474],[72.8033859,19.2135014],[72.8036061,19.2141438]]]]}}]}