{"type":"FeatureCollection","features":[{"type":"Feature","properties":{"ward": "S"},"geometry":{"type":"MultiPolygon","coordinates":[[[[72.884894,19.1286801],[72.8864084,19.1291784],[72.8874248,19.1284815],[72.8878254,19.1281667],[72.8881479,19.1279133],[72.8892752,19.127067],[72.8899263,19.1265845],[72.8903519,19.1263185],[72.8904694,19.1262485],[72.8912727,19.1258194],[72.8918674,19.1254963],[72.8920759,19.1253929],[72.892214,19.1253329],[72.8923546,19.1252754],[72.8924744,19.1252251],[72.8930778,19.1250276],[72.8949323,19.1247069],[72.8951139,19.1246786],[72.895731,19.1245488],[72.8957323,19.12452],[72.8957378,19.1243708],[72.8957645,19.1236417],[72.8957698,19.1234986],[72.8957947,19.1229559],[72.8958227,19.1223453],[72.8958227,19.1223423],[72.8958287,19.1222452],[72.895865,19.1216553],[72.8958759,19.1214684],[72.8959324,19.121366],[72.8959551,19.121325],[72.8960105,19.1212314],[72.8960241,19.1211686],[72.8960736,19.1210065],[72.8960874,19.1209608],[72.8963363,19.1208759],[72.8966173,19.1207799],[72.896959,19.1207078],[72.8971392,19.1206299],[72.8972642,19.1205759],[72.8976996,19.1203922],[72.8978559,19.1203262],[72.8980416,19.1202402],[72.8981945,19.1201694],[72.8983395,19.1201015],[72.8986624,19.1199236],[72.8987017,19.1199041],[72.8987277,19.1198911],[72.8989394,19.1197785],[72.899079,19.1197088],[72.8992141,19.1196355],[72.8994185,19.1195334],[72.8995641,19.11946],[72.8996311,19.1194269],[72.899659,19.1194131],[72.8997489,19.1193686],[72.8997872,19.1193513],[72.8999259,19.1192939],[72.9000646,19.1192323],[72.9002087,19.1191734],[72.9006779,19.1189593],[72.9007084,19.1189433],[72.9008595,19.1188644],[72.9009563,19.1188138],[72.9014384,19.1185718],[72.9016066,19.118484],[72.9017618,19.1184029],[72.902078,19.1182326],[72.9021854,19.1181695],[72.9023627,19.1180572],[72.9027217,19.1178267],[72.9027555,19.1178058],[72.9028372,19.1177554],[72.9029309,19.1176942],[72.9031669,19.1175528],[72.9032659,19.1175021],[72.9032723,19.1174261],[72.9032762,19.1173566],[72.9032806,19.1172641],[72.9032798,19.1172577],[72.9032786,19.1172324],[72.9032752,19.1172023],[72.9032728,19.1171796],[72.9032852,19.1171782],[72.9033176,19.1169102],[72.9033571,19.1168613],[72.9033777,19.1168312],[72.9034061,19.11679],[72.9034501,19.1167285],[72.9034897,19.1166764],[72.9035587,19.1165858],[72.9038603,19.1161857],[72.9038933,19.1161362],[72.9040686,19.1158919],[72.9040907,19.1158587],[72.9040963,19.1158533],[72.9041359,19.115798],[72.9041897,19.115719],[72.9043097,19.1155427],[72.9044868,19.1152717],[72.9044081,19.1149125],[72.9043365,19.1143369],[72.904316,19.1141002],[72.9044236,19.1131614],[72.9044739,19.1127077],[72.9045172,19.1123176],[72.9045483,19.111985],[72.9049343,19.1118419],[72.9062835,19.111354],[72.9064319,19.1112216],[72.9067138,19.1109586],[72.9069005,19.1105408],[72.9070084,19.1103039],[72.9072764,19.1099066],[72.9076283,19.1093933],[72.9077542,19.1091142],[72.90801,19.1081368],[72.9083549,19.1084087],[72.9090458,19.1082984],[72.9097807,19.1086312],[72.9099621,19.1087194],[72.9101199,19.1087941],[72.9103942,19.1089359],[72.9107209,19.1091038],[72.9109517,19.1092292],[72.9111234,19.109315],[72.9111862,19.1093459],[72.9112912,19.1093974],[72.9114342,19.1094803],[72.9115644,19.1095472],[72.9116919,19.1096098],[72.9116965,19.1096121],[72.9118844,19.109739],[72.9120977,19.109883],[72.9122133,19.1099597],[72.9128676,19.1103834],[72.9133025,19.1106526],[72.9134158,19.1107898],[72.9136892,19.11114],[72.9138785,19.1113732],[72.9140893,19.1118121],[72.9145427,19.1132473],[72.914675,19.1136093],[72.9150726,19.1146741],[72.9151455,19.1149242],[72.9152124,19.1151554],[72.9153827,19.1152093],[72.9155689,19.1152595],[72.9156721,19.1152899],[72.9158629,19.1153507],[72.9160294,19.1153987],[72.916103,19.1154199],[72.9161941,19.1154461],[72.9162918,19.1154812],[72.9163548,19.1155005],[72.9165974,19.1156878],[72.9167269,19.115811],[72.9168878,19.1159598],[72.9170961,19.116156],[72.9173742,19.116422],[72.9176433,19.1166344],[72.9180252,19.1168732],[72.9180989,19.1169193],[72.9183035,19.1170473],[72.9182826,19.1166507],[72.9183003,19.1163774],[72.9183143,19.1161173],[72.9183334,19.1159458],[72.9183398,19.1158884],[72.9183719,19.1156041],[72.9183977,19.1153545],[72.9183981,19.115351],[72.9183687,19.1151474],[72.9183165,19.1147916],[72.9182954,19.1146601],[72.9182704,19.1145039],[72.9182821,19.1142108],[72.9182909,19.114038],[72.9183005,19.1137847],[72.9183079,19.1136038],[72.9183121,19.1135363],[72.918336,19.1133358],[72.9183374,19.1133247],[72.9183489,19.1132528],[72.9183514,19.1130184],[72.9183578,19.1127423],[72.9183584,19.1126355],[72.9183716,19.1123331],[72.9183734,19.1122834],[72.9183734,19.1122826],[72.9183829,19.1122483],[72.9184053,19.1120504],[72.9184222,19.1119014],[72.9184308,19.1118259],[72.9184526,19.1116414],[72.9184601,19.111561],[72.9184675,19.111346],[72.9184755,19.1110699],[72.9184767,19.1109948],[72.9184593,19.110812],[72.9181943,19.1107377],[72.9179189,19.110661],[72.9176207,19.1105779],[72.9175144,19.1104481],[72.917392,19.1102483],[72.9172849,19.1100736],[72.9171565,19.1098645],[72.91692,19.1094772],[72.9167769,19.1092422],[72.916699,19.1091103],[72.9165916,19.1089268],[72.916524,19.1089582],[72.9163956,19.1089658],[72.9163019,19.1089713],[72.9161024,19.1086407],[72.9159028,19.1083096],[72.9156813,19.1079575],[72.9155998,19.1078281],[72.9155725,19.1077846],[72.9155701,19.1077807],[72.9155532,19.107743],[72.9155383,19.1077038],[72.915524,19.1076572],[72.9155132,19.1076114],[72.9155049,19.10756],[72.9155005,19.1075084],[72.9154998,19.1074617],[72.9155036,19.1074003],[72.9155093,19.107359],[72.9155187,19.1073126],[72.9155297,19.1072718],[72.9155449,19.1072245],[72.915545,19.1072245],[72.9156412,19.1069614],[72.9156636,19.1069174],[72.9156901,19.1068644],[72.9157308,19.1067896],[72.9157732,19.1067209],[72.9158267,19.1066366],[72.9158883,19.1065522],[72.9159517,19.1064754],[72.9160058,19.1064204],[72.9160687,19.1063539],[72.9160956,19.1063283],[72.9161014,19.1063138],[72.915912,19.1050287],[72.9160002,19.1050208],[72.9161482,19.1049888],[72.9165573,19.1048612],[72.9167451,19.1047253],[72.9170581,19.1044864],[72.917168,19.1043891],[72.9176017,19.1040739],[72.9187398,19.1032696],[72.9199467,19.1024244],[72.9205016,19.1031463],[72.9212412,19.1042139],[72.9215371,19.1046336],[72.9223947,19.105739],[72.923217,19.1069361],[72.92378,19.1077721],[72.9244132,19.108812],[72.9244418,19.1088628],[72.9245922,19.1091103],[72.9245947,19.1091146],[72.9251168,19.1100059],[72.9253172,19.1103626],[72.9254555,19.1106599],[72.9254978,19.1107522],[72.9261155,19.1109077],[72.9266525,19.1110394],[72.9267665,19.1110671],[72.9268005,19.1109371],[72.9268152,19.110881],[72.9268368,19.1108421],[72.9268603,19.1108243],[72.926889,19.1108066],[72.9269155,19.1107988],[72.9269589,19.1107943],[72.9271043,19.1108076],[72.9271846,19.1107809],[72.9272997,19.1107491],[72.9277251,19.1106356],[72.9280331,19.1105725],[72.9282204,19.1105458],[72.9282222,19.1105575],[72.9282336,19.1106298],[72.928418,19.1105577],[72.9284713,19.1105368],[72.9285251,19.1105158],[72.9285426,19.1105095],[72.928545,19.1105086],[72.9285468,19.110508],[72.9285699,19.110499],[72.9286585,19.1104645],[72.9286751,19.1104575],[72.9286912,19.1104508],[72.9287458,19.1104279],[72.9287485,19.1104268],[72.9297676,19.1100481],[72.9298389,19.1100216],[72.9305047,19.1097743],[72.931133,19.1095364],[72.9313121,19.1094685],[72.9329597,19.1088469],[72.9331034,19.1088059],[72.9331378,19.1088044],[72.9331721,19.1088077],[72.9332055,19.1088158],[72.9332373,19.1088284],[72.933269,19.1088467],[72.9332972,19.1088696],[72.9333213,19.1088964],[72.934021,19.1106551],[72.93407,19.1107757],[72.9346173,19.1108665],[72.9358429,19.112412],[72.9358562,19.11243],[72.9358989,19.1124877],[72.9359317,19.1125321],[72.9361508,19.1128284],[72.9363387,19.1130826],[72.9364564,19.1131389],[72.9365719,19.113177],[72.9370079,19.1133356],[72.937185,19.1133689],[72.9373919,19.1134188],[72.9375033,19.1134391],[72.9379092,19.1135167],[72.9381719,19.1135558],[72.9385932,19.1136441],[72.9386947,19.1136575],[72.9390874,19.1137298],[72.9393829,19.1137908],[72.9395627,19.1138202],[72.9400673,19.1138939],[72.9405327,19.1139501],[72.941031,19.1140553],[72.9412824,19.114109],[72.9418039,19.1143174],[72.9422484,19.114499],[72.9429259,19.1147585],[72.9615829,19.0990121],[72.9616473,19.099448],[72.962029,19.1013064],[72.9625869,19.1034455],[72.962957,19.1050473],[72.9633433,19.1061067],[72.9633808,19.1062132],[72.9636437,19.1071306],[72.9638748,19.10777],[72.9644537,19.1091531],[72.9644991,19.1092582],[72.9645073,19.1094369],[72.9649043,19.110177],[72.9651681,19.110723],[72.9655266,19.1113884],[72.9656117,19.111562],[72.9657876,19.1118975],[72.9658163,19.1119815],[72.9667658,19.1135224],[72.967726,19.1155853],[72.9686701,19.1177547],[72.96959,19.1201298],[72.9691744,19.1201926],[72.9689463,19.1201177],[72.9685904,19.1200399],[72.9682049,19.1201009],[72.9680354,19.120087],[72.9676226,19.1202402],[72.9674384,19.1204073],[72.9676595,19.1203028],[72.968087,19.1201566],[72.9685897,19.1201267],[72.969346,19.1203345],[72.9696472,19.1203628],[72.9700059,19.1219159],[72.9700595,19.1224278],[72.9699222,19.1244797],[72.9697148,19.1262942],[72.9681981,19.1285149],[72.9663527,19.1311402],[72.9613111,19.1345277],[72.9601076,19.1354394],[72.9596882,19.1357963],[72.9593867,19.1361347],[72.958895,19.1367537],[72.9583182,19.1375426],[72.9579796,19.1380844],[72.9576495,19.1384948],[72.9572648,19.1388455],[72.956892,19.139354],[72.956842,19.1394784],[72.9567837,19.1397209],[72.9567001,19.1402985],[72.9566541,19.1410636],[72.9566601,19.1416074],[72.9566618,19.1417572],[72.9567269,19.1420865],[72.9568121,19.1424753],[72.9570124,19.1430559],[72.9571613,19.1433205],[72.957311,19.1435194],[72.9580405,19.1443754],[72.9582249,19.144568],[72.9583892,19.1447013],[72.9586911,19.1448953],[72.9599821,19.1456469],[72.9609623,19.1460851],[72.9613461,19.1462896],[72.9614224,19.1463531],[72.961494,19.1464215],[72.9615603,19.1464945],[72.9616211,19.1465716],[72.9616762,19.1466527],[72.9617251,19.1467371],[72.9617678,19.1468247],[72.9618039,19.1469148],[72.9618334,19.1470071],[72.961856,19.1471011],[72.9618716,19.1471964],[72.9618586,19.1472847],[72.9618395,19.147372],[72.9618142,19.1474579],[72.961783,19.147542],[72.961746,19.147624],[72.961606,19.1479943],[72.9615692,19.1481369],[72.9615369,19.1483129],[72.9615257,19.1484081],[72.9615041,19.1485318],[72.961468,19.1486125],[72.9614474,19.1486599],[72.9613862,19.1487355],[72.9611688,19.1488761],[72.9602204,19.1493137],[72.9599627,19.1494681],[72.9589474,19.1499569],[72.9588297,19.1499907],[72.9582782,19.1501641],[72.9577711,19.1502494],[72.9572297,19.1502196],[72.9570895,19.1501989],[72.9568842,19.150168],[72.9567089,19.150147],[72.9565784,19.1501503],[72.9564578,19.1501728],[72.9562413,19.1502372],[72.955959,19.1503484],[72.9557265,19.1504936],[72.955534,19.1506488],[72.955412,19.1507762],[72.9552804,19.1508748],[72.9546813,19.1512984],[72.9556317,19.1527483],[72.9569538,19.1546706],[72.9544445,19.1552479],[72.9521096,19.155795],[72.9500426,19.1562886],[72.949291,19.1564613],[72.9490904,19.1565052],[72.9476741,19.1568384],[72.9473964,19.1569156],[72.9473132,19.1569485],[72.9472328,19.1569872],[72.9471556,19.1570314],[72.947082,19.1570808],[72.9470125,19.1571353],[72.9469523,19.1571897],[72.9468962,19.1572479],[72.9468443,19.1573096],[72.946797,19.1573745],[72.9467499,19.1574575],[72.9467095,19.1575437],[72.9466761,19.1576325],[72.9466498,19.1577234],[72.9466308,19.157816],[72.9466192,19.1579097],[72.9466151,19.1580039],[72.9466184,19.1580982],[72.9466292,19.158192],[72.9469507,19.1593631],[72.9469673,19.1594545],[72.9469771,19.1595468],[72.9469802,19.1596395],[72.9469764,19.1597322],[72.9469659,19.1598244],[72.9469486,19.1599157],[72.9469246,19.1600056],[72.9468941,19.1600937],[72.9468572,19.1601796],[72.9468141,19.1602629],[72.9467587,19.1603345],[72.9466986,19.1604027],[72.9466342,19.1604672],[72.9465656,19.1605278],[72.9464932,19.1605841],[72.9464173,19.160636],[72.946338,19.1606834],[72.9462558,19.1607259],[72.9449014,19.1613885],[72.944235,19.1617125],[72.9440202,19.161807],[72.9439119,19.1618542],[72.9438291,19.1618905],[72.9424842,19.1624173],[72.94123,19.162893],[72.9397042,19.1634625],[72.939279,19.1636216],[72.9391223,19.1636645],[72.9389638,19.1637009],[72.9388038,19.1637309],[72.9386427,19.1637543],[72.9384806,19.1637711],[72.9383178,19.1637813],[72.9375699,19.1638256],[72.9374833,19.1638245],[72.937397,19.1638295],[72.9373112,19.1638403],[72.9372264,19.163857],[72.9371432,19.1638795],[72.9370619,19.1639076],[72.9369829,19.1639412],[72.935308,19.1648687],[72.9343792,19.1653619],[72.9340019,19.1655579],[72.9335213,19.1658602],[72.9320048,19.1668864],[72.9316341,19.1671004],[72.9315871,19.1671231],[72.9314993,19.1671491],[72.9314197,19.1671714],[72.9313402,19.1671898],[72.9312872,19.1671989],[72.9312282,19.167206],[72.9311773,19.1672112],[72.9309814,19.1672211],[72.9306277,19.167114],[72.9303011,19.1669872],[72.9300937,19.166904],[72.930048,19.1668821],[72.9299605,19.1668337],[72.9298218,19.1667373],[72.9296326,19.1666003],[72.9296006,19.1665776],[72.9295734,19.1665652],[72.9295441,19.1665565],[72.9294949,19.1665541],[72.9286971,19.166515],[72.928708,19.1664642],[72.9287188,19.1664104],[72.9287264,19.1663726],[72.9287299,19.1663555],[72.9287305,19.1663509],[72.9287309,19.1663489],[72.9287344,19.1663204],[72.9287344,19.16632],[72.9287553,19.1661558],[72.9287645,19.1660754],[72.9287731,19.1659996],[72.9287732,19.1659995],[72.9287732,19.1659991],[72.9287732,19.165999],[72.9287744,19.1659884],[72.928828,19.1655583],[72.928884,19.1654734],[72.9290182,19.1652698],[72.9287268,19.1653138],[72.9286498,19.1653258],[72.928692,19.1652229],[72.9287117,19.1651789],[72.9287568,19.165078],[72.9288595,19.1648304],[72.9288638,19.164731],[72.9288757,19.1644251],[72.9288781,19.164212],[72.9288408,19.1639669],[72.9288291,19.1638897],[72.9288191,19.1638564],[72.9288049,19.1638092],[72.9287344,19.1635522],[72.9286618,19.1632646],[72.928657,19.1632455],[72.9286569,19.1632288],[72.9286569,19.163224],[72.9286634,19.1632117],[72.9286698,19.1631994],[72.928737,19.1631243],[72.9289811,19.162834],[72.9288836,19.16221],[72.9288618,19.1620705],[72.928749,19.1613489],[72.9286963,19.1610419],[72.9286796,19.1609449],[72.9286596,19.1608284],[72.9286367,19.160695],[72.9286037,19.1604818],[72.9286314,19.160213],[72.9286306,19.1602005],[72.9286073,19.1600652],[72.9285853,19.1599377],[72.9285532,19.1597415],[72.9285267,19.1595794],[72.9285182,19.1595133],[72.9285099,19.1594687],[72.9285031,19.159396],[72.9284927,19.1592643],[72.9284941,19.1588307],[72.9285027,19.1587775],[72.9285294,19.1586531],[72.9285533,19.158542],[72.928561,19.1585071],[72.9285887,19.1582788],[72.9286088,19.1581644],[72.9286104,19.1581551],[72.9286383,19.1580763],[72.9286866,19.1578654],[72.928664,19.157701],[72.9286249,19.1574284],[72.9285629,19.1573368],[72.9284777,19.1572109],[72.9284573,19.1571807],[72.9284118,19.1571192],[72.928355,19.1570404],[72.9282997,19.1569458],[72.9282292,19.1568241],[72.9281949,19.1567588],[72.9281897,19.1567038],[72.9281829,19.1566318],[72.9281367,19.1565107],[72.9280917,19.1563996],[72.9280578,19.1563053],[72.9280341,19.1562385],[72.9279259,19.1561388],[72.9277792,19.1560013],[72.9276465,19.1558815],[72.9275551,19.155798],[72.9275033,19.1557509],[72.9274389,19.1556925],[72.9273723,19.1556301],[72.927288,19.1555483],[72.9272383,19.1555039],[72.927207,19.1554587],[72.9272046,19.1554557],[72.9271917,19.1553944],[72.9272278,19.1552768],[72.9272723,19.1551578],[72.9272818,19.1551304],[72.9273127,19.155032],[72.9273508,19.1549131],[72.9273614,19.1548443],[72.9273968,19.1546145],[72.9274301,19.1544461],[72.9274635,19.1541402],[72.9274413,19.1539192],[72.9273394,19.1537758],[72.9272358,19.1536578],[72.9269546,19.1533353],[72.9267234,19.153065],[72.9266751,19.1530667],[72.9265869,19.1530698],[72.9262225,19.1531386],[72.9260185,19.1531099],[72.9258159,19.1529772],[72.925759,19.1529444],[72.92549,19.1527635],[72.9254329,19.1526818],[72.9251074,19.1520157],[72.9247845,19.1520382],[72.9245227,19.1516326],[72.9242587,19.151245],[72.9241572,19.1510649],[72.9241278,19.1509945],[72.9240923,19.1509349],[72.9240548,19.1508522],[72.924038,19.150708],[72.924028,19.150494],[72.9240295,19.1499937],[72.9240327,19.1499354],[72.9240463,19.1495315],[72.9239335,19.1493415],[72.9238273,19.1491534],[72.9238109,19.1490514],[72.9237111,19.1487504],[72.9236792,19.1486776],[72.9236791,19.1486775],[72.9236783,19.1486755],[72.9236099,19.1483339],[72.9235497,19.148147],[72.9234383,19.1477258],[72.9233975,19.1475943],[72.9233389,19.1473364],[72.9232454,19.1470526],[72.9231621,19.1468784],[72.9231098,19.1467273],[72.9229651,19.1462978],[72.922755,19.146027],[72.9226134,19.1457522],[72.9223786,19.1455317],[72.9221558,19.1453082],[72.9216426,19.144613],[72.9208603,19.1440699],[72.9206669,19.1440631],[72.9196391,19.1425966],[72.9191923,19.1419544],[72.9188743,19.1415068],[72.9184463,19.1408699],[72.9181294,19.1414049],[72.9177194,19.1414098],[72.9176846,19.1414102],[72.9171247,19.1413403],[72.9168074,19.1413337],[72.9162581,19.1413092],[72.9159247,19.1414078],[72.9156198,19.141498],[72.9155913,19.1415064],[72.9155468,19.1415196],[72.9152902,19.1415919],[72.91525,19.1416032],[72.9151463,19.141631],[72.9145429,19.1417112],[72.9143668,19.1417367],[72.9142765,19.1417495],[72.9139208,19.1417947],[72.9135352,19.1412714],[72.9130853,19.141202],[72.9128756,19.1411686],[72.9128131,19.1408664],[72.9127655,19.1406388],[72.9127223,19.1404485],[72.9123865,19.1403741],[72.9122238,19.1403405],[72.9118345,19.1402444],[72.9116866,19.1402909],[72.9113536,19.1403958],[72.9107316,19.1405939],[72.9103264,19.1402577],[72.9101437,19.1401154],[72.9100302,19.1400265],[72.9099884,19.1400118],[72.9099414,19.1400041],[72.9098527,19.1399783],[72.9097274,19.1399446],[72.9095061,19.1398879],[72.909203,19.1398068],[72.9088297,19.1397062],[72.9086891,19.139672],[72.9084772,19.1396154],[72.9082733,19.1395586],[72.9081748,19.1395315],[72.908114,19.1395199],[72.9079439,19.1394733],[72.9076454,19.1393953],[72.9073623,19.1393252],[72.9070825,19.1400482],[72.9069603,19.1402608],[72.9066283,19.1403047],[72.9065427,19.1401848],[72.9064488,19.1400501],[72.9064381,19.1399501],[72.9062005,19.139726],[72.906162,19.139676],[72.9059606,19.1397648],[72.9055368,19.1399704],[72.9053272,19.1400671],[72.9052616,19.1401076],[72.9049602,19.1402486],[72.9047809,19.1403456],[72.9047789,19.1405711],[72.9048142,19.1409699],[72.9045679,19.1410279],[72.9042759,19.1411031],[72.9037944,19.1412376],[72.9034791,19.1412429],[72.903479,19.1412429],[72.9030995,19.1412484],[72.9030994,19.1412484],[72.9030717,19.1412488],[72.9026268,19.1412578],[72.9020738,19.1412631],[72.9020737,19.1412631],[72.9019828,19.1412641],[72.9020247,19.1408416],[72.9019575,19.1405275],[72.9017801,19.140473],[72.9015983,19.1404136],[72.9011782,19.1406429],[72.9010527,19.1404203],[72.9008552,19.1400784],[72.900627,19.1397072],[72.9001994,19.1398109],[72.8997847,19.1393498],[72.8995583,19.1398946],[72.8994736,19.1401599],[72.8993247,19.1404041],[72.899289,19.1404656],[72.8992596,19.1405161],[72.8992036,19.1406126],[72.899156,19.1406918],[72.8991417,19.1407158],[72.8991295,19.1407382],[72.8991184,19.1407555],[72.899063,19.1408416],[72.8990545,19.1408523],[72.8990341,19.1408769],[72.8990096,19.1408946],[72.8989706,19.140919],[72.898926,19.1409468],[72.8986497,19.1410394],[72.8986344,19.1410446],[72.897239,19.1415231],[72.8969828,19.1416165],[72.8967902,19.1416947],[72.8966415,19.1417664],[72.8963677,19.1418878],[72.8962223,19.1419628],[72.8960904,19.1420252],[72.896007,19.1420934],[72.8958797,19.1422176],[72.8957014,19.1423934],[72.895638,19.1424607],[72.8955011,19.1425774],[72.8954006,19.1426337],[72.895194,19.1426223],[72.8946304,19.1426115],[72.8944856,19.1426105],[72.8944231,19.1420903],[72.8941399,19.1420044],[72.8934584,19.1420903],[72.893327,19.1421069],[72.8934722,19.1416959],[72.8939093,19.1405664],[72.8940286,19.1403519],[72.8942617,19.1399428],[72.8943475,19.1397919],[72.8944812,19.1394872],[72.8943314,19.1393367],[72.8940448,19.1386213],[72.8940331,19.1385921],[72.8940189,19.1385407],[72.8940142,19.1385239],[72.8940069,19.1384976],[72.8939745,19.1384363],[72.8939651,19.1384184],[72.8938974,19.1382818],[72.8937798,19.1379893],[72.8933503,19.1377169],[72.8931135,19.1375535],[72.89282,19.1373796],[72.8927767,19.1369393],[72.8923027,19.1367337],[72.8922733,19.1367209],[72.8919678,19.1364065],[72.8919066,19.1363708],[72.8918405,19.1363455],[72.8915925,19.1362533],[72.891258,19.1361932],[72.8911196,19.1362621],[72.8909926,19.1361869],[72.8909252,19.136147],[72.8909567,19.1359854],[72.890843,19.1358208],[72.8907156,19.1356402],[72.8906965,19.1356132],[72.8906734,19.1356223],[72.8906033,19.1354482],[72.8905723,19.1353709],[72.8905392,19.1352635],[72.8905171,19.1352214],[72.8904931,19.1351977],[72.8903869,19.1351125],[72.8901379,19.1349035],[72.8900732,19.1348499],[72.8900079,19.1347943],[72.8899894,19.1347781],[72.8899712,19.1347621],[72.889971,19.1347619],[72.8899451,19.1347393],[72.8899204,19.1346998],[72.8898674,19.134595],[72.8898192,19.1345134],[72.8898008,19.1344824],[72.889757,19.1344046],[72.8897173,19.1343346],[72.8895406,19.1340767],[72.8895256,19.1340375],[72.8895047,19.1340304],[72.8895145,19.1337619],[72.8894926,19.1337232],[72.8894627,19.1336701],[72.8894259,19.133605],[72.8893074,19.1332736],[72.8893104,19.1331792],[72.8892582,19.1330444],[72.8892147,19.1329193],[72.8892114,19.1329097],[72.8891663,19.132801],[72.8889012,19.1323765],[72.8887462,19.1323751],[72.8885852,19.1322109],[72.8885894,19.1318402],[72.8885941,19.1314353],[72.8885568,19.1313726],[72.888522,19.1313139],[72.8887144,19.131205],[72.8885853,19.1310849],[72.8884828,19.1309944],[72.8883174,19.1309209],[72.8882286,19.1308811],[72.8880809,19.1308196],[72.8879218,19.1307553],[72.8877941,19.1306121],[72.8876967,19.1304998],[72.8875773,19.1303726],[72.8873853,19.1302947],[72.8872025,19.1302221],[72.8871413,19.1301971],[72.8868858,19.1300756],[72.8868053,19.1299623],[72.8865359,19.1296072],[72.886395,19.1294285],[72.8862666,19.1294294],[72.886199,19.1294298],[72.8861974,19.1294304],[72.8861461,19.1294469],[72.8861057,19.1294608],[72.8861009,19.1294619],[72.8860583,19.1294723],[72.8860066,19.1294837],[72.8859397,19.1294974],[72.8858838,19.1295072],[72.8858228,19.1295178],[72.8857288,19.129532],[72.8856526,19.1295415],[72.8855816,19.1295488],[72.8854767,19.1295572],[72.8853989,19.1295619],[72.8853203,19.1295642],[72.8852391,19.1295649],[72.8851732,19.1295658],[72.8851115,19.1295643],[72.8850507,19.1295611],[72.8849958,19.1295581],[72.8849486,19.1295552],[72.884881,19.1295504],[72.8848236,19.1295441],[72.8847716,19.1295379],[72.8848747,19.1291328],[72.8848933,19.1290824],[72.8849103,19.1289572],[72.8849268,19.1288356],[72.8849458,19.1287665],[72.884894,19.1286801]]]]}}]}