{"type":"FeatureCollection","features":[{"type":"Feature","properties":{"ward": "T"},"geometry":{"type":"MultiPolygon","coordinates":[[[[72.8923431,19.1638819],[72.8923204,19.1639705],[72.8924754,19.1642937],[72.8936133,19.1666655],[72.8947412,19.1690164],[72.8950228,19.1696034],[72.8962673,19.172058],[72.8970485,19.1735987],[72.8970752,19.1736279],[72.8983906,19.1750713],[72.898523,19.1752166],[72.8988899,19.1756192],[72.8993289,19.1760885],[72.8994875,19.1767108],[72.8995717,19.1770529],[72.8995846,19.177114],[72.8996825,19.1774783],[72.8997767,19.1778533],[72.8999247,19.1784978],[72.9002433,19.1798349],[72.9002653,19.1799275],[72.900057,19.1810951],[72.9000176,19.1813019],[72.9000048,19.1825169],[72.8999919,19.1832632],[72.9001882,19.1851018],[72.9001827,19.1856968],[72.9001487,19.1893349],[72.9001524,19.1893563],[72.900153,19.1893597],[72.9001569,19.1893844],[72.9001613,19.1895422],[72.9001738,19.1896245],[72.9001857,19.1897601],[72.9001857,19.1897603],[72.9001935,19.1898526],[72.9001913,19.1900026],[72.900197,19.1901474],[72.9002074,19.1901484],[72.9002177,19.1901491],[72.9002221,19.190215],[72.9002264,19.1902828],[72.9002282,19.1903264],[72.9002302,19.1903827],[72.900239,19.1904437],[72.9002456,19.1904906],[72.9002517,19.1906215],[72.9002553,19.1907036],[72.90026,19.190824],[72.9003047,19.1911311],[72.9003172,19.1913648],[72.9003226,19.1915367],[72.9003398,19.1916232],[72.9003416,19.1916325],[72.9003718,19.1917278],[72.9003913,19.1917954],[72.9004029,19.1918361],[72.9004221,19.1919245],[72.9004365,19.1920407],[72.9004449,19.192076],[72.9004449,19.1920761],[72.9004614,19.1921468],[72.9004905,19.1922693],[72.9005391,19.1924744],[72.900585,19.1926688],[72.9006104,19.1927761],[72.9006397,19.1929004],[72.9006767,19.1930043],[72.9006824,19.1930205],[72.9006953,19.1930969],[72.9009071,19.1940318],[72.9009368,19.194163],[72.9011523,19.1950574],[72.901258,19.1954958],[72.901331,19.1957987],[72.901331,19.1957988],[72.9014686,19.1963699],[72.9014686,19.19637],[72.9021411,19.1970366],[72.9023576,19.1972512],[72.9023582,19.1978469],[72.9023738,19.1984624],[72.9023824,19.1988118],[72.9023904,19.199188],[72.9023904,19.1991881],[72.9023915,19.1992392],[72.9023927,19.1992988],[72.9023967,19.1994902],[72.9023974,19.1995234],[72.9024142,19.1997185],[72.9024144,19.1997347],[72.9024159,19.1998334],[72.9024181,19.1999788],[72.9024192,19.2000458],[72.902426,19.2004907],[72.902426,19.2004908],[72.9024395,19.2013881],[72.9026386,19.2014168],[72.9039099,19.2016004],[72.9044565,19.2016793],[72.9067121,19.202005],[72.9073882,19.2021026],[72.9075831,19.2021308],[72.9085295,19.2023808],[72.9086392,19.2024098],[72.9087277,19.2024218],[72.9088008,19.2024286],[72.9089852,19.2024685],[72.9089853,19.2024685],[72.9091347,19.2031675],[72.9092934,19.20387],[72.9092982,19.2038897],[72.909344,19.2040793],[72.9094646,19.2045774],[72.9096124,19.2052116],[72.9099214,19.2064964],[72.9101687,19.2075954],[72.911116,19.207805],[72.911627,19.2078815],[72.9122371,19.207946],[72.9127872,19.20802],[72.9133,19.2080792],[72.9134645,19.208264],[72.9141144,19.2091477],[72.9148605,19.2101727],[72.9157366,19.2126075],[72.9159616,19.2131772],[72.9163305,19.2141739],[72.9167179,19.2153834],[72.9172118,19.2161664],[72.9179077,19.2163635],[72.9193659,19.21674],[72.920089,19.2169335],[72.922291,19.2163945],[72.9250625,19.2160101],[72.9324329,19.2078528],[72.9326842,19.2066938],[72.9353378,19.2049319],[72.9365433,19.2039855],[72.9411622,19.2018562],[72.941367,19.1956996],[72.941724,19.1922445],[72.9416978,19.1910551],[72.9411319,19.1900811],[72.939847,19.188974],[72.9407464,19.1886481],[72.9413343,19.1881573],[72.94194,19.1873861],[72.9422479,19.1876548],[72.9428767,19.1878532],[72.9434392,19.1875968],[72.9442546,19.1879767],[72.944738,19.1879683],[72.9448792,19.1880211],[72.9450318,19.1879342],[72.9457593,19.1879285],[72.9463521,19.1877872],[72.9464482,19.1878903],[72.9465788,19.1878007],[72.9467275,19.1880204],[72.9469571,19.1879332],[72.946874,19.1876567],[72.9472903,19.1876354],[72.9475413,19.1878151],[72.9481166,19.1875608],[72.948139,19.1875023],[72.9486387,19.1875888],[72.9497703,19.1887029],[72.9523677,19.186394],[72.953303,19.1847412],[72.9534477,19.184851],[72.9537316,19.1849157],[72.9544135,19.1847782],[72.9544561,19.1848044],[72.9544595,19.1851701],[72.9549813,19.1851776],[72.955084,19.1848693],[72.955177,19.1847606],[72.9554233,19.1846512],[72.955528,19.1843682],[72.9558557,19.1842167],[72.9558877,19.1837988],[72.9556915,19.1835684],[72.9557866,19.1833308],[72.9564213,19.1830071],[72.9565578,19.1827644],[72.9566637,19.1827068],[72.957343,19.1827011],[72.9575038,19.1825905],[72.9576982,19.1826659],[72.9580208,19.1825524],[72.9581648,19.1821675],[72.9583474,19.1821528],[72.958452,19.1819278],[72.9586574,19.1816866],[72.9585385,19.1810504],[72.958622,19.1808092],[72.95867,19.1807584],[72.9588093,19.180858],[72.9590187,19.1808146],[72.9595604,19.1802074],[72.9596001,19.1800619],[72.9593925,19.1797084],[72.959394,19.1794204],[72.9597466,19.1793144],[72.9597501,19.1790616],[72.9597979,19.178933],[72.9601734,19.1789001],[72.9604985,19.1791148],[72.9607781,19.1789015],[72.9608763,19.1790084],[72.9610622,19.1788707],[72.9615821,19.1794789],[72.9616685,19.1794425],[72.9617324,19.1793911],[72.9618567,19.1790107],[72.9621528,19.1786949],[72.9625495,19.1784252],[72.9626225,19.178107],[72.9625576,19.1776151],[72.9633791,19.1768267],[72.963784,19.1766703],[72.9639722,19.1768977],[72.964487,19.1768812],[72.9657448,19.1771438],[72.9662046,19.1774267],[72.9662862,19.1775204],[72.9667659,19.1776556],[72.9669691,19.1779506],[72.9677638,19.1777923],[72.9680256,19.1779136],[72.9679595,19.1775312],[72.9681556,19.1768995],[72.9684274,19.1763224],[72.9685081,19.1760117],[72.9686761,19.1759134],[72.9690217,19.1727562],[72.9720345,19.172718],[72.9742464,19.1742018],[72.9771448,19.1721654],[72.9803131,19.1703446],[72.9817485,19.1703648],[72.9796906,19.168768],[72.9791331,19.1667292],[72.9790857,19.1666005],[72.978969,19.166221],[72.9787714,19.165497],[72.9783708,19.164443],[72.9774261,19.1618647],[72.9769099,19.1601154],[72.9768271,19.1598554],[72.9763666,19.1579506],[72.9761727,19.1571816],[72.9763017,19.1562668],[72.9762567,19.1557834],[72.9762223,19.1556317],[72.976094,19.1549241],[72.9758394,19.1536179],[72.975817,19.153528],[72.9757349,19.1530233],[72.9756595,19.1526554],[72.9755447,19.1524723],[72.9753362,19.1523183],[72.9750183,19.1518945],[72.973732,19.1501713],[72.9735543,19.1499883],[72.9730351,19.1492978],[72.9729335,19.1491336],[72.9722574,19.1479886],[72.9718735,19.1473491],[72.9717764,19.147137],[72.9708794,19.1455921],[72.9705285,19.1449761],[72.9702949,19.1445265],[72.9699305,19.1438929],[72.9692865,19.1428151],[72.969027,19.1423927],[72.968074,19.140654],[72.9670342,19.1397327],[72.9656789,19.1390777],[72.9650374,19.138404],[72.9645245,19.1378731],[72.9641358,19.1374567],[72.9624581,19.1356997],[72.9622282,19.135455],[72.9614352,19.1346531],[72.9613111,19.1345277],[72.9601076,19.1354394],[72.9596882,19.1357963],[72.9593867,19.1361347],[72.958895,19.1367537],[72.9583182,19.1375426],[72.9579796,19.1380844],[72.9576495,19.1384948],[72.9572648,19.1388455],[72.956892,19.139354],[72.956842,19.1394784],[72.9567837,19.1397209],[72.9567001,19.1402985],[72.9566541,19.1410636],[72.9566601,19.1416074],[72.9566618,19.1417572],[72.9567269,19.1420865],[72.9568121,19.1424753],[72.9570124,19.1430559],[72.9571613,19.1433205],[72.957311,19.1435194],[72.9580405,19.1443754],[72.9582249,19.144568],[72.9583892,19.1447013],[72.9586911,19.1448953],[72.9599821,19.1456469],[72.9609623,19.1460851],[72.9613461,19.1462896],[72.9614224,19.1463531],[72.961494,19.1464215],[72.9615603,19.1464945],[72.9616211,19.1465716],[72.9616762,19.1466527],[72.9617251,19.1467371],[72.9617678,19.1468247],[72.9618039,19.1469148],[72.9618334,19.1470071],[72.961856,19.1471011],[72.9618716,19.1471964],[72.9618586,19.1472847],[72.9618395,19.147372],[72.9618142,19.1474579],[72.961783,19.147542],[72.961746,19.147624],[72.961606,19.1479943],[72.9615692,19.1481369],[72.9615369,19.1483129],[72.9615257,19.1484081],[72.9615041,19.1485318],[72.961468,19.1486125],[72.9614474,19.1486599],[72.9613862,19.1487355],[72.9611688,19.1488761],[72.9602204,19.1493137],[72.9599627,19.1494681],[72.9589474,19.1499569],[72.9588297,19.1499907],[72.9582782,19.1501641],[72.9577711,19.1502494],[72.9572297,19.1502196],[72.9570895,19.1501989],[72.9568842,19.150168],[72.9567089,19.150147],[72.9565784,19.1501503],[72.9564578,19.1501728],[72.9562413,19.1502372],[72.955959,19.1503484],[72.9557265,19.1504936],[72.955534,19.1506488],[72.955412,19.1507762],[72.9552804,19.1508748],[72.9546813,19.1512984],[72.9556317,19.1527483],[72.9569538,19.1546706],[72.9544445,19.1552479],[72.9521096,19.155795],[72.9500426,19.1562886],[72.949291,19.1564613],[72.9490904,19.1565052],[72.9476741,19.1568384],[72.9473964,19.1569156],[72.9473132,19.1569485],[72.9472328,19.1569872],[72.9471556,19.1570314],[72.947082,19.1570808],[72.9470125,19.1571353],[72.9469523,19.1571897],[72.9468962,19.1572479],[72.9468443,19.1573096],[72.946797,19.1573745],[72.9467499,19.1574575],[72.9467095,19.1575437],[72.9466761,19.1576325],[72.9466498,19.1577234],[72.9466308,19.157816],[72.9466192,19.1579097],[72.9466151,19.1580039],[72.9466184,19.1580982],[72.9466292,19.158192],[72.9469507,19.1593631],[72.9469673,19.1594545],[72.9469771,19.1595468],[72.9469802,19.1596395],[72.9469764,19.1597322],[72.9469659,19.1598244],[72.9469486,19.1599157],[72.9469246,19.1600056],[72.9468941,19.1600937],[72.9468572,19.1601796],[72.9468141,19.1602629],[72.9467587,19.1603345],[72.9466986,19.1604027],[72.9466342,19.1604672],[72.9465656,19.1605278],[72.9464932,19.1605841],[72.9464173,19.160636],[72.946338,19.1606834],[72.9462558,19.1607259],[72.9449014,19.1613885],[72.944235,19.1617125],[72.9440202,19.161807],[72.9439119,19.1618542],[72.9438291,19.1618905],[72.9424842,19.1624173],[72.94123,19.162893],[72.9397042,19.1634625],[72.939279,19.1636216],[72.9391223,19.1636645],[72.9389638,19.1637009],[72.9388038,19.1637309],[72.9386427,19.1637543],[72.9384806,19.1637711],[72.9383178,19.1637813],[72.9375699,19.1638256],[72.9374833,19.1638245],[72.937397,19.1638295],[72.9373112,19.1638403],[72.9372264,19.163857],[72.9371432,19.1638795],[72.9370619,19.1639076],[72.9369829,19.1639412],[72.935308,19.1648687],[72.9343792,19.1653619],[72.9340019,19.1655579],[72.9335213,19.1658602],[72.9320048,19.1668864],[72.9316341,19.1671004],[72.9315871,19.1671231],[72.9314993,19.1671491],[72.9314197,19.1671714],[72.9313402,19.1671898],[72.9312872,19.1671989],[72.9312282,19.167206],[72.9311773,19.1672112],[72.9309814,19.1672211],[72.9306277,19.167114],[72.9303011,19.1669872],[72.9300937,19.166904],[72.930048,19.1668821],[72.9299605,19.1668337],[72.9298218,19.1667373],[72.9296326,19.1666003],[72.9296006,19.1665776],[72.9295734,19.1665652],[72.9295441,19.1665565],[72.9294949,19.1665541],[72.9286971,19.166515],[72.928708,19.1664642],[72.9287188,19.1664104],[72.9287264,19.1663726],[72.9287299,19.1663555],[72.9287305,19.1663509],[72.9287309,19.1663489],[72.9287344,19.1663204],[72.9287344,19.16632],[72.9287553,19.1661558],[72.9287645,19.1660754],[72.9287731,19.1659996],[72.9287732,19.1659995],[72.9287732,19.1659991],[72.9287732,19.165999],[72.9287744,19.1659884],[72.928828,19.1655583],[72.928884,19.1654734],[72.9290182,19.1652698],[72.9287268,19.1653138],[72.9286498,19.1653258],[72.928692,19.1652229],[72.9287117,19.1651789],[72.9287568,19.165078],[72.9288595,19.1648304],[72.9288638,19.164731],[72.9288757,19.1644251],[72.9288781,19.164212],[72.9288408,19.1639669],[72.9288291,19.1638897],[72.9288191,19.1638564],[72.9288049,19.1638092],[72.9287344,19.1635522],[72.9286618,19.1632646],[72.928657,19.1632455],[72.9286569,19.1632288],[72.9286569,19.163224],[72.9286634,19.1632117],[72.9286698,19.1631994],[72.928737,19.1631243],[72.9289811,19.162834],[72.9288836,19.16221],[72.9288618,19.1620705],[72.928749,19.1613489],[72.9286963,19.1610419],[72.9286796,19.1609449],[72.9286596,19.1608284],[72.9286367,19.160695],[72.9286037,19.1604818],[72.9286314,19.160213],[72.9286306,19.1602005],[72.9286073,19.1600652],[72.9285853,19.1599377],[72.9285532,19.1597415],[72.9285267,19.1595794],[72.9285182,19.1595133],[72.9285099,19.1594687],[72.9285031,19.159396],[72.9284927,19.1592643],[72.9284941,19.1588307],[72.9285027,19.1587775],[72.9285294,19.1586531],[72.9285533,19.158542],[72.928561,19.1585071],[72.9285887,19.1582788],[72.9286088,19.1581644],[72.9286104,19.1581551],[72.9286383,19.1580763],[72.9286866,19.1578654],[72.928664,19.157701],[72.9286249,19.1574284],[72.9285629,19.1573368],[72.9284777,19.1572109],[72.9284573,19.1571807],[72.9284118,19.1571192],[72.928355,19.1570404],[72.9282997,19.1569458],[72.9282292,19.1568241],[72.9281949,19.1567588],[72.9281897,19.1567038],[72.9281829,19.1566318],[72.9281367,19.1565107],[72.9280917,19.1563996],[72.9280578,19.1563053],[72.9280341,19.1562385],[72.9279259,19.1561388],[72.9277792,19.1560013],[72.9276465,19.1558815],[72.9275551,19.155798],[72.9275033,19.1557509],[72.9274389,19.1556925],[72.9273723,19.1556301],[72.927288,19.1555483],[72.9272383,19.1555039],[72.927207,19.1554587],[72.9272046,19.1554557],[72.9271917,19.1553944],[72.9272278,19.1552768],[72.9272723,19.1551578],[72.9272818,19.1551304],[72.9273127,19.155032],[72.9273508,19.1549131],[72.9273614,19.1548443],[72.9273968,19.1546145],[72.9274301,19.1544461],[72.9274635,19.1541402],[72.9274413,19.1539192],[72.9273394,19.1537758],[72.9272358,19.1536578],[72.9269546,19.1533353],[72.9267234,19.153065],[72.9266751,19.1530667],[72.9265869,19.1530698],[72.9262225,19.1531386],[72.9260185,19.1531099],[72.9258159,19.1529772],[72.925759,19.1529444],[72.92549,19.1527635],[72.9254329,19.1526818],[72.9251074,19.1520157],[72.9247845,19.1520382],[72.9245227,19.1516326],[72.9242587,19.151245],[72.9241572,19.1510649],[72.9241278,19.1509945],[72.9240923,19.1509349],[72.9240548,19.1508522],[72.924038,19.150708],[72.924028,19.150494],[72.9240295,19.1499937],[72.9240327,19.1499354],[72.9240463,19.1495315],[72.9239335,19.1493415],[72.9238273,19.1491534],[72.9238109,19.1490514],[72.9237111,19.1487504],[72.9236792,19.1486776],[72.9236791,19.1486775],[72.9236783,19.1486755],[72.9236099,19.1483339],[72.9235497,19.148147],[72.9234383,19.1477258],[72.9233975,19.1475943],[72.9233389,19.1473364],[72.9232454,19.1470526],[72.9231621,19.1468784],[72.9231098,19.1467273],[72.9229651,19.1462978],[72.922755,19.146027],[72.9226134,19.1457522],[72.9223786,19.1455317],[72.9221558,19.1453082],[72.9216426,19.144613],[72.9208603,19.1440699],[72.9206669,19.1440631],[72.9196391,19.1425966],[72.9191923,19.1419544],[72.9188743,19.1415068],[72.9184463,19.1408699],[72.9181294,19.1414049],[72.9177194,19.1414098],[72.9176846,19.1414102],[72.9171247,19.1413403],[72.9168074,19.1413337],[72.9162581,19.1413092],[72.9159247,19.1414078],[72.9156198,19.141498],[72.9155913,19.1415064],[72.9155468,19.1415196],[72.9152902,19.1415919],[72.91525,19.1416032],[72.9151463,19.141631],[72.9145429,19.1417112],[72.9143668,19.1417367],[72.9142765,19.1417495],[72.9139208,19.1417947],[72.9135352,19.1412714],[72.9130853,19.141202],[72.9128756,19.1411686],[72.9128131,19.1408664],[72.9127655,19.1406388],[72.9127223,19.1404485],[72.9123865,19.1403741],[72.9122238,19.1403405],[72.9118345,19.1402444],[72.9116866,19.1402909],[72.9113536,19.1403958],[72.9107316,19.1405939],[72.9103264,19.1402577],[72.9101437,19.1401154],[72.9100302,19.1400265],[72.9099884,19.1400118],[72.9099414,19.1400041],[72.9098527,19.1399783],[72.9097274,19.1399446],[72.9095061,19.1398879],[72.909203,19.1398068],[72.9088297,19.1397062],[72.9086891,19.139672],[72.9084772,19.1396154],[72.9082733,19.1395586],[72.9081748,19.1395315],[72.908114,19.1395199],[72.9079439,19.1394733],[72.9076454,19.1393953],[72.9073623,19.1393252],[72.9070825,19.1400482],[72.9069603,19.1402608],[72.9066283,19.1403047],[72.9065427,19.1401848],[72.9064488,19.1400501],[72.9064381,19.1399501],[72.9062005,19.139726],[72.906162,19.139676],[72.9059606,19.1397648],[72.9055368,19.1399704],[72.9053272,19.1400671],[72.9052616,19.1401076],[72.9049602,19.1402486],[72.9047809,19.1403456],[72.9047789,19.1405711],[72.9048142,19.1409699],[72.9045679,19.1410279],[72.9042759,19.1411031],[72.9037944,19.1412376],[72.9034791,19.1412429],[72.903479,19.1412429],[72.9030995,19.1412484],[72.9030994,19.1412484],[72.9030717,19.1412488],[72.9026268,19.1412578],[72.9020738,19.1412631],[72.9020737,19.1412631],[72.9019828,19.1412641],[72.9020247,19.1408416],[72.9019575,19.1405275],[72.9017801,19.140473],[72.9015983,19.1404136],[72.9011782,19.1406429],[72.9010527,19.1404203],[72.9008552,19.1400784],[72.900627,19.1397072],[72.9001994,19.1398109],[72.8997847,19.1393498],[72.8995583,19.1398946],[72.8994736,19.1401599],[72.8993247,19.1404041],[72.899289,19.1404656],[72.8992596,19.1405161],[72.8992036,19.1406126],[72.899156,19.1406918],[72.8991417,19.1407158],[72.8991295,19.1407382],[72.8991184,19.1407555],[72.899063,19.1408416],[72.8990545,19.1408523],[72.8990341,19.1408769],[72.8990096,19.1408946],[72.8989706,19.140919],[72.898926,19.1409468],[72.8986497,19.1410394],[72.8986344,19.1410446],[72.897239,19.1415231],[72.8969828,19.1416165],[72.8967902,19.1416947],[72.8966415,19.1417664],[72.8963677,19.1418878],[72.8962223,19.1419628],[72.8960904,19.1420252],[72.896007,19.1420934],[72.8958797,19.1422176],[72.8957014,19.1423934],[72.895638,19.1424607],[72.8955011,19.1425774],[72.8954006,19.1426337],[72.895194,19.1426223],[72.8946304,19.1426115],[72.8944856,19.1426105],[72.8944231,19.1420903],[72.8941399,19.1420044],[72.8942234,19.1427606],[72.894416,19.1431587],[72.8947414,19.1438162],[72.8949135,19.1441673],[72.8950052,19.144341],[72.8952841,19.1449036],[72.8953377,19.1452054],[72.8953081,19.1452749],[72.8952496,19.1454123],[72.8951998,19.1455522],[72.8951652,19.1457551],[72.8951642,19.1457609],[72.895156,19.1458177],[72.8951505,19.1459568],[72.8951264,19.1464978],[72.8950212,19.1468305],[72.8949898,19.1472951],[72.8945359,19.1480556],[72.8943302,19.1484003],[72.8936302,19.1495798],[72.8934246,19.1499252],[72.8931745,19.1503528],[72.8929848,19.1506772],[72.8930591,19.1517156],[72.8931137,19.152328],[72.8931715,19.1524552],[72.8935914,19.153159],[72.8935228,19.153573],[72.8935005,19.153708],[72.8934579,19.153729],[72.8926678,19.1541194],[72.8919835,19.1547684],[72.8919418,19.154808],[72.891122,19.1555859],[72.89079,19.1559011],[72.8901637,19.1565101],[72.889413,19.1568481],[72.8899618,19.1572606],[72.8903186,19.1575288],[72.8904565,19.1576325],[72.8904575,19.1578585],[72.8904593,19.1582607],[72.8904512,19.15847],[72.890465,19.1593902],[72.8904689,19.1598896],[72.8910258,19.1602583],[72.8915514,19.1602669],[72.8919707,19.1614042],[72.8921327,19.161895],[72.8924755,19.1631768],[72.8924287,19.1634259],[72.8923718,19.1637292],[72.8923431,19.1638819]]]]}}]}